id,lat,lng,locale,displayName,displayNameAlternate,street,zipCode,city,timezone,stateProvinceCode,displayAddress
1,38.8176,-9.148,pt/pt,Loures,IKEA Loures,EN 250 Rua 28 de Setembro,2660-001,"Frielas, Loures, Lisboa",Europe/Lisbon,PT11,"EN 250 Rua 28 de Setembro, Frielas, Loures, Lisboa"
1,38.8176,-9.148,pt/en,Loures,IKEA Loures,EN 250 Rua 28 de Setembro,2660-001,"Frielas, Loures, Lisboa",Europe/Lisbon,PT11,"EN 250 Rua 28 de Setembro, Frielas, Loures, Lisboa"
2,50.4863,30.5219,ua/uk,IKEA Київ,IKEA Київ,"проспект Степана Бандери, 36,",04073,Kyiv,Europe/Kiev,UA30,"проспект Степана Бандери, 36,, Kyiv"
3,49.1899,-123.0797,ca/en,Richmond,IKEA Richmond,3320 Jacombs Road,V6V 1Z6,Richmond,America/Vancouver,CABC,"3320 Jacombs Road, Richmond"
3,49.1899,-123.0797,ca/fr,Richmond,IKEA Richmond,3320 Jacombs Road,V6V 1Z6,Richmond,America/Vancouver,CABC,"3320 Jacombs Road, Richmond"
4,45.3503,-75.7841,ca/en,Ottawa,IKEA Ottawa,2685 Iris Street,K2C 3S4,Ottawa,America/Toronto,CAON,"2685 Iris Street, Ottawa"
4,45.3503,-75.7841,ca/fr,Ottawa,IKEA Ottawa,2685 Iris Street,K2C 3S4,Ottawa,America/Toronto,CAON,"2685 Iris Street, Ottawa"
5,56.996218445547804,9.865353140687175,dk/da,Aalborg,IKEA Aalborg,Krebsen 40,9200,Aalborg,Europe/Copenhagen,DK80,"Krebsen 40, Aalborg"
6,-37.9275,145.1438,au/en,Springvale,IKEA Springvale,917 Princes Highway,3171,Springvale,Australia/Melbourne,AUVI,"917 Princes Highway, Springvale"
7,58.1873,8.1584,no/no,Sørlandet,IKEA Sørlandet,Sydinga 20,4636,Kristiansand,Europe/Oslo,,"Sydinga 20, Kristiansand"
7,58.1873,8.1584,no/en,Sørlandet,IKEA Sørlandet,Sydinga 20,4636,Kristiansand,Europe/Oslo,,"Sydinga 20, Kristiansand"
8,61.451,23.7704,fi/fi,Tampere,IKEA Tampere,Leppästensuonkatu 4,33840,Tampere,Europe/Helsinki,FILS,"Leppästensuonkatu 4, Tampere"
8,61.451,23.7704,fi/en,Tampere,IKEA Tampere,Leppästensuonkatu 4,33840,Tampere,Europe/Helsinki,FILS,"Leppästensuonkatu 4, Tampere"
9,41.2094959,-8.6884153,pt/pt,Matosinhos,IKEA Matosinhos,Avenida Dr. Óscar Lopes,4450-745,Matosinhos,Europe/Lisbon,PT13,"Avenida Dr. Óscar Lopes, Matosinhos"
9,41.2094959,-8.6884153,pt/en,Matosinhos,IKEA Matosinhos,Avenida Dr. Óscar Lopes,4450-745,Matosinhos,Europe/Lisbon,PT13,"Avenida Dr. Óscar Lopes, Matosinhos"
10,56.5486,14.1327,se/sv,HSU SE,IKEA HSU SE,SJÖGATAN,34381,ÄLMHULT,Europe/Stockholm,,"SJÖGATAN, ÄLMHULT"
10,56.5486,14.1327,se/en,HSU SE,IKEA HSU SE,SJÖGATAN,34381,ÄLMHULT,Europe/Stockholm,,"SJÖGATAN, ÄLMHULT"
12,59.2707,17.9173,se/sv,Stockholm Kungens Kurva,IKEA Stockholm Kungens Kurva,Ekgårdsvägen 1,14 175,Kungens Kurva,Europe/Stockholm,SEAB,"Ekgårdsvägen 1, Kungens Kurva"
12,59.2707,17.9173,se/en,Stockholm Kungens Kurva,IKEA Stockholm Kungens Kurva,Ekgårdsvägen 1,14 175,Kungens Kurva,Europe/Stockholm,SEAB,"Ekgårdsvägen 1, Kungens Kurva"
17,58.4333,15.5867,se/sv,Linköping,IKEA Linköping,Västra Svedengatan 7,581 11,Linköping,Europe/Stockholm,,"Västra Svedengatan 7, Linköping"
17,58.4333,15.5867,se/en,Linköping,IKEA Linköping,Västra Svedengatan 7,581 11,Linköping,Europe/Stockholm,,"Västra Svedengatan 7, Linköping"
18,43.97830544461172,4.891127345993009,fr/fr,Avignon,IKEA Avignon,100 CHEMIN DU PONT BLANC,84270,VEDENE,Europe/Paris,FRPAC,"100 CHEMIN DU PONT BLANC, VEDENE"
19,59.4208,17.8581,se/sv,Stockholm Barkarby,IKEA Stockholm Barkarby,Folkungavägen 50,17738,Barkarby,Europe/Stockholm,,"Folkungavägen 50, Barkarby"
19,59.4208,17.8581,se/en,Stockholm Barkarby,IKEA Stockholm Barkarby,Folkungavägen 50,17738,Barkarby,Europe/Stockholm,,"Folkungavägen 50, Barkarby"
20,59.6078,16.457,se/sv,Västerås,IKEA Västerås,Domkraftsvägen 2,721 38,Västerås,Europe/Stockholm,,"Domkraftsvägen 2, Västerås"
20,59.6078,16.457,se/en,Västerås,IKEA Västerås,Domkraftsvägen 2,721 38,Västerås,Europe/Stockholm,,"Domkraftsvägen 2, Västerås"
21,45.7925,16.15555,hr/hr,Zagreb,Robna kuća IKEA Zagreb,Ulica Alfreda Nobela 2,10361,Sop,Europe/Zagreb,HR21,"Ulica Alfreda Nobela 2, Sop"
22,1.3744558681055423,103.93235696881214,sg/en,Tampines,IKEA Tampines,60 Tampines North Drive 2,528764,Singapore 528764,Asia/Singapore,,"60 Tampines North Drive 2, Singapore 528764"
23,28.0536,-16.6121,es/es,Tenerife,IKEA Tenerife,PARQUE COMERCIAL LA LAGUNA,38205,"LA LAGUNA, TENERIFE",Atlantic/Canary,ESTF,"PARQUE COMERCIAL LA LAGUNA, LA LAGUNA, TENERIFE"
23,28.0536,-16.6121,es/eu,Tenerifa,IKEA Tenerifa,PARQUE COMERCIAL LA LAGUNA,38205,"LA LAGUNA, TENERIFE",Atlantic/Canary,ESTF,"PARQUE COMERCIAL LA LAGUNA, LA LAGUNA, TENERIFE"
23,28.0536,-16.6121,es/gl,Tenerifa,IKEA Tenerifa,PARQUE COMERCIAL LA LAGUNA,38205,"LA LAGUNA, TENERIFE",Atlantic/Canary,ESTF,"PARQUE COMERCIAL LA LAGUNA, LA LAGUNA, TENERIFE"
23,28.0536,-16.6121,es/ca,Tenerifa,IKEA Tenerifa,PARQUE COMERCIAL LA LAGUNA,38205,"LA LAGUNA, TENERIFE",Atlantic/Canary,ESTF,"PARQUE COMERCIAL LA LAGUNA, LA LAGUNA, TENERIFE"
23,28.0536,-16.6121,es/en,Tenerifa,IKEA Tenerifa,PARQUE COMERCIAL LA LAGUNA,38205,"LA LAGUNA, TENERIFE",Atlantic/Canary,ESTF,"PARQUE COMERCIAL LA LAGUNA, LA LAGUNA, TENERIFE"
26,42.3252,-83.4516,us/en,"Canton, MI","IKEA Canton, MI",41640 Ford Road,48187,Canton,America/Detroit,USMI,"41640 Ford Road, Canton"
26,42.3252,-83.4516,us/es,"Canton, MI","IKEA Canton, MI",41640 Ford Road,48187,Canton,America/Detroit,USMI,"41640 Ford Road, Canton"
27,30.5569,-97.6897,us/en,"Round Rock, TX","IKEA Round Rock, TX",1 IKEA Way,78665,Round Rock,America/Chicago,USTX,"1 IKEA Way, Round Rock"
27,30.5569,-97.6897,us/es,"Round Rock, TX","IKEA Round Rock, TX",1 IKEA Way,78665,Round Rock,America/Chicago,USTX,"1 IKEA Way, Round Rock"
28,45.5712,-122.5537,us/en,"Portland, OR","IKEA Portland, OR",10280 NE Cascades Parkway,97220,Portland,America/Los_Angeles,USOR,"10280 NE Cascades Parkway, Portland"
28,45.5712,-122.5537,us/es,"Portland, OR","IKEA Portland, OR",10280 NE Cascades Parkway,97220,Portland,America/Los_Angeles,USOR,"10280 NE Cascades Parkway, Portland"
29,42.3941,14.168,it/it,Chieti San Giovanni Teatino,IKEA Chieti San Giovanni Teatino,"Via Regolizie, 22",66020,SAN GIOVANNI TEATINO,Europe/Rome,ITCH,"Via Regolizie, 22, SAN GIOVANNI TEATINO"
30,41.62736,-4.78812,es/eu,IKEA Valladolid,IKEA Valladolid,Calle Me Falta un Tornillo 5,47195,Arroyo de la Encomienda (Valladolid),Europe/Madrid,ESVA,"Calle Me Falta un Tornillo 5, Arroyo de la Encomienda (Valladolid)"
30,41.62736,-4.78812,es/gl,IKEA Valladolid,IKEA Valladolid,Calle Me Falta un Tornillo 5,47195,Arroyo de la Encomienda (Valladolid),Europe/Madrid,ESVA,"Calle Me Falta un Tornillo 5, Arroyo de la Encomienda (Valladolid)"
30,41.62736,-4.78812,es/ca,IKEA Valladolid,IKEA Valladolid,Calle Me Falta un Tornillo 5,47195,Arroyo de la Encomienda (Valladolid),Europe/Madrid,ESVA,"Calle Me Falta un Tornillo 5, Arroyo de la Encomienda (Valladolid)"
30,41.62736,-4.78812,es/en,IKEA Valladolid,IKEA Valladolid,Calle Me Falta un Tornillo 5,47195,Arroyo de la Encomienda (Valladolid),Europe/Madrid,ESVA,"Calle Me Falta un Tornillo 5, Arroyo de la Encomienda (Valladolid)"
30,41.62736,-4.78812,es/es,Valladolid,IKEA Valladolid,Calle Me Falta un Tornillo 5,47195,Arroyo de la Encomienda (Valladolid),Europe/Madrid,ESVA,"Calle Me Falta un Tornillo 5, Arroyo de la Encomienda (Valladolid)"
31,40.35050496066859,-3.855852149987735,es/es,Alcorcón,IKEA Alcorcón,"Avenida del  Ejército de Tierra 1, Polígono El Lucero",28922,Alcorcón (Madrid),Europe/Madrid,ESM,"Avenida del  Ejército de Tierra 1, Polígono El Lucero, Alcorcón (Madrid)"
31,40.35050496066859,-3.855852149987735,es/eu,Alcorcón,IKEA Alcorcón,"Avenida del  Ejército de Tierra 1, Polígono El Lucero",28922,Alcorcón (Madrid),Europe/Madrid,ESM,"Avenida del  Ejército de Tierra 1, Polígono El Lucero, Alcorcón (Madrid)"
31,40.35050496066859,-3.855852149987735,es/gl,Alcorcón,IKEA Alcorcón,"Polígono El Lucero, Avenida Ejército de Tierra 1",28922,Alcorcon - Madrid,Europe/Madrid,ESM,"Polígono El Lucero, Avenida Ejército de Tierra 1, Alcorcon - Madrid"
31,40.35050496066859,-3.855852149987735,es/ca,Alcorcón,IKEA Alcorcón,"Avenida del  Ejército de Tierra 1, Polígono El Lucero",28922,Alcorcón (Madrid),Europe/Madrid,ESM,"Avenida del  Ejército de Tierra 1, Polígono El Lucero, Alcorcón (Madrid)"
31,40.35050496066859,-3.855852149987735,es/en,Alcorcón,IKEA Alcorcón,Avda Ejercito de Tierra 1 El Lucero,28922,Alcorcon - Madrid,Europe/Madrid,ESM,"Avda Ejercito de Tierra 1 El Lucero, Alcorcon - Madrid"
38,53.4073,-6.2758,ie/en,Ballymun,IKEA Ballymun,"Off St Magarets Road, Ballymun",D11 FW18,Dublin,Europe/Dublin,IED,"Off St Magarets Road, Ballymun, Dublin"
39,45.4912,-73.6908,ca/en,Montreal,IKEA Montreal,9191 Boulevard Cavendish,H4T 1M8,Montreal,America/Montreal,CAQC,"9191 Boulevard Cavendish, Montreal"
39,45.4912,-73.6908,ca/fr,Montréal,IKEA Montréal,9191 Boulevard Cavendish,H4T 1M8,Montréal,America/Montreal,CAQC,"9191 Boulevard Cavendish, Montréal"
40,43.3279,-79.8292,ca/en,Burlington,IKEA Burlington,1065 Plains Road East,L7T 4K1,Burlington,America/Toronto,CAON,"1065 Plains Road East, Burlington"
40,43.3279,-79.8292,ca/fr,Burlington,IKEA Burlington,1065 Plains Road East,L7T 4K1,Burlington,America/Toronto,CAON,"1065 Plains Road East, Burlington"
42,27.9541,-82.4327,us/en,"Tampa, FL","IKEA Tampa, FL",1103 N 22nd Street,33605,Tampa,America/New_York,USFL,"1103 N 22nd Street, Tampa"
42,27.9541,-82.4327,us/es,"Tampa, FL","IKEA Tampa, FL",1103 N 22nd Street,33605,Tampa,America/New_York,USFL,"1103 N 22nd Street, Tampa"
44,28.9744,-13.5355,es/es,Lanzarote,IKEA Lanzarote,PARQUE INDUSTRIAL ARRECIFE PUERTO,35500,LANZAROTE,Atlantic/Canary,ESGC,"PARQUE INDUSTRIAL ARRECIFE PUERTO, LANZAROTE"
44,28.9744,-13.5355,es/eu,Lanzarote,IKEA Lanzarote,PARQUE INDUSTRIAL ARRECIFE PUERTO,35500,LANZAROTE,Atlantic/Canary,ESGC,"PARQUE INDUSTRIAL ARRECIFE PUERTO, LANZAROTE"
44,28.9744,-13.5355,es/gl,Lanzarote,IKEA Lanzarote,PARQUE INDUSTRIAL ARRECIFE PUERTO,35500,LANZAROTE,Atlantic/Canary,ESGC,"PARQUE INDUSTRIAL ARRECIFE PUERTO, LANZAROTE"
44,28.9744,-13.5355,es/ca,Lanzarote,IKEA Lanzarote,PARQUE INDUSTRIAL ARRECIFE PUERTO,35500,LANZAROTE,Atlantic/Canary,ESGC,"PARQUE INDUSTRIAL ARRECIFE PUERTO, LANZAROTE"
44,28.9744,-13.5355,es/en,Lanzarote,IKEA Lanzarote,PARQUE INDUSTRIAL ARRECIFE PUERTO,35500,LANZAROTE,Atlantic/Canary,ESGC,"PARQUE INDUSTRIAL ARRECIFE PUERTO, LANZAROTE"
45,1.2884,103.8056,sg/en,Alexandra,IKEA Alexandra,317 Alexandra Road,159965,Singapore,Asia/Singapore,,"317 Alexandra Road, Singapore"
47,39.5534,2.7034,es/es,Mallorca,IKEA Mallorca,Cami Fondo S/N (Via Cintura),07007,Palma De Mallorca,Europe/Madrid,ESPM,"Cami Fondo S/N (Via Cintura), Palma De Mallorca"
47,39.5534,2.7034,es/eu,Mallorca,IKEA Mallorca,Cami Fondo S/N (Via Cintura),07007,Palma De Mallorca,Europe/Madrid,ESPM,"Cami Fondo S/N (Via Cintura), Palma De Mallorca"
47,39.5534,2.7034,es/gl,Mallorca,IKEA Mallorca,Cami Fondo S/N (Via Cintura),07007,Palma De Mallorca,Europe/Madrid,ESPM,"Cami Fondo S/N (Via Cintura), Palma De Mallorca"
47,39.5534,2.7034,es/ca,Mallorca,IKEA Mallorca,Cami Fondo S/N (Via Cintura),07007,Palma De Mallorca,Europe/Madrid,ESPM,"Cami Fondo S/N (Via Cintura), Palma De Mallorca"
47,39.5534,2.7034,es/en,Mallorca,IKEA Mallorca,Cami Fondo S/N (Via Cintura),07007,Palma De Mallorca,Europe/Madrid,ESPM,"Cami Fondo S/N (Via Cintura), Palma De Mallorca"
48,39.5369,-0.5541,es/es,Central unit Ribarroja Del Turia,IKEA Central unit Ribarroja Del Turia,Calle a Nave 12,46190,Ribarroja Del Turia - Valencia,Europe/Madrid,ESV,"Calle a Nave 12, Ribarroja Del Turia - Valencia"
48,39.5369,-0.5541,es/eu,Central unit Ribarroja Del Turia,IKEA Central unit Ribarroja Del Turia,Calle a Nave 12,46190,Ribarroja Del Turia - Valencia,Europe/Madrid,ESV,"Calle a Nave 12, Ribarroja Del Turia - Valencia"
48,39.5369,-0.5541,es/gl,Central unit Ribarroja Del Turia,IKEA Central unit Ribarroja Del Turia,Calle a Nave 12,46190,Ribarroja Del Turia - Valencia,Europe/Madrid,ESV,"Calle a Nave 12, Ribarroja Del Turia - Valencia"
48,39.5369,-0.5541,es/ca,Central unit Ribarroja Del Turia,IKEA Central unit Ribarroja Del Turia,Calle a Nave 12,46190,Ribarroja Del Turia - Valencia,Europe/Madrid,ESV,"Calle a Nave 12, Ribarroja Del Turia - Valencia"
48,39.5369,-0.5541,es/en,Central unit Ribarroja Del Turia,IKEA Central unit Ribarroja Del Turia,Calle a Nave 12,46190,Ribarroja Del Turia - Valencia,Europe/Madrid,ESV,"Calle a Nave 12, Ribarroja Del Turia - Valencia"
50,44.71038,20.56313,rs/sr,Beograd,IKEA Beograd,Astrid Lindgren 11,11231,Beograd,Europe/Belgrade,RS00,"Astrid Lindgren 11, Beograd"
51,50.3921,2.9775,fr/fr,Hénin-Beaumont,IKEA Hénin-Beaumont,BD OLOF PALME,62110,HENIN BEAUMONT,Europe/Paris,FRHDF,"BD OLOF PALME, HENIN BEAUMONT"
53,58.356,11.8176,se/sv,Uddevalla,IKEA Uddevalla,Östra Torpvägen 30,45176,UDDEVALLA,Europe/Stockholm,SEO,"Östra Torpvägen 30, UDDEVALLA"
53,58.356,11.8176,se/en,Uddevalla,IKEA Uddevalla,Östra Torpvägen 30,45176,UDDEVALLA,Europe/Stockholm,SEO,"Östra Torpvägen 30, UDDEVALLA"
54,55.6591,12.2871,dk/da,HSU DK,IKEA HSU DK,Mårkærvej 15,2630,Taastrup,Europe/Copenhagen,,"Mårkærvej 15, Taastrup"
55,24.489372220583796,54.61324490994604,ae/ar,أبو ظبي,ايكيا أبو ظبي,"أبو ظبي, جزيرة ياس",52718,أبوظبي,Asia/Dubai,,"أبو ظبي, جزيرة ياس, أبوظبي"
55,24.489372220583796,54.61324490994604,ae/en,Abu Dhabi,IKEA Abu Dhabi,IKEA Abu Dhabi YAS Island,52718,Abu Dhabi,Asia/Dubai,,"IKEA Abu Dhabi YAS Island, Abu Dhabi"
57,13.6476897,100.6788506,th/en,Bangna,IKEA Bangna,"38 Moo 6, Bangna-Trad Rd, Bangkaew",10540,"Bangplee,Samut Prakarn",Asia/Bangkok,TH11,"38 Moo 6, Bangna-Trad Rd, Bangkaew, Bangplee,Samut Prakarn"
57,13.6476897,100.6788506,th/th,บางนา,อิเกีย บางนา,"38 หมู่ 6, ถนนบางนาตราด, บางแก้ว",10540,บางพลี สมุทรปราการ,Asia/Riyadh,TH11,"38 หมู่ 6, ถนนบางนาตราด, บางแก้ว, บางพลี สมุทรปราการ"
59,44.5062,26.085,ro/ro,Băneasa,IKEA Băneasa,"Șos. București-Ploiești nr. 42A, Sector 1",013696,București,Europe/Bucharest,ROB,"Șos. București-Ploiești nr. 42A, Sector 1, București"
60,48.4178,-4.4413,fr/fr,Brest,IKEA Brest,LES CHAMPS DE COATAUDON - LE FROUTVEN,29490,GUIPAVAS,Europe/Paris,FRBRE,"LES CHAMPS DE COATAUDON - LE FROUTVEN, GUIPAVAS"
63,48.30451793,11.6342291,de/de,München-Eching,IKEA München-Eching,Heisenbergstraße 14,85386,Eching,Europe/Berlin,DEBY,"Heisenbergstraße 14, Eching"
63,48.30451793,11.6342291,de/en,München-Eching,IKEA München-Eching,Heisenbergstraße 14,85386,Eching,Europe/Berlin,DEBY,"Heisenbergstraße 14, Eching"
64,39.572,-104.8749,us/es,"Centennial, CO","IKEA Centennial, CO",9800 East IKEA Way,80112,Centennial,America/Denver,USCO,"9800 East IKEA Way, Centennial"
64,39.572,-104.8749,us/en,"Centennial, CO","IKEA Centennial, CO",9800 East IKEA Way,80112,Centennial,America/Denver,USCO,"9800 East IKEA Way, Centennial"
65,26.3097,50.1675,sa/ar,الظهران,ايكيا معرض الظهران,طريق الأمير فيصل بن فهد، الدوحة الجنوبية,31942,الظهران,Asia/Riyadh,SA04,"طريق الأمير فيصل بن فهد، الدوحة الجنوبية, الظهران"
65,26.3097,50.1675,sa/en,Dhahran,IKEA Dhahran store,Prince Faisal Bin Fahad Street,31942,Dhahran,Asia/Riyadh,SA04,"Prince Faisal Bin Fahad Street, Dhahran"
66,48.4047727,10.8713152,de/de,Augsburg,IKEA Augsburg,Otto-Hahn-Straße 99,86368,Gersthofen,Europe/Berlin,DEBY,"Otto-Hahn-Straße 99, Gersthofen"
66,48.4047727,10.8713152,de/en,Augsburg,IKEA Augsburg,Otto-Hahn-Straße 99,86368,Gersthofen,Europe/Berlin,DEBY,"Otto-Hahn-Straße 99, Gersthofen"
67,35.293,-80.7642,us/en,"Charlotte, NC","IKEA Charlotte, NC",8300 IKEA Boulevard,28262,Charlotte,America/New_York,USNC,"8300 IKEA Boulevard, Charlotte"
67,35.293,-80.7642,us/es,"Charlotte, NC","IKEA Charlotte, NC",8300 IKEA Boulevard,28262,Charlotte,America/New_York,USNC,"8300 IKEA Boulevard, Charlotte"
68,50.0587,8.4156,de/de,HSU DE,IKEA HSU DE,Hochheimer Weg 5,65719,Hofheim-Diedenbergen,Europe/Berlin,DEHE,"Hochheimer Weg 5, Hofheim-Diedenbergen"
68,50.0587,8.4156,de/en,HSU DE,IKEA HSU DE,Hochheimer Weg 5,65719,Hofheim-Diedenbergen,Europe/Berlin,DEHE,"Hochheimer Weg 5, Hofheim-Diedenbergen"
69,53.14015975,8.25497267,de/de,Oldenburg,IKEA Oldenburg,Holler Landstraße 89,26135,Oldenburg,Europe/Berlin,DENI,"Holler Landstraße 89, Oldenburg"
69,53.14015975,8.25497267,de/en,Oldenburg,IKEA Oldenburg,Holler Landstraße 89,26135,Oldenburg,Europe/Berlin,DENI,"Holler Landstraße 89, Oldenburg"
70,59.8471,17.6931,se/sv,Uppsala,IKEA Uppsala,Rapsgatan 3,753 23,Uppsala,Europe/Stockholm,,"Rapsgatan 3, Uppsala"
70,59.8471,17.6931,se/en,Uppsala,IKEA Uppsala,Rapsgatan 3,753 23,Uppsala,Europe/Stockholm,,"Rapsgatan 3, Uppsala"
75,49.30552288,8.62934443,de/de,Walldorf,IKEA Walldorf,Josef-Reiert-Straße 9,69190,Walldorf,Europe/Berlin,DEBW,"Josef-Reiert-Straße 9, Walldorf"
75,49.30552288,8.62934443,de/en,Walldorf,IKEA Walldorf,Josef-Reiert-Straße 9,69190,Walldorf,Europe/Berlin,DEBW,"Josef-Reiert-Straße 9, Walldorf"
76,59.875,10.4966,no/no,HSU NO,IKEA HSU NO,Billingstadsletta 18,1396,Billingstad,Europe/Oslo,,"Billingstadsletta 18, Billingstad"
76,59.875,10.4966,no/en,HSU NO,IKEA HSU NO,Billingstadsletta 18,1396,Billingstad,Europe/Oslo,,"Billingstadsletta 18, Billingstad"
78,46.4765,6.3973,ch/de,Aubonne,IKEA Aubonne,Pré Neuf,1170,Aubonne,Europe/Zurich,CHVD,"Pré Neuf, Aubonne"
78,46.4765,6.3973,ch/fr,Aubonne,IKEA Aubonne,Pré Neuf,1170,Aubonne,Europe/Zurich,CHVD,"Pré Neuf, Aubonne"
78,46.4765,6.3973,ch/en,Aubonne,IKEA Aubonne,Pré Neuf,1170,Aubonne,Europe/Zurich,CHVD,"Pré Neuf, Aubonne"
78,46.4765,6.3973,ch/it,Aubonne,IKEA Aubonne,Pré Neuf,1170,Aubonne,Europe/Zurich,CHVD,"Pré Neuf, Aubonne"
79,47.4217,8.3752,ch/de,Spreitenbach,IKEA Spreitenbach,Müslistrasse 16,8957,Spreitenbach,Europe/Zurich,CHAG,"Müslistrasse 16, Spreitenbach"
79,47.4217,8.3752,ch/fr,Spreitenbach,IKEA Spreitenbach,Müslistrasse 16,8957,Spreitenbach,Europe/Zurich,CHAG,"Müslistrasse 16, Spreitenbach"
79,47.4217,8.3752,ch/en,Spreitenbach,IKEA Spreitenbach,Müslistrasse 16,8957,Spreitenbach,Europe/Zurich,CHAG,"Müslistrasse 16, Spreitenbach"
79,47.4217,8.3752,ch/it,Spreitenbach,IKEA Spreitenbach,Müslistrasse 16,8957,Spreitenbach,Europe/Zurich,CHAG,"Müslistrasse 16, Spreitenbach"
82,48.59669576528127,2.439204012938318,fr/fr,Evry,IKEA Evry,1 RUE DU CLOS AUX POIS - LISSE,91090,EVRY,Europe/Paris,FRIDF,"1 RUE DU CLOS AUX POIS - LISSE, EVRY"
83,48.82962043902274,1.9680016277564276,fr/fr,Plaisir,IKEA Plaisir,202 RUE HENRI BARBUSSE,78370,PLAISIR,Europe/Paris,FRIDF,"202 RUE HENRI BARBUSSE, PLAISIR"
85,48.1065,16.3184,at/de,Vösendorf,IKEA Vösendorf,Shopping City Süd,2334,Vösendorf,Europe/Vienna,AT03,"Shopping City Süd, Vösendorf"
85,48.1065,16.3184,at/en,Vösendorf,IKEA Vösendorf,Shopping City Süd,2334,Vösendorf,Europe/Vienna,AT3,"Shopping City Süd, Vösendorf"
86,47.3408339951798,5.064184712334835,fr/fr,Dijon,IKEA Dijon,1 RUE DE CRACOVIE,21000,DIJON,Europe/Paris,FRBFC,"1 RUE DE CRACOVIE, DIJON"
87,51.4976,5.4708,nl/en,Eindhoven,IKEA Eindhoven,Ekkersrijt 4089,5692 DB,Son,Europe/Amsterdam,NLNB,"Ekkersrijt 4089, Son"
87,51.4976,5.4708,nl/nl,Eindhoven,IKEA Eindhoven,Ekkersrijt 4089,5692 DB,Son,Europe/Amsterdam,NLNB,"Ekkersrijt 4089, Son"
88,52.3031,4.9494,nl/en,Amsterdam,IKEA Amsterdam,Hullenbergweg 2,1101 BL,Amsterdam,Europe/Amsterdam,NLNH,"Hullenbergweg 2, Amsterdam"
88,52.3031,4.9494,nl/nl,Amsterdam,IKEA Amsterdam,Hullenbergweg 2,1101 BL,Amsterdam,Europe/Amsterdam,NLNH,"Hullenbergweg 2, Amsterdam"
89,50.8992,5.9454,nl/en,Heerlen,IKEA Heerlen,In de Cramer 142,6412 PM,Heerlen,Europe/Amsterdam,NLLI,"In de Cramer 142, Heerlen"
89,50.8992,5.9454,nl/nl,Heerlen,IKEA Heerlen,In de Cramer 142,6412 PM,Heerlen,Europe/Amsterdam,NLLI,"In de Cramer 142, Heerlen"
90,48.2545,16.4723,at/de,Wien Nord,IKEA Wien Nord,Sverigestrasse 1 A,1220,Wien,Europe/Vienna,AT9,"Sverigestrasse 1 A, Wien"
90,48.2545,16.4723,at/en,Wien Nord,IKEA Wien Nord,Sverigestrasse 1 A,1220,Wien,Europe/Vienna,AT9,"Sverigestrasse 1 A, Wien"
91,59.8739,10.4974,no/no,Slependen,IKEA Slependen,Nesbruveien 40,1396,Billingstad,Europe/Oslo,,"Nesbruveien 40, Billingstad"
91,59.8739,10.4974,no/en,Slependen,IKEA Slependen,Nesbruveien 40,1396,Billingstad,Europe/Oslo,,"Nesbruveien 40, Billingstad"
92,54.10863267,12.051639,de/de,Rostock,IKEA Rostock,Messestraße 25,18069,Rostock,Europe/Berlin,DEMV,"Messestraße 25, Rostock"
92,54.10863267,12.051639,de/en,Rostock,IKEA Rostock,Messestraße 25,18069,Rostock,Europe/Berlin,DEMV,"Messestraße 25, Rostock"
94,55.659344218196985,12.286570982964511,dk/da,Taastrup,IKEA Taastrup,Mårkærvej 15,2630,Taastrup,Europe/Copenhagen,DK15,"Mårkærvej 15, Taastrup"
95,59.9338,10.8731,no/no,Furuset,IKEA Furuset,Strømsveien 303,1081,Oslo,Europe/Oslo,,"Strømsveien 303, Oslo"
95,59.9338,10.8731,no/en,Furuset,IKEA Furuset,Strømsveien 303,1081,Oslo,Europe/Oslo,,"Strømsveien 303, Oslo"
98,37.446606848460526,15.03625493631573,it/it,Catania,IKEA Catania,Tangenziale di Catania - Uscita Zona Industriale Nord. Via Passo del Cavaliere,95121,CATANIA,Europe/Rome,ITCT,"Tangenziale di Catania - Uscita Zona Industriale Nord. Via Passo del Cavaliere, CATANIA"
101,45.9733,8.927,ch/de,Grancia,IKEA Grancia,Centro Lugano Sud,6916,Grancia,Europe/Zurich,CHTI,"Centro Lugano Sud, Grancia"
101,45.9733,8.927,ch/fr,Grancia,IKEA Grancia,Centro Lugano Sud,6916,Grancia,Europe/Zurich,CHTI,"Centro Lugano Sud, Grancia"
101,45.9733,8.927,ch/en,Grancia,IKEA Grancia,Centro Lugano Sud,6916,Grancia,Europe/Zurich,CHTI,"Centro Lugano Sud, Grancia"
101,45.9733,8.927,ch/it,Grancia,IKEA Grancia,Centro Lugano Sud,6916,Grancia,Europe/Zurich,CHTI,"Centro Lugano Sud, Grancia"
102,50.9849209,6.8966186,de/de,Köln-Am Butzweilerhof,IKEA Köln-Am Butzweilerhof,Butzweilerstraße 51,50829,Köln,Europe/Berlin,DENW,"Butzweilerstraße 51, Köln"
102,50.9849209,6.8966186,de/en,Köln-Am Butzweilerhof,IKEA Köln-Am Butzweilerhof,Butzweilerstraße 51,50829,Köln,Europe/Berlin,DENW,"Butzweilerstraße 51, Köln"
103,40.5083,-111.8922,us/en,"Draper, UT","IKEA Draper, UT",67 West IKEA Way,84020,Draper,America/Denver,USUT,"67 West IKEA Way, Draper"
103,40.5083,-111.8922,us/es,"Draper, UT","IKEA Draper, UT",67 West IKEA Way,84020,Draper,America/Denver,USUT,"67 West IKEA Way, Draper"
104,45.5503,9.3292,it/it,HSU IT,IKEA HSU IT,"strada provinciale 208, 3",20061,Carugate (MI),Europe/Rome,ITMI,"strada provinciale 208, 3, Carugate (MI)"
106,59.2127,15.1359,se/sv,Örebro,IKEA Örebro,Kundvägen 2,70231,Örebro,Europe/Stockholm,,"Kundvägen 2, Örebro"
106,59.2127,15.1359,se/en,Örebro,IKEA Örebro,Kundvägen 2,70231,Örebro,Europe/Stockholm,,"Kundvägen 2, Örebro"
109,57.7719,14.2038,se/sv,Jönköping,IKEA Jönköping,Kompanigatan 70,55305,Jönköping,Europe/Stockholm,,"Kompanigatan 70, Jönköping"
109,57.7719,14.2038,se/en,Jönköping,IKEA Jönköping,Kompanigatan 70,55305,Jönköping,Europe/Stockholm,,"Kompanigatan 70, Jönköping"
110,21.5577,39.1829,sa/ar,جدة,ايكيا معرض جدة,الامير محمد بن عبدالعزيز الفرعي,21482,جدة,Asia/Riyadh,SA02,"الامير محمد بن عبدالعزيز الفرعي, جدة"
110,21.5577,39.1829,sa/en,Jeddah,IKEA Jeddah store,Prince Mohammed bin Abdulaziz,21482,JEDDAH,Asia/Riyadh,SA02,"Prince Mohammed bin Abdulaziz, JEDDAH"
111,44.0793,12.4752,it/it,Rimini,IKEA Rimini,Via Tolemaide 140,47922,RIMINI,Europe/Rome,ITRN,"Via Tolemaide 140, RIMINI"
113,54.62149967112336,-5.863119619198685,gb/en,Belfast,IKEA Belfast,"Holywood Exchange, 306 Airport RD W",BT3 9EJ,Belfast,Europe/London,GBANN,"Holywood Exchange, 306 Airport RD W, Belfast"
116,45.8657,13.4334,it/it,Gorizia Villesse,IKEA Gorizia Villesse,"Località' Maranuz, 1",34070,VILLESSE,Europe/Rome,ITGO,"Località' Maranuz, 1, VILLESSE"
117,52.3090339,10.5045591,de/de,Braunschweig,IKEA Braunschweig,Hansestraße 27,38112,Braunschweig,Europe/Berlin,DENI,"Hansestraße 27, Braunschweig"
117,52.3090339,10.5045591,de/en,Braunschweig,IKEA Braunschweig,Hansestraße 27,38112,Braunschweig,Europe/Berlin,DENI,"Hansestraße 27, Braunschweig"
118,50.80238823,12.85975825,de/de,Chemnitz,IKEA Chemnitz,Im Neefepark 5,09116,Chemnitz,Europe/Berlin,DESN,"Im Neefepark 5, Chemnitz"
118,50.80238823,12.85975825,de/en,Chemnitz,IKEA Chemnitz,Im Neefepark 5,09116,Chemnitz,Europe/Berlin,DESN,"Im Neefepark 5, Chemnitz"
119,51.98214858,8.49225392,de/de,Bielefeld,IKEA Bielefeld,Südring 7,33647,Bielefeld,Europe/Berlin,DENW,"Südring 7, Bielefeld"
119,51.98214858,8.49225392,de/en,Bielefeld,IKEA Bielefeld,Südring 7,33647,Bielefeld,Europe/Berlin,DENW,"Südring 7, Bielefeld"
121,55.75499959890006,12.519070184814545,dk/da,Gentofte,IKEA Gentofte,Nybrovej 2,2820,Gentofte,Europe/Copenhagen,DK15,"Nybrovej 2, Gentofte"
122,60.6339,16.9898,se/sv,Gävle,IKEA Gävle,Valbovägen 307,81832,Valbo,Europe/Stockholm,,"Valbovägen 307, Valbo"
122,60.6339,16.9898,se/en,Gävle,IKEA Gävle,Valbovägen 307,81832,Valbo,Europe/Stockholm,,"Valbovägen 307, Valbo"
124,49.82212726,9.98357782,de/de,Würzburg,IKEA Würzburg,Mainfrankenhöhe 2,97078,Würzburg,Europe/Berlin,DEBY,"Mainfrankenhöhe 2, Würzburg"
124,49.82212726,9.98357782,de/en,Würzburg,IKEA Würzburg,Mainfrankenhöhe 2,97078,Würzburg,Europe/Berlin,DEBY,"Mainfrankenhöhe 2, Würzburg"
125,50.9037,-1.4129,gb/en,Southampton,IKEA Southampton,West Quay Road,SO15 1GY,Southampton,Europe/London,GBHAM,"West Quay Road, Southampton"
126,58.8867,5.7212,no/no,Forus,IKEA Forus,Grenseveien 2,4313,Sandnes,Europe/Oslo,,"Grenseveien 2, Sandnes"
126,58.8867,5.7212,no/en,Forus,IKEA Forus,Grenseveien 2,4313,Sandnes,Europe/Oslo,,"Grenseveien 2, Sandnes"
129,52.3668,13.5558,de/de,Berlin-Waltersdorf,IKEA Berlin-Waltersdorf,"Airport Center, Am Rondell 8",12529,Schönefeld,Europe/Berlin,DEBE,"Airport Center, Am Rondell 8, Schönefeld"
129,52.3668,13.5558,de/en,Berlin-Waltersdorf,IKEA Berlin-Waltersdorf,"Airport Center, Am Rondell 8",12529,Schönefeld,Europe/Berlin,DEBE,"Airport Center, Am Rondell 8, Schönefeld"
130,43.42949830249604,5.267922527486527,fr/fr,Vitrolles,IKEA Vitrolles,CHEMIN DE LA BASTIDE BLANCHE,13127,VITROLLES,Europe/Paris,FRPAC,"CHEMIN DE LA BASTIDE BLANCHE, VITROLLES"
131,48.9751,2.4945,fr/fr,Paris Nord,IKEA Paris Nord,176 AVENUE DE LA PLAINE DE FRANCE,95500,ROISSY CHARLES DE G,Europe/Paris,FRIDF,"176 AVENUE DE LA PLAINE DE FRANCE, ROISSY CHARLES DE G"
133,50.649828962865364,2.9777361431978626,fr/fr,Lille,IKEA Lille,130 RUE GRAND BUT,59160,LOMME,Europe/Paris,FRHDF,"130 RUE GRAND BUT, LOMME"
134,44.8851,-0.5658,fr/fr,Bordeaux,IKEA Bordeaux,AVENUE DES 40 JOURNAUX,33300,BORDEAUX-LAC,Europe/Paris,FRNAQ,"AVENUE DES 40 JOURNAUX, BORDEAUX-LAC"
139,51.3486862,12.1831434,de/de,Halle/Leipzig,IKEA Halle/Leipzig,Nordpark 17,06237,Leuna,Europe/Berlin,DESN,"Nordpark 17, Leuna"
139,51.3486862,12.1831434,de/en,Halle/Leipzig,IKEA Halle/Leipzig,Nordpark 17,06237,Leuna,Europe/Berlin,DESN,"Nordpark 17, Leuna"
140,53.4178,-2.6289,gb/en,Warrington,IKEA Warrington,910 Europe Boulevard,WA5 7TY,Warrington,Europe/London,GBWRT,"910 Europe Boulevard, Warrington"
141,51.5537,-0.2605,gb/en,IKEA London - Wembley,IKEA London - Wembley,2 Drury Way,NW10 0TH,London,Europe/London,GBLND,"2 Drury Way, London"
142,52.5697,-2.0156,gb/en,Wednesbury,IKEA Wednesbury,"Park Lane, Wednesbury",WS10 9SF,West Midlands,Europe/London,GBBIR,"Park Lane, Wednesbury, West Midlands"
143,54.958493037608314,-1.6804839582590516,gb/en,Gateshead,IKEA Gateshead,Metro Park West,NE11 9XS,"Gateshead, Tyne & Wear",Europe/London,GBGAT,"Metro Park West, Gateshead, Tyne & Wear"
144,51.3794,-0.124,gb/en,Croydon,IKEA Croydon,Access via Hesterman Way,CR0 4YA,Croydon,Europe/London,GBCRY,"Access via Hesterman Way, Croydon"
145,28.483,-81.4273,us/es,"Orlando, FL","IKEA Orlando, FL",4092 Eastgate Dr,32839,Orlando,America/New_York,USFL,"4092 Eastgate Dr, Orlando"
145,28.483,-81.4273,us/en,"Orlando, FL","IKEA Orlando, FL",4092 Eastgate Dr,32839,Orlando,America/New_York,USFL,"4092 Eastgate Dr, Orlando"
146,53.64886399,9.92747005,de/de,Hamburg-Schnelsen,IKEA Hamburg-Schnelsen,Wunderbrunnen 1,22457,"Hamburg, Schnelsen",Europe/Berlin,DEHH,"Wunderbrunnen 1, Hamburg, Schnelsen"
146,53.64886399,9.92747005,de/en,Hamburg-Schnelsen,IKEA Hamburg-Schnelsen,Wunderbrunnen 1,22457,"Hamburg, Schnelsen",Europe/Berlin,DEHH,"Wunderbrunnen 1, Hamburg, Schnelsen"
147,50.8615936,6.9710502,de/de,Köln-Godorf,IKEA Köln-Godorf,Godorfer Hauptstraße 171,50997,Köln,Europe/Berlin,DENW,"Godorfer Hauptstraße 171, Köln"
147,50.8615936,6.9710502,de/en,Köln-Godorf,IKEA Köln-Godorf,Godorfer Hauptstraße 171,50997,Köln,Europe/Berlin,DENW,"Godorfer Hauptstraße 171, Köln"
148,51.4603732,7.0009114,de/de,Essen,IKEA Essen,Altendorfer Straße 2,45127,Essen,Europe/Berlin,DENW,"Altendorfer Straße 2, Essen"
148,51.4603732,7.0009114,de/en,Essen,IKEA Essen,Altendorfer Straße 2,45127,Essen,Europe/Berlin,DENW,"Altendorfer Straße 2, Essen"
149,43.7676,-79.3693,ca/en,North York,IKEA North York,15 Provost Drive,M2K 2X9,North York,America/Toronto,CAON,"15 Provost Drive, North York"
149,43.7676,-79.3693,ca/fr,North York,IKEA North York, , , ,America/Toronto,CAON," ,  "
151,52.0127,4.3816,nl/en,Delft,IKEA Delft,OLOF PALMESTRAAT 1,2616 LN,DELFT,Europe/Amsterdam,NLZH,"OLOF PALMESTRAAT 1, DELFT"
151,52.0127,4.3816,nl/nl,Delft,IKEA Delft,OLOF PALMESTRAAT 1,2616 LN,DELFT,Europe/Amsterdam,NLZH,"OLOF PALMESTRAAT 1, DELFT"
152,39.3747,-76.4623,us/en,"Baltimore, MD","IKEA Baltimore, MD",8352 Honeygo Boulevard,21236,Baltimore,America/New_York,USMD,"8352 Honeygo Boulevard, Baltimore"
152,39.3747,-76.4623,us/es,"Baltimore, MD","IKEA Baltimore, MD",8352 Honeygo Boulevard,21236,Baltimore,America/New_York,USMD,"8352 Honeygo Boulevard, Baltimore"
153,40.4522,-80.1676,us/en,"Pittsburgh, PA","IKEA Pittsburgh, PA",2001 Park Manor Boulevard,15205,Pittsburgh,America/New_York,USPA,"2001 Park Manor Boulevard, Pittsburgh"
153,40.4522,-80.1676,us/es,"Pittsburgh, PA","IKEA Pittsburgh, PA",2001 Park Manor Boulevard,15205,Pittsburgh,America/New_York,USPA,"2001 Park Manor Boulevard, Pittsburgh"
154,40.6751,-74.1697,us/es,"Elizabeth, NJ","IKEA Elizabeth, NJ",1000 IKEA Drive,07201,Elizabeth,America/New_York,USNJ,"1000 IKEA Drive, Elizabeth"
154,40.6751,-74.1697,us/en,"Elizabeth, NJ","IKEA Elizabeth, NJ",1000 IKEA Drive,07201,Elizabeth,America/New_York,USNJ,"1000 IKEA Drive, Elizabeth"
155,46.6394,14.3694,at/de,Klagenfurt,IKEA Klagenfurt,IKEA Platz 1,9020,Klagenfurt,Europe/Vienna,AT2,"IKEA Platz 1, Klagenfurt"
155,46.6394,14.3694,at/en,Klagenfurt,IKEA Klagenfurt,IKEA Platz 1,9020,Klagenfurt,Europe/Vienna,AT2,"IKEA Platz 1, Klagenfurt"
156,40.7744,-73.5315,us/en,"Long Island, NY","IKEA Long Island, NY",1100 Broadway Mall,11801-2714,Hicksville,America/New_York,USNY,"1100 Broadway Mall, Hicksville"
156,40.7744,-73.5315,us/es,"Long Island, NY","IKEA Long Island, NY",1100 Broadway Mall,11801-2714,Hicksville,America/New_York,USNY,"1100 Broadway Mall, Hicksville"
157,38.5866,-121.5535,us/en,"West Sacramento, CA","IKEA West Sacramento, CA",700 IKEA Court,95605,West Sacramento,America/Los_Angeles,USCA,"700 IKEA Court, West Sacramento"
157,38.5866,-121.5535,us/es,"West Sacramento, CA","IKEA West Sacramento, CA",700 IKEA Court,95605,West Sacramento,America/Los_Angeles,USCA,"700 IKEA Court, West Sacramento"
158,42.1367,-71.0687,us/en,"Stoughton, MA","IKEA Stoughton, MA",One IKEA Way,02072,Stoughton,America/New_York,USMA,"One IKEA Way, Stoughton"
158,42.1367,-71.0687,us/es,"Stoughton, MA","IKEA Stoughton, MA",One IKEA Way,02072,Stoughton,America/New_York,USMA,"One IKEA Way, Stoughton"
159,39.3678,-76.4599,us/en,"MD, HSU USE","IKEA MD, HSU USE",9930 Franklin Square Drive,21236-4902,Baltimore,America/New_York,USMD,"9930 Franklin Square Drive, Baltimore"
159,39.3678,-76.4599,us/es,"MD, HSU USE","IKEA MD, HSU USE",9930 Franklin Square Drive,21236-4902,Baltimore,America/New_York,USMD,"9930 Franklin Square Drive, Baltimore"
162,33.8419,-118.2601,us/en,"Carson, CA","IKEA Carson, CA",20700 South Avalon Blvd,90746,Carson,America/Los_Angeles,USCA,"20700 South Avalon Blvd, Carson"
162,33.8419,-118.2601,us/es,"Carson, CA","IKEA Carson, CA",20700 South Avalon Blvd,90746,Carson,America/Los_Angeles,USCA,"20700 South Avalon Blvd, Carson"
163,49.33258909155832,1.0977066812276535,fr/fr,Rouen,IKEA Rouen,AVENUE GUSTAVE PICARD,76410,TOURVILLE LA RIVIERE,Europe/Paris,FRNOR,"AVENUE GUSTAVE PICARD, TOURVILLE LA RIVIERE"
165,37.8312,-122.2925,us/en,"Emeryville, CA","IKEA Emeryville, CA",4400 Shellmound Street,94608,Emeryville,America/Los_Angeles,USCA,"4400 Shellmound Street, Emeryville"
165,37.8312,-122.2925,us/es,"Emeryville, CA","IKEA Emeryville, CA",4400 Shellmound Street,94608,Emeryville,America/Los_Angeles,USCA,"4400 Shellmound Street, Emeryville"
166,32.78,-117.1264,us/en,"San Diego, CA","IKEA San Diego, CA",2149 Fenton Parkway,92108,San Diego,America/Los_Angeles,USCA,"2149 Fenton Parkway, San Diego"
166,32.78,-117.1264,us/es,"San Diego, CA","IKEA San Diego, CA",2149 Fenton Parkway,92108,San Diego,America/Los_Angeles,USCA,"2149 Fenton Parkway, San Diego"
167,33.6905,-117.9163,us/en,"Costa Mesa, CA","IKEA Costa Mesa, CA",1475 South Coast Drive,92626,Costa Mesa,America/Los_Angeles,USCA,"1475 South Coast Drive, Costa Mesa"
167,33.6905,-117.9163,us/es,"Costa Mesa, CA","IKEA Costa Mesa, CA",1475 South Coast Drive,92626,Costa Mesa,America/Los_Angeles,USCA,"1475 South Coast Drive, Costa Mesa"
168,38.6431,-77.2901,us/en,"Woodbridge, VA","IKEA Woodbridge, VA",2900 Potomac Mills Circle,22192,Woodbridge,America/New_York,USVA,"2900 Potomac Mills Circle, Woodbridge"
168,38.6431,-77.2901,us/es,"Woodbridge, VA","IKEA Woodbridge, VA",2900 Potomac Mills Circle,22192,Woodbridge,America/New_York,USVA,"2900 Potomac Mills Circle, Woodbridge"
169,51.0266,3.6954,be/en,Gent,IKEA Gent,Maaltekouter 2,9051,Sint-Denijs-Westrem,Europe/Brussels,BEVOV,"Maaltekouter 2, Sint-Denijs-Westrem"
169,51.0266,3.6954,be/fr,Gent,IKEA Gent,Maaltekouter 2,9051,Sint-Denijs-Westrem,Europe/Brussels,BEVOV,"Maaltekouter 2, Sint-Denijs-Westrem"
169,51.0266,3.6954,be/nl,Gent,IKEA Gent,Maaltekouter 2,9051,Sint-Denijs-Westrem,Europe/Brussels,BEVOV,"Maaltekouter 2, Sint-Denijs-Westrem"
170,41.7274,-88.0379,us/en,"Bolingbrook, IL","IKEA Bolingbrook, IL",750 E Boughton,60440,Bolingbrook,America/Chicago,USIL,"750 E Boughton, Bolingbrook"
170,41.7274,-88.0379,us/es,"Bolingbrook, IL","IKEA Bolingbrook, IL",750 E Boughton,60440,Bolingbrook,America/Chicago,USIL,"750 E Boughton, Bolingbrook"
171,41.51057936342232,2.10695340084005,es/es,IKEA Sabadell,IKEA Sabadell,"Carrer de la Serra de Galliners, s/n",08205,"Sabadell, Barcelona",Europe/Madrid,ESB,"Carrer de la Serra de Galliners, s/n, Sabadell, Barcelona"
171,41.51057936342232,2.10695340084005,es/eu,IKEA Sabadell,IKEA Sabadell,"Carrer de la Serra de Galliners, s/n",08205,"Sabadell, Barcelona",Europe/Madrid,ESB,"Carrer de la Serra de Galliners, s/n, Sabadell, Barcelona"
171,41.51057936342232,2.10695340084005,es/gl,IKEA Sabadell,IKEA Sabadell,Carrer Serra dels Galliners 70,08205,"Sabadell, Barcelona",Europe/Madrid,ESB,"Carrer Serra dels Galliners 70, Sabadell, Barcelona"
171,41.51057936342232,2.10695340084005,es/ca,IKEA Sabadell,IKEA Sabadell,"Carrer de la Serra de Galliners, s/n",08205,"Sabadell, Barcelona",Europe/Madrid,ESB,"Carrer de la Serra de Galliners, s/n, Sabadell, Barcelona"
171,41.51057936342232,2.10695340084005,es/en,IKEA Sabadell,IKEA Sabadell,"Carrer de la Serra de Galliners, s/n",08205,"Sabadell, Barcelona",Europe/Madrid,ESB,"Carrer de la Serra de Galliners, s/n, Sabadell, Barcelona"
172,55.38054250266927,10.42974757094324,dk/da,Odense,IKEA Odense,Ørbækvej 91,5220,Odense,Europe/Copenhagen,DK42,"Ørbækvej 91, Odense"
174,51.2776732,9.5255785,de/de,Kassel,IKEA Kassel,Heinrich-Hertz-Straße 25,34123,Kassel,Europe/Berlin,DEHE,"Heinrich-Hertz-Straße 25, Kassel"
174,51.2776732,9.5255785,de/en,Kassel,IKEA Kassel,Heinrich-Hertz-Straße 25,34123,Kassel,Europe/Berlin,DEHE,"Heinrich-Hertz-Straße 25, Kassel"
175,39.316,-84.4353,us/en,"West Chester, OH","IKEA West Chester, OH",9500 IKEA Way,45069,West Chester,America/New_York,USOH,"9500 IKEA Way, West Chester"
175,39.316,-84.4353,us/es,"West Chester, OH","IKEA West Chester, OH",9500 IKEA Way,45069,West Chester,America/New_York,USOH,"9500 IKEA Way, West Chester"
177,48.137727043458845,-1.7634751876241634,fr/fr,Rennes,IKEA Rennes,RIVE OUEST - 14 AVENUE DES TOUCHES,35740,PACE,Europe/Paris,FRBRE,"RIVE OUEST - 14 AVENUE DES TOUCHES, PACE"
178,50.0511,14.2984,cz/en,Praha – Zličín,IKEA Praha – Zličín,Skandinávská 131/1,155 00,Praha 13,Europe/Prague,CZPR,"Skandinávská 131/1, Praha 13"
178,50.0511,14.2984,cz/cs,Zličín,IKEA Zličín,Skandinávská 131/1,155 00,Praha 5,Europe/Prague,CZPR,"Skandinávská 131/1, Praha 5"
179,51.1576,4.3835,be/en,Wilrijk,IKEA Wilrijk,Boomsesteenweg 755,2610,Wilrijk,Europe/Brussels,BEVAN,"Boomsesteenweg 755, Wilrijk"
179,51.1576,4.3835,be/fr,Wilrijk,IKEA Wilrijk,Boomsesteenweg 755,2610,Wilrijk,Europe/Brussels,BEVAN,"Boomsesteenweg 755, Wilrijk"
179,51.1576,4.3835,be/nl,Wilrijk,IKEA Wilrijk,Boomsesteenweg 755,2610,Wilrijk,Europe/Brussels,BEVAN,"Boomsesteenweg 755, Wilrijk"
180,47.5056,19.1386,hu/hu,Örs vezér téri IKEA,Örs vezér téri IKEA,Örs vezér tere 22,1148,Budapest,Europe/Budapest,HUBU,"Örs vezér tere 22, Budapest"
182,47.4541,18.9398,hu/hu,Budaörsi IKEA,Budaörsi IKEA,Sport utca 2–4,2040,Budaörs,Europe/Budapest,HUPE,"Sport utca 2–4, Budaörs"
183,33.0951,-96.8216,us/es,"Frisco, TX","IKEA Frisco, TX",7171 IKEA Drive,75034,Frisco,America/Chicago,USTX,"7171 IKEA Drive, Frisco"
183,33.0951,-96.8216,us/en,"Frisco, TX","IKEA Frisco, TX",7171 IKEA Drive,75034,Frisco,America/Chicago,USTX,"7171 IKEA Drive, Frisco"
184,52.2632567,7.9714331,de/de,Osnabrück,IKEA Osnabrück,Rheiner Landstraße 215,49078,Osnabrück,Europe/Berlin,DENI,"Rheiner Landstraße 215, Osnabrück"
184,52.2632567,7.9714331,de/en,Osnabrück,IKEA Osnabrück,Rheiner Landstraße 215,49078,Osnabrück,Europe/Berlin,DENI,"Rheiner Landstraße 215, Osnabrück"
185,52.0054,-0.7289,gb/en,Milton Keynes,IKEA Milton Keynes,"Goslington, Off Bletcham Way",MK1 1QB,Milton Keynes,Europe/London,GBMIK,"Goslington, Off Bletcham Way, Milton Keynes"
186,53.4907,-2.1013,gb/en,Manchester,IKEA Manchester,110 Wellington Road,OL6 7TE,Greater Manchester,Europe/London,GBMAN,"110 Wellington Road, Greater Manchester"
187,52.313743,9.8169591,de/de,Hannover EXPO-Park,IKEA Hannover EXPO-Park,Straße der Nationen 10,30539,Hannover,Europe/Berlin,DENI,"Straße der Nationen 10, Hannover"
187,52.313743,9.8169591,de/en,Hannover EXPO-Park,IKEA Hannover EXPO-Park,Straße der Nationen 10,30539,Hannover,Europe/Berlin,DENI,"Straße der Nationen 10, Hannover"
188,52.1331,20.8958,pl/pl,Warszawa Janki,IKEA Warszawa Janki,"Janki, pl. Szwedzki 1",05-090,Raszyn,Europe/Warsaw,PLMZ,"Janki, pl. Szwedzki 1, Raszyn"
189,33.7101,130.4496,jp/ja,福岡新宮,IKEA福岡新宮,糟屋郡新宮町中央駅前2-9-1,811-0120,福岡県,Asia/Tokyo,JP40,福岡県糟屋郡新宮町中央駅前2-9-1
189,33.7101,130.4496,jp/en,Fukuoka Shingu,IKEA Fukuoka Shingu,"2-9-1 Chuou Ekimae, Shingu-machi",811-0120,Kasuya-gun,Asia/Tokyo,JP40,"2-9-1 Chuou Ekimae, Shingu-machi, Kasuya-gun"
197,24.6594,46.7873,sa/ar,الرياض,ايكيا معرض الرياض,الطريق الدائري الشرقي، الفاروق,11633,الرياض,Asia/Riyadh,SA06,"الطريق الدائري الشرقي، الفاروق, الرياض"
197,24.6594,46.7873,sa/en,Riyadh,IKEA Riyadh store,"Eastern Ring Road, Al faruq",11633,Riyadh,Asia/Riyadh,SA06,"Eastern Ring Road, Al faruq, Riyadh"
198,49.25817095433124,3.9643556161401636,fr/fr,Reims,IKEA Reims,ZAC NORD THILLOIS,51370,THILLOIS,Europe/Paris,FRGES,"ZAC NORD THILLOIS, THILLOIS"
199,49.145819724429145,-0.3640724300306005,fr/fr,Caen,IKEA Caen,970 avenue de Suisse Normande,14123,FLEURY SUR ORNE,Europe/Paris,FRNOR,"970 avenue de Suisse Normande, FLEURY SUR ORNE"
202,60.2177,24.6627,fi/fi,Espoo,IKEA Espoo,Espoontie 21,02740,Espoo,Europe/Helsinki,FIES,"Espoontie 21, Espoo"
202,60.2177,24.6627,fi/en,Espoo,IKEA Espoo,Espoontie 21,02740,Espoo,Europe/Helsinki,FIES,"Espoontie 21, Espoo"
203,54.374,18.517,pl/pl,Gdańsk,IKEA Gdańsk,ul. Złota Karczma 26,80-298,Gdańsk,Europe/Warsaw,PLPM,"ul. Złota Karczma 26, Gdańsk"
204,50.0894,19.8976,pl/pl,Kraków,IKEA Kraków,ul. Josepha Conrada 66,31-357,Kraków,Europe/Warsaw,PLMA,"ul. Josepha Conrada 66, Kraków"
205,52.3828,16.9875,pl/pl,Poznań,IKEA Poznań,ul. Szwedzka 10,61-285,Poznań,Europe/Warsaw,PLWP,"ul. Szwedzka 10, Poznań"
206,32.2733,34.8605,il/he,נתניה,איקאה נתניה,"רח' גיבורי ישראל 1, אזה""ת פולג",4250401,נתניה,Asia/Jerusalem,ILM,"רח' גיבורי ישראל 1, אזה""ת פולג, נתניה"
207,26.1215,-80.3319,us/es,"Sunrise, FL","IKEA Sunrise, FL",151 NW 136 Ave,33325,Sunrise,America/New_York,USFL,"151 NW 136 Ave, Sunrise"
207,26.1215,-80.3319,us/en,"Sunrise, FL","IKEA Sunrise, FL",151 NW 136th Ave,33325,Sunrise,America/New_York,USFL,"151 NW 136th Ave, Sunrise"
208,62.8246,27.605,fi/fi,Kuopio,IKEA Kuopio,Ratarinteenkatu 2,70800,Kuopio,Europe/Helsinki,FIIS,"Ratarinteenkatu 2, Kuopio"
208,62.8246,27.605,fi/en,Kuopio,IKEA Kuopio,Ratarinteenkatu 2,70800,Kuopio,Europe/Helsinki,FIIS,"Ratarinteenkatu 2, Kuopio"
209,33.3406,-111.9702,us/es,"Tempe, AZ","IKEA Tempe, AZ",2110 West IKEA Way,85284,Tempe,America/Phoenix,USAZ,"2110 West IKEA Way, Tempe"
209,33.3406,-111.9702,us/en,"Tempe, AZ","IKEA Tempe, AZ",2110 West IKEA Way,85284,Tempe,America/Phoenix,USAZ,"2110 West IKEA Way, Tempe"
210,42.0567,-88.0353,us/en,"Schaumburg, IL","IKEA Schaumburg, IL",1800 McConnor Pkwy,60173,Schaumburg,America/Chicago,USIL,"1800 McConnor Pkwy, Schaumburg"
210,42.0567,-88.0353,us/es,"Schaumburg, IL","IKEA Schaumburg, IL",1800 McConnor Pkwy,60173,Schaumburg,America/Chicago,USIL,"1800 McConnor Pkwy, Schaumburg"
211,40.0942,-75.3079,us/en,"Conshohocken, PA","IKEA Conshohocken, PA",400 Alan Wood Road,19428,Conshohocken,America/New_York,USPA,"400 Alan Wood Road, Conshohocken"
211,40.0942,-75.3079,us/es,"Conshohocken, PA","IKEA Conshohocken, PA",400 Alan Wood Road,19428,Conshohocken,America/New_York,USPA,"400 Alan Wood Road, Conshohocken"
212,44.859,-93.2435,us/en,"Minneapolis, MN","IKEA Minneapolis, MN",8000 IKEA Way,55425-5800,Bloomington,America/Chicago,USMN,"8000 IKEA Way, Bloomington"
212,44.859,-93.2435,us/es,"Minneapolis, MN","IKEA Minneapolis, MN",8000 IKEA Way,55425-5800,Bloomington,America/Chicago,USMN,"8000 IKEA Way, Bloomington"
213,41.295,-72.9192,us/en,"New Haven, CT","IKEA New Haven, CT",450 Sargent Drive,06511,New Haven,America/New_York,USCT,"450 Sargent Drive, New Haven"
213,41.295,-72.9192,us/es,"New Haven, CT","IKEA New Haven, CT",450 Sargent Drive,06511,New Haven,America/New_York,USCT,"450 Sargent Drive, New Haven"
215,39.9167,-75.1401,us/en,"South Philadelphia, PA","IKEA South Philadelphia, PA",2206 S Christopher Columbus Blvd,19148,Philadelphia,America/New_York,USPA,"2206 S Christopher Columbus Blvd, Philadelphia"
215,39.9167,-75.1401,us/es,"South Philadelphia, PA","IKEA South Philadelphia, PA",2206 S Christopher Columbus Blvd,19148,Philadelphia,America/New_York,USPA,"2206 S Christopher Columbus Blvd, Philadelphia"
216,50.9799,-114.0448,ca/en,Calgary,IKEA Calgary,8000 - 11th Street S.E.,T2H 3B2,Calgary,America/Edmonton,CAAB,"8000 - 11th Street S.E., Calgary"
216,50.9799,-114.0448,ca/fr,Calgary,IKEA Calgary,8000 - 11th Street S.E.,T2H 3B2,Calgary,America/Edmonton,CAAB,"8000 - 11th Street S.E., Calgary"
217,31.9526,34.7655,il/he,ראשון לציון,איקאה ראשון לציון,"רח' היוזמה 1, מרכז עסקים שורק, כביש פלמחים",4250401,ראשון לציון,Asia/Jerusalem,ILTA,"רח' היוזמה 1, מרכז עסקים שורק, כביש פלמחים, ראשון לציון"
218,25.223621347391813,55.355481976058776,ae/ar,دبي فيستيفال سيتي,ايكيا دبي فيستيفال سيتي,متجر ايكيا دبي، دبي فيستيفال سيتي,50618,دبي,Asia/Dubai,,"متجر ايكيا دبي، دبي فيستيفال سيتي, دبي"
218,25.223621347391813,55.355481976058776,ae/en,Dubai Festival City,IKEA Dubai Festival City,Dubai Festival City,50618,DUBAI,Asia/Dubai,AEDU,"Dubai Festival City, DUBAI"
219,29.3017923,47.9272038,kw/ar,الأفنيوز,ايكيا الأفنيوز,الطريق الدائري الخامس، منطقة الري,13037,الكويت,Asia/Kuwait,KWKU,"الطريق الدائري الخامس، منطقة الري, الكويت"
219,29.3017923,47.9272038,kw/en,Avenues,IKEA Avenues,"The Avenues Mall, Al Rai, Block 1",13037,Kuwait,Asia/Kuwait,KWKU,"The Avenues Mall, Al Rai, Block 1, Kuwait"
221,51.08640651,13.69434213,de/de,Dresden,IKEA Dresden,Peschelstraße 25,01139,Dresden,Europe/Berlin,DESN,"Peschelstraße 25, Dresden"
221,51.08640651,13.69434213,de/en,Dresden,IKEA Dresden,Peschelstraße 25,01139,Dresden,Europe/Berlin,DESN,"Peschelstraße 25, Dresden"
222,50.1496729,8.942477,de/de,Hanau,IKEA Hanau,Oderstraße 21,63452,Hanau,Europe/Berlin,DEHE,"Oderstraße 21, Hanau"
222,50.1496729,8.942477,de/en,Hanau,IKEA Hanau,Oderstraße 21,63452,Hanau,Europe/Berlin,DEHE,"Oderstraße 21, Hanau"
223,51.49114718,7.36942207,de/de,Dortmund,IKEA Dortmund,Borussiastraße 120,44149,Dortmund,Europe/Berlin,DENW,"Borussiastraße 120, Dortmund"
223,51.49114718,7.36942207,de/en,Dortmund,IKEA Dortmund,Borussiastraße 120,44149,Dortmund,Europe/Berlin,DENW,"Borussiastraße 120, Dortmund"
224,48.70144946,9.00545146,de/de,Sindelfingen,IKEA Sindelfingen,Hanns-Martin-Schleyer-Straße 2,71063,Sindelfingen,Europe/Berlin,DEBW,"Hanns-Martin-Schleyer-Straße 2, Sindelfingen"
224,48.70144946,9.00545146,de/en,Sindelfingen,IKEA Sindelfingen,Hanns-Martin-Schleyer-Straße 2,71063,Sindelfingen,Europe/Berlin,DEBW,"Hanns-Martin-Schleyer-Straße 2, Sindelfingen"
225,48.9180169,9.1539393,de/de,Ludwigsburg,IKEA Ludwigsburg,Heinkelstraße 10,71634,Ludwigsburg,Europe/Berlin,DEBW,"Heinkelstraße 10, Ludwigsburg"
225,48.9180169,9.1539393,de/en,Ludwigsburg,IKEA Ludwigsburg,Heinkelstraße 10,71634,Ludwigsburg,Europe/Berlin,DEBW,"Heinkelstraße 10, Ludwigsburg"
226,52.49217842,9.83772312,de/de,Hannover-Großburgwedel,IKEA Hannover-Großburgwedel,Isernhägener Straße 14,30938,"Burgwedel, Hannover",Europe/Berlin,DENI,"Isernhägener Straße 14, Burgwedel, Hannover"
226,52.49217842,9.83772312,de/en,Hannover-Großburgwedel,IKEA Hannover-Großburgwedel,Isernhägener Straße 14,30938,"Burgwedel, Hannover",Europe/Berlin,DENI,"Isernhägener Straße 14, Burgwedel, Hannover"
227,49.2933549,6.7606477,de/de,Saarlouis,IKEA Saarlouis,Im Hader 1-3,66740,Saarlouis,Europe/Berlin,DESL,"Im Hader 1-3, Saarlouis"
227,49.2933549,6.7606477,de/en,Saarlouis,IKEA Saarlouis,Im Hader 1-3,66740,Saarlouis,Europe/Berlin,DESL,"Im Hader 1-3, Saarlouis"
228,53.0264079,8.80364824,de/de,Brinkum,IKEA Brinkum,Henleinstraße 1A,28816,Brinkum,Europe/Berlin,DEHB,"Henleinstraße 1A, Brinkum"
228,53.0264079,8.80364824,de/en,Brinkum,IKEA Brinkum,Henleinstraße 1A,28816,Brinkum,Europe/Berlin,DEHB,"Henleinstraße 1A, Brinkum"
229,49.001756,12.1776994,de/de,Regensburg,IKEA Regensburg,Sulzfeldstraße 7,93055,Regensburg,Europe/Berlin,DEBY,"Sulzfeldstraße 7, Regensburg"
229,49.001756,12.1776994,de/en,Regensburg,IKEA Regensburg,Sulzfeldstraße 7,93055,Regensburg,Europe/Berlin,DEBY,"Sulzfeldstraße 7, Regensburg"
230,45.4908,-73.6926,ca/en,HSU CA,IKEA HSU CA,9090 Cavendish,H4T 1Z8,Ville St. Laurent,America/Montreal,CAQC,"9090 Cavendish, Ville St. Laurent"
230,45.4908,-73.6926,ca/fr,HSU CA,IKEA HSU CA,9090 Cavendish,H4T 1Z8,Ville St. Laurent,America/Montreal,CAQC,"9090 Cavendish, Ville St. Laurent"
231,44.4889,11.2499,it/it,Bologna Casalecchio,IKEA Bologna Casalecchio,"Via John Lennon, 6",40033,CASALECCHIO di RENO,Europe/Rome,ITBO,"Via John Lennon, 6, CASALECCHIO di RENO"
232,44.4234,8.8846,it/it,Genova,IKEA Genova,"Via Luigi Perini, 5",16152,GENOVA,Europe/Rome,ITGE,"Via Luigi Perini, 5, GENOVA"
233,45.55009,9.33175,it/it,Milano Carugate,IKEA Milano Carugate,"Via dell'Artigianato, 7",20061,CARUGATE,Europe/Rome,ITMI,"Via dell'Artigianato, 7, CARUGATE"
234,41.8364,12.5924,it/it,Roma Anagnina,IKEA Roma Anagnina,"Via Fattoria Rampa, 35",00173,ROMA,Europe/Rome,ITRM,"Via Fattoria Rampa, 35, ROMA"
237,31.8262,35.9016,jo/en,Amman,IKEA Amman,Airport Road - Madaba Bridge,11821,AMMAN,Asia/Amman,JOAM,"Airport Road - Madaba Bridge, AMMAN"
237,31.8262,35.9016,jo/ar,عمَّان,ايكيا عمَّان,طريق المطار، بعد جسر مادبا في اتجاه عمّان,11821,عمّان,Asia/Amman,JOAM,"طريق المطار، بعد جسر مادبا في اتجاه عمّان, عمّان"
239,48.60045362535256,7.730440231219902,fr/fr,Strasbourg,IKEA Strasbourg,26 PLACE DE L'ABATTOIR,67000,STRASBOURG,Europe/Paris,FRGES,"26 PLACE DE L'ABATTOIR, STRASBOURG"
240,48.82824105605143,2.5300976547396212,fr/fr,Villiers,IKEA Villiers,"33,35 RUE JEAN JAURES",94350,VILLIERS SUR MARNE,Europe/Paris,FRIDF,"33,35 RUE JEAN JAURES, VILLIERS SUR MARNE"
241,48.593,2.438,fr/fr,HSU FR,IKEA HSU FR,LE CLOS AUX POIS LISSE,91090,EVRY CEDEX,Europe/Paris,,"LE CLOS AUX POIS LISSE, EVRY CEDEX"
242,43.5171,1.3766,fr/fr,Toulouse,IKEA Toulouse,9 ALLEE DE FRAIXINET,31120,Roques SUR GARONNE,Europe/Paris,FROCC,"9 ALLEE DE FRAIXINET, Roques SUR GARONNE"
244,25.385584,51.443192,qa/en,IKEA Doha store,IKEA Doha store,"Street No. 253, Plot 450, Zone No. 70, Al Shamal Road, Al Daayen Municipality, District Al Ebb City Al Kharaitiyat and Umm Slal Mohamed.",Hotline: 8004532,Doha,Asia/Qatar,QAT,"Street No. 253, Plot 450, Zone No. 70, Al Shamal Road, Al Daayen Municipality, District Al Ebb City Al Kharaitiyat and Umm Slal Mohamed., Doha"
244,25.385584,51.443192,qa/ar,ايكيا الدوحة,ايكيا ايكيا الدوحة,رقم الشارع 253، المربع 450، المنطقة 70، شارع الشمال، بلدية الظعاين منطقة العب مدينة الخريطيات و وأم صلال محمد.,24579,الدوحة,Asia/Qatar,QAT,"رقم الشارع 253، المربع 450، المنطقة 70، شارع الشمال، بلدية الظعاين منطقة العب مدينة الخريطيات و وأم صلال محمد., الدوحة"
245,53.55159758,9.94162073,de/de,Hamburg-Altona,IKEA Hamburg-Altona,Große Bergstraße 164 (Einfahrt Parkhaus: Lawaetzweg 7),22767,Hamburg-Altona,Europe/Berlin,DEHH,"Große Bergstraße 164 (Einfahrt Parkhaus: Lawaetzweg 7), Hamburg-Altona"
245,53.55159758,9.94162073,de/en,Hamburg-Altona,IKEA Hamburg-Altona,Große Bergstraße 164 (Einfahrt Parkhaus: Lawaetzweg 7),22767,Hamburg-Altona,Europe/Berlin,DEHH,"Große Bergstraße 164 (Einfahrt Parkhaus: Lawaetzweg 7), Hamburg-Altona"
246,52.1613,4.5516,nl/en,Leiden,IKEA Leiden,Persant Snoepweg 12,2353 KA,Leiderdorp,Europe/Amsterdam,NLZH,"Persant Snoepweg 12, Leiderdorp"
246,52.1613,4.5516,nl/nl,Leiden,IKEA Leiden,Persant Snoepweg 12,2353 KA,Leiderdorp,Europe/Amsterdam,NLZH,"Persant Snoepweg 12, Leiderdorp"
248,60.4815,15.4198,se/sv,Borlänge,IKEA Borlänge,Norra Backagatan 1,78170,Borlänge,Europe/Stockholm,,"Norra Backagatan 1, Borlänge"
248,60.4815,15.4198,se/en,Borlänge,IKEA Borlänge,Norra Backagatan 1,78170,Borlänge,Europe/Stockholm,,"Norra Backagatan 1, Borlänge"
249,49.8389,-97.2104,ca/en,Winnipeg,IKEA Winnipeg,500 Sterling Lyon Parkway,R3P 1E7,Winnipeg,America/Winnipeg,CAMB,"500 Sterling Lyon Parkway, Winnipeg"
249,49.8389,-97.2104,ca/fr,Winnipeg,IKEA Winnipeg,500 Sterling Lyon Parkway,R3P 1E7,Winnipeg,America/Winnipeg,CAMB,"500 Sterling Lyon Parkway, Winnipeg"
251,28.0093,-15.3874,es/es,Las Palmas,IKEA Las Palmas,"PARQUE COMERCIAL LA ESTRELLA, No 7",35219,"LA MARETA, TELDE",Atlantic/Canary,ESGC,"PARQUE COMERCIAL LA ESTRELLA, No 7, LA MARETA, TELDE"
251,28.0093,-15.3874,es/eu,Las Palmas,IKEA Las Palmas,"PARQUE COMERCIAL LA ESTRELLA, No 7",35219,"LA MARETA, TELDE",Atlantic/Canary,ESGC,"PARQUE COMERCIAL LA ESTRELLA, No 7, LA MARETA, TELDE"
251,28.0093,-15.3874,es/gl,Las Palmas,IKEA Las Palmas,"PARQUE COMERCIAL LA ESTRELLA, No 7",35219,"LA MARETA, TELDE",Atlantic/Canary,ESGC,"PARQUE COMERCIAL LA ESTRELLA, No 7, LA MARETA, TELDE"
251,28.0093,-15.3874,es/ca,Las Palmas,IKEA Las Palmas,"PARQUE COMERCIAL LA ESTRELLA, No 7",35219,"LA MARETA, TELDE",Atlantic/Canary,ESGC,"PARQUE COMERCIAL LA ESTRELLA, No 7, LA MARETA, TELDE"
251,28.0093,-15.3874,es/en,Las Palmas,IKEA Las Palmas,"PARQUE COMERCIAL LA ESTRELLA, No 7",35219,"LA MARETA, TELDE",Atlantic/Canary,ESGC,"PARQUE COMERCIAL LA ESTRELLA, No 7, LA MARETA, TELDE"
256,43.619,-79.535,ca/en,Etobicoke,IKEA Etobicoke,1475 The Queensway,M8Z 1T3,Etobicoke,America/Toronto,CAON,"1475 The Queensway, Etobicoke"
256,43.619,-79.535,ca/fr,Etobicoke,IKEA Etobicoke,1475 The Queensway,M8Z 1T3,Etobicoke,America/Toronto,CAON,"1475 The Queensway, Etobicoke"
257,33.7878,-84.4062,us/en,"Atlanta, GA","IKEA Atlanta, GA",441 16th Street,30363,Atlanta,America/New_York,USGA,"441 16th Street, Atlanta"
257,33.7878,-84.4062,us/es,"Atlanta, GA","IKEA Atlanta, GA",441 16th Street,30363,Atlanta,America/New_York,USGA,"441 16th Street, Atlanta"
258,30.032,31.4085,eg/ar,فستيفال سيتي القاهرة,ايكيا فستيفال سيتي القاهرة,الطريق الدائري، التجمع الخامس. صندوق بريد 11835,الخط الساخن: 16576,القاهرة الجديدة,Africa/Cairo,EGCAI,"الطريق الدائري، التجمع الخامس. صندوق بريد 11835, القاهرة الجديدة"
258,30.032,31.4085,eg/en,Cairo Festival City,IKEA Cairo Festival City,"Ring Road, 5th settlement, P.O. Box 11835",Hotline: 16576,Cairo,Africa/Cairo,EGCAI,"Ring Road, 5th settlement, P.O. Box 11835, Cairo"
260,49.15007792189972,6.188146083592657,fr/fr,Metz,IKEA Metz,RUE DU TROU AUX SERPENTS,57140,LA MAXE,Europe/Paris,FRGES,"RUE DU TROU AUX SERPENTS, LA MAXE"
261,53.7448,-1.6462,gb/en,Leeds,IKEA Leeds,Holden Ing Way,WF17 9AE,"Birstall, Batley",Europe/London,GBLDS,"Holden Ing Way, Birstall, Batley"
262,51.4799,0.284,gb/en,Lakeside,IKEA Lakeside,"Heron Way, Lakeside",RM20 3WJ,SUSSEX,Europe/London,GBESS,"Heron Way, Lakeside, SUSSEX"
263,53.0017,-1.2851,gb/en,Nottingham,IKEA Nottingham,"Ikea Way, Giltbrook",NG16 2RP,Nottingham,Europe/London,GBNTT,"Ikea Way, Giltbrook, Nottingham"
264,51.4734,-2.5675,gb/en,Bristol,IKEA Bristol,"Eastgate Road, Eastville",BS5 6XX,Bristol,Europe/London,GBBST,"Eastgate Road, Eastville, Bristol"
265,55.8795,-3.1705,gb/en,Edinburgh,IKEA Edinburgh,"Costkea way, Loanhead",EH20 9BY,"Edinburgh, Midlothian",Europe/London,GBEDH,"Costkea way, Loanhead, Edinburgh, Midlothian"
266,55.868,-4.3572,gb/en,Glasgow,IKEA Glasgow,99 Kings Inch Drive,G51 4FB,Glasgow,Europe/London,GBGLG,"99 Kings Inch Drive, Glasgow"
267,51.4626,-3.1886,gb/en,Cardiff,IKEA Cardiff,"Ferry Road, Grangetown",CF11 0XR,Cardiff,Europe/London,GBCRF,"Ferry Road, Grangetown, Cardiff"
268,56.5497,14.1637,se/sv,Älmhult,IKEA Älmhult,Handelsvägen 4,34333,Älmhult,Europe/Stockholm,,"Handelsvägen 4, Älmhult"
268,56.5497,14.1637,se/en,Älmhult,IKEA Älmhult,Handelsvägen 4,34333,Älmhult,Europe/Stockholm,,"Handelsvägen 4, Älmhult"
269,33.6302821,-7.4600212,ma/fr,Zenata,IKEA Zenata,Autoroute Casablanca-Mohammedia Sortie Zenata,28630,Mohammedia,Africa/Casablanca,,"Autoroute Casablanca-Mohammedia Sortie Zenata, Mohammedia"
269,33.6302821,-7.4600212,ma/en,Zenata,IKEA Zenata,Highway Casablanca-Mohammedia Zenata motorway exit,28630,Mohammedia,Africa/Casablanca,MACAS,"Highway Casablanca-Mohammedia Zenata motorway exit, Mohammedia"
269,33.6302821,-7.4600212,ma/ar,زناتة,ايكيا زناتة,الطريق السريع ما بين الدار البيضاء-المحمدية مخرج طريق زناتة,28630,المحمدية,Africa/Casablanca,,"الطريق السريع ما بين الدار البيضاء-المحمدية مخرج طريق زناتة, المحمدية"
270,52.0625,5.1006,nl/en,Utrecht,IKEA Utrecht,Van Rensselaerlaan 7,3526 AP,Utrecht,Europe/Amsterdam,NLUT,"Van Rensselaerlaan 7, Utrecht"
270,52.0625,5.1006,nl/nl,Utrecht,IKEA Utrecht,Van Rensselaerlaan 7,3526 AP,Utrecht,Europe/Amsterdam,NLUT,"Van Rensselaerlaan 7, Utrecht"
272,51.9661,5.9976,nl/en,Duiven,IKEA Duiven,Biograaf 2,6921 EV,Duiven,Europe/Amsterdam,NLGE,"Biograaf 2, Duiven"
272,51.9661,5.9976,nl/nl,Duiven,IKEA Duiven,Biograaf 2,6921 EV,Duiven,Europe/Amsterdam,NLGE,"Biograaf 2, Duiven"
273,47.2619,11.4309,at/de,Innsbruck,IKEA Innsbruck,Amraser-See-Straße 56 C,6020,Innsbruck,Europe/Vienna,AT07,"Amraser-See-Straße 56 C, Innsbruck"
273,47.2619,11.4309,at/en,Innsbruck,IKEA Innsbruck,Amraser-See-Straße 56 C,6020,Innsbruck,Europe/Vienna,AT7,"Amraser-See-Straße 56 C, Innsbruck"
274,51.8494,4.5123,nl/en,Barendrecht,IKEA Barendrecht,Hamburg 1,2993 LG,Barendrecht,Europe/Amsterdam,NLZH,"Hamburg 1, Barendrecht"
274,51.8494,4.5123,nl/nl,Barendrecht,IKEA Barendrecht,Hamburg 1,2993 LG,Barendrecht,Europe/Amsterdam,NLZH,"Hamburg 1, Barendrecht"
275,47.098112014056,8.243709431626906,ch/de,Rothenburg,IKEA Rothenburg,Wahligenstrasse 6,6023,Rothenburg,Europe/Zurich,CHLU,"Wahligenstrasse 6, Rothenburg"
275,47.098112014056,8.243709431626906,ch/fr,Rothenburg,IKEA Rothenburg,Wahligenstrasse 6,6023,Rothenburg,Europe/Zurich,CHLU,"Wahligenstrasse 6, Rothenburg"
275,47.098112014056,8.243709431626906,ch/en,Rothenburg,IKEA Rothenburg,Wahligenstrasse 6,6023,Rothenburg,Europe/Zurich,CHLU,"Wahligenstrasse 6, Rothenburg"
275,47.098112014056,8.243709431626906,ch/it,Rothenburg,IKEA Rothenburg,Wahligenstrasse 6,6023,Rothenburg,Europe/Zurich,CHLU,"Wahligenstrasse 6, Rothenburg"
276,43.2921,-3.0072,es/es,IKEA Barakaldo,IKEA Barakaldo,"Parque Comercial Megapark, Erribera Etorbidea 7",48902,Barakaldo (Bilbao),Europe/Madrid,ESBI,"Parque Comercial Megapark, Erribera Etorbidea 7, Barakaldo (Bilbao)"
276,43.2921,-3.0072,es/eu,IKEA Barakaldo,IKEA Barakaldo,"Parque Comercial Megapark, Erribera Etorbidea 7",48902,Barakaldo (Bilbao),Europe/Madrid,ESBI,"Parque Comercial Megapark, Erribera Etorbidea 7, Barakaldo (Bilbao)"
276,43.2921,-3.0072,es/gl,IKEA Barakaldo,IKEA Barakaldo,"Parque Comercial Megapark, Erribera Etorbidea 7",48902,Barakaldo (Bilbao),Europe/Madrid,ESBI,"Parque Comercial Megapark, Erribera Etorbidea 7, Barakaldo (Bilbao)"
276,43.2921,-3.0072,es/ca,IKEA Barakaldo,IKEA Barakaldo,"Parque Comercial Megapark, Erribera Etorbidea 7",48902,Barakaldo (Bilbao),Europe/Madrid,ESBI,"Parque Comercial Megapark, Erribera Etorbidea 7, Barakaldo (Bilbao)"
276,43.2921,-3.0072,es/en,IKEA Barakaldo,IKEA Barakaldo,"Parque Comercial Megapark, Erribera Etorbidea 7",48902,Barakaldo (Bilbao),Europe/Madrid,ESBI,"Parque Comercial Megapark, Erribera Etorbidea 7, Barakaldo (Bilbao)"
277,36.6974,-6.1622,es/es,Jerez,IKEA Jerez,Avenida Escandinavia S/N,11408,Jerez de la Frontera (Cádiz),Europe/Madrid,ESCA,"Avenida Escandinavia S/N, Jerez de la Frontera (Cádiz)"
277,36.6974,-6.1622,es/eu,Jerez,IKEA Jerez,Avenida Escandinavia S/N,11408,Jerez de la Frontera (Cádiz),Europe/Madrid,ESCA,"Avenida Escandinavia S/N, Jerez de la Frontera (Cádiz)"
277,36.6974,-6.1622,es/gl,Jerez,IKEA Jerez,Avenida Escandinavia S/N,11408,Jerez de la Frontera (Cádiz),Europe/Madrid,ESCA,"Avenida Escandinavia S/N, Jerez de la Frontera (Cádiz)"
277,36.6974,-6.1622,es/ca,Jerez,IKEA Jerez,Avenida Escandinavia S/N,11408,Jerez de la Frontera (Cádiz),Europe/Madrid,ESCA,"Avenida Escandinavia S/N, Jerez de la Frontera (Cádiz)"
277,36.6974,-6.1622,es/en,Jerez,IKEA Jerez,Avenida Escandinavia S/N,11408,Jerez de la Frontera (Cádiz),Europe/Madrid,ESCA,"Avenida Escandinavia S/N, Jerez de la Frontera (Cádiz)"
278,49.1555,16.6274,cz/en,Brno,IKEA Brno,Skandinávská 4,619 00,Brno – Dolní Heršpice,Europe/Prague,CZJM,"Skandinávská 4, Brno – Dolní Heršpice"
278,49.1555,16.6274,cz/cs,Brno,IKEA Brno,Skandinávská 4,619 00,Brno-Dolní Herspice,Europe/Prague,CZJM,"Skandinávská 4, Brno-Dolní Herspice"
280,41.459232452650724,2.225983434977278,es/es,IKEA Badalona,IKEA Badalona,"Polígon Montigalà, Carrer de Luxemburg, s/n",08917,"Badalona, Barcelona",Europe/Madrid,ESB,"Polígon Montigalà, Carrer de Luxemburg, s/n, Badalona, Barcelona"
280,41.459232452650724,2.225983434977278,es/eu,IKEA Badalona,IKEA Badalona,"Polígon Montigalà, Carrer de Luxemburg, s/n",08917,"Badalona, Barcelona",Europe/Madrid,ESB,"Polígon Montigalà, Carrer de Luxemburg, s/n, Badalona, Barcelona"
280,41.459232452650724,2.225983434977278,es/gl,IKEA Badalona,IKEA Badalona,"Polígono Montigalá, Carrer de Luxemburg S/N",08917,"Badalona, Barcelona",Europe/Madrid,ESB,"Polígono Montigalá, Carrer de Luxemburg S/N, Badalona, Barcelona"
280,41.459232452650724,2.225983434977278,es/ca,IKEA Badalona,IKEA Badalona,"Polígon Montigalà, Carrer de Luxemburg, s/n",08917,"Badalona, Barcelona",Europe/Madrid,ESB,"Polígon Montigalà, Carrer de Luxemburg, s/n, Badalona, Barcelona"
280,41.459232452650724,2.225983434977278,es/en,IKEA Badalona,IKEA Badalona,"Polígon Montigalà, Carrer de Luxemburg, s/n",08917,"Badalona, Barcelona",Europe/Madrid,ESB,"Polígon Montigalà, Carrer de Luxemburg, s/n, Badalona, Barcelona"
282,40.54582868424224,-3.6119693164843216,es/es,San Sebastián de los Reyes,IKEA San Sebastián de los Reyes,"Parque Comercial Mega Park, Plaza del Comercio S/N",28701,San Sebastián de los Reyes (Madrid),Europe/Madrid,ESM,"Parque Comercial Mega Park, Plaza del Comercio S/N, San Sebastián de los Reyes (Madrid)"
282,40.54582868424224,-3.6119693164843216,es/eu,San Sebastián de los Reyes,IKEA San Sebastián de los Reyes,"Parque Comercial Mega Park, Plaza del Comercio S/N",28701,San Sebastián de los Reyes (Madrid),Europe/Madrid,ESM,"Parque Comercial Mega Park, Plaza del Comercio S/N, San Sebastián de los Reyes (Madrid)"
282,40.54582868424224,-3.6119693164843216,es/gl,San Sebastián de los Reyes,IKEA San Sebastián de los Reyes,"Parque Comercial Mega Park, Plaza del Comercio S/N",28701,San Sebastian de los Reyes (Madrid),Europe/Madrid,ESM,"Parque Comercial Mega Park, Plaza del Comercio S/N, San Sebastian de los Reyes (Madrid)"
282,40.54582868424224,-3.6119693164843216,es/ca,San Sebastián de los Reyes,IKEA San Sebastián de los Reyes,"Parque Comercial Mega Park, Plaza del Comercio S/N",28701,San Sebastián de los Reyes (Madrid),Europe/Madrid,ESM,"Parque Comercial Mega Park, Plaza del Comercio S/N, San Sebastián de los Reyes (Madrid)"
282,40.54582868424224,-3.6119693164843216,es/en,San Sebastián de los Reyes,IKEA San Sebastián de los Reyes,"Pza del Comercio s/n, Mega Park",28701,San Sebastian de los Reyes - Madrid,Europe/Madrid,ESM,"Pza del Comercio s/n, Mega Park, San Sebastian de los Reyes - Madrid"
283,37.3839,-6.0472,es/es,Sevilla,IKEA Sevilla,Autovía Sevilla-Huelva (Salida 2),41950,Castilleja de la Cuesta (Sevilla),Europe/Madrid,ESSE,"Autovía Sevilla-Huelva (Salida 2), Castilleja de la Cuesta (Sevilla)"
283,37.3839,-6.0472,es/eu,Sevilla,IKEA Sevilla,Autovia Sevilla-Huelva salida 2,41950,"Castilleja de la Cuesta, Sevilla",Europe/Madrid,ESSE,"Autovia Sevilla-Huelva salida 2, Castilleja de la Cuesta, Sevilla"
283,37.3839,-6.0472,es/gl,Sevilla,IKEA Sevilla,Autovía Sevilla-Huelva (Salida 2),41950,Castilleja de la Cuesta (Sevilla),Europe/Madrid,ESSE,"Autovía Sevilla-Huelva (Salida 2), Castilleja de la Cuesta (Sevilla)"
283,37.3839,-6.0472,es/ca,Sevilla,IKEA Sevilla,Autovia Sevilla-Huelva salida 2,41950,"Castilleja de la Cuesta, Sevilla",Europe/Madrid,ESSE,"Autovia Sevilla-Huelva salida 2, Castilleja de la Cuesta, Sevilla"
283,37.3839,-6.0472,es/en,Sevilla,IKEA Sevilla,Autovia Sevilla-Huelva salida 2,41950,"Castilleja de la Cuesta, Sevilla",Europe/Madrid,ESSE,"Autovia Sevilla-Huelva salida 2, Castilleja de la Cuesta, Sevilla"
285,48.7835,2.2242,fr/fr,Velizy,IKEA Velizy,3 RUE DU PETIT CLAMART,78140,VELIZY VILLACOUBLAY,Europe/Paris,FRIDF,"3 RUE DU PETIT CLAMART, VELIZY VILLACOUBLAY"
287,48.1065,16.3184,at/de,HSU AT,IKEA HSU AT,SÜDRING,2334,VÖSENDORF,Europe/Vienna,AT3,"SÜDRING, VÖSENDORF"
287,48.1065,16.3184,at/en,HSU AT,IKEA HSU AT,SÜDRING,2334,VÖSENDORF,Europe/Vienna,AT3,"SÜDRING, VÖSENDORF"
288,60.1299,24.389,fi/fi,HSU FI,IKEA HSU FI,Espoontie 21 B,02740,ESPOO,Europe/Helsinki,,"Espoontie 21 B, ESPOO"
288,60.1299,24.389,fi/en,HSU FI,IKEA HSU FI,Espoontie 21 B,02740,ESPOO,Europe/Helsinki,,"Espoontie 21 B, ESPOO"
289,53.91202381,10.73499377,de/de,Lübeck,IKEA Lübeck,Dänischburger Landstraße 79-81,23569,Lübeck,Europe/Berlin,DESH,"Dänischburger Landstraße 79-81, Lübeck"
289,53.91202381,10.73499377,de/en,Lübeck,IKEA Lübeck,Dänischburger Landstraße 79-81,23569,Lübeck,Europe/Berlin,DESH,"Dänischburger Landstraße 79-81, Lübeck"
290,47.074,7.5684,ch/de,Lyssach,IKEA Lyssach,Bernstrasse 25,3421,Lyssach,Europe/Zurich,CHBE,"Bernstrasse 25, Lyssach"
290,47.074,7.5684,ch/fr,Lyssach,IKEA Lyssach,Bernstrasse 25,3421,Lyssach,Europe/Zurich,CHBE,"Bernstrasse 25, Lyssach"
290,47.074,7.5684,ch/en,Lyssach,IKEA Lyssach,Bernstrasse 25,3421,Lyssach,Europe/Zurich,CHBE,"Bernstrasse 25, Lyssach"
290,47.074,7.5684,ch/it,Lyssach,IKEA Lyssach,Bernstrasse 25,3421,Lyssach,Europe/Zurich,CHBE,"Bernstrasse 25, Lyssach"
291,47.4147,8.6236,ch/de,Dietlikon,IKEA Dietlikon,Moorstrasse 3,8305,Dietlikon,Europe/Zurich,CHZH,"Moorstrasse 3, Dietlikon"
291,47.4147,8.6236,ch/fr,Dietlikon,IKEA Dietlikon,Moorstrasse 3,8305,Dietlikon,Europe/Zurich,CHZH,"Moorstrasse 3, Dietlikon"
291,47.4147,8.6236,ch/en,Dietlikon,IKEA Dietlikon,Moorstrasse 3,8305,Dietlikon,Europe/Zurich,CHZH,"Moorstrasse 3, Dietlikon"
291,47.4147,8.6236,ch/it,Dietlikon,IKEA Dietlikon,Moorstrasse 3,8305,Dietlikon,Europe/Zurich,CHZH,"Moorstrasse 3, Dietlikon"
292,47.5278,7.6893,ch/de,Pratteln,IKEA Pratteln,Grüssenweg 21,4133,Pratteln 1,Europe/Zurich,CHBL,"Grüssenweg 21, Pratteln 1"
292,47.5278,7.6893,ch/fr,Pratteln,IKEA Pratteln,Grüssenweg 21,4133,Pratteln 1,Europe/Zurich,CHBL,"Grüssenweg 21, Pratteln 1"
292,47.5278,7.6893,ch/en,Pratteln,IKEA Pratteln,Grüssenweg 21,4133,Pratteln 1,Europe/Zurich,CHBL,"Grüssenweg 21, Pratteln 1"
292,47.5278,7.6893,ch/it,Pratteln,IKEA Pratteln,Grüssenweg 21,4133,Pratteln 1,Europe/Zurich,CHBL,"Grüssenweg 21, Pratteln 1"
293,47.4226,8.375,ch/de,HSU CH,IKEA HSU CH,Müslistrasse 16,8957,Spreitenbach,Europe/Zurich,CHAG,"Müslistrasse 16, Spreitenbach"
293,47.4226,8.375,ch/fr,HSU CH,IKEA HSU CH,Müslistrasse 16,8957,Spreitenbach,Europe/Zurich,CHAG,"Müslistrasse 16, Spreitenbach"
293,47.4226,8.375,ch/en,HSU CH,IKEA HSU CH,Müslistrasse 16,8957,Spreitenbach,Europe/Zurich,CHAG,"Müslistrasse 16, Spreitenbach"
293,47.4226,8.375,ch/it,HSU CH,IKEA HSU CH,Müslistrasse 16,8957,Spreitenbach,Europe/Zurich,CHAG,"Müslistrasse 16, Spreitenbach"
294,51.0472,16.9553,pl/pl,Wrocław,IKEA Wrocław,"Bielany Wroclawskie, Czekoladowa 5A",55-040,Kobierzyce,Europe/Warsaw,PLDS,"Bielany Wroclawskie, Czekoladowa 5A, Kobierzyce"
295,45.38867937286069,9.261179880514911,it/it,Milano San Giuliano,IKEA Milano San Giuliano,"Via Po, 3",20098,SAN GIULIANO,Europe/Rome,ITMI,"Via Po, 3, SAN GIULIANO"
298,56.20312412319454,10.1810210406561,dk/da,Aarhus,IKEA Aarhus,Graham Bells Vej 7-11,8200,Aarhus N,Europe/Copenhagen,DK70,"Graham Bells Vej 7-11, Aarhus N"
299,52.2995,4.9517,nl/en,HSU NL,IKEA HSU NL,Paasheuvelweg 5,1105 BE,Amsterdam Zuid-Oost,Europe/Amsterdam,,"Paasheuvelweg 5, Amsterdam Zuid-Oost"
299,52.2995,4.9517,nl/nl,HSU NL,IKEA HSU NL,Paasheuvelweg 5,1105 BE,Amsterdam Zuid-Oost,Europe/Amsterdam,,"Paasheuvelweg 5, Amsterdam Zuid-Oost"
301,60.4943,22.2277,fi/fi,Raisio,IKEA Raisio,Itäniityntie 15,21280,Raisio,Europe/Helsinki,FILS,"Itäniityntie 15, Raisio"
301,60.4943,22.2277,fi/en,Raisio,IKEA Raisio,Itäniityntie 15,21280,Raisio,Europe/Helsinki,FILS,"Itäniityntie 15, Raisio"
303,44.83089556719736,10.363952884655754,it/it,Parma,IKEA Parma,"Largo Benito Jacovitti, 11/A",43122,PARMA,Europe/Rome,ITPA,"Largo Benito Jacovitti, 11/A, PARMA"
304,36.6583,-4.4825,es/es,Málaga,IKEA Málaga,Avenida Velázquez 389,29004,Málaga,Europe/Madrid,ESMA,"Avenida Velázquez 389, Málaga"
304,36.6583,-4.4825,es/eu,Málaga,IKEA Málaga,"Avenida Velázquez, 389",29004,Málaga,Europe/Madrid,ESMA,"Avenida Velázquez, 389, Málaga"
304,36.6583,-4.4825,es/gl,Málaga,IKEA Málaga,"Avenida Velázquez, 389",29004,Málaga,Europe/Madrid,ESMA,"Avenida Velázquez, 389, Málaga"
304,36.6583,-4.4825,es/ca,Málaga,IKEA Málaga,"Avenida Velázquez, 389",29004,Málaga,Europe/Madrid,ESMA,"Avenida Velázquez, 389, Málaga"
304,36.6583,-4.4825,es/en,Málaga,IKEA Málaga,"Avenida Velázquez, 389",29004,Málaga,Europe/Madrid,ESMA,"Avenida Velázquez, 389, Málaga"
306,50.2712,19.0604,pl/pl,Katowice,IKEA Katowice,al. W. Roździeńskiego 95,40-203,Katowice,Europe/Warsaw,PLSL,"al. W. Roździeńskiego 95, Katowice"
307,52.3063,21.0828,pl/pl,Warszawa Targówek,IKEA Warszawa Targówek,ul. Malborska 51,03-286,Warszawa,Europe/Warsaw,PLMZ,"ul. Malborska 51, Warszawa"
309,49.7991,18.2277,cz/en,Ostrava,IKEA Ostrava,Rudná 110,700 30,Ostrava – Zábřeh,Europe/Prague,CZMO,"Rudná 110, Ostrava – Zábřeh"
309,49.7991,18.2277,cz/cs,Ostrava,IKEA Ostrava,Rudná 110,700 30,Ostrava-Zábřeh,Europe/Prague,CZMO,"Rudná 110, Ostrava-Zábřeh"
310,43.480561971611664,-1.4449194303340758,fr/fr,Bayonne,IKEA Bayonne,2-4 Avenue du Portou,64990,SAINT PIERRE D'IRUBE,Europe/Paris,FRNAQ,"2-4 Avenue du Portou, SAINT PIERRE D'IRUBE"
311,51.2817,22.5742,pl/pl,Lublin,IKEA Lublin,Aleja Spółdzielczości Pracy 86,20-147,Lublin,Europe/Warsaw,PLLU,"Aleja Spółdzielczości Pracy 86, Lublin"
312,52.2888,6.7687,nl/en,Hengelo,IKEA Hengelo,Het plein 100,7559 SR,Hengelo,Europe/Amsterdam,NLOV,"Het plein 100, Hengelo"
312,52.2888,6.7687,nl/nl,Hengelo,IKEA Hengelo,Het plein 100,7559 SR,Hengelo,Europe/Amsterdam,NLOV,"Het plein 100, Hengelo"
313,49.2351,-122.8658,ca/en,Coquitlam,IKEA Coquitlam,1000 Lougheed Hwy.,V3K 3T5,Coquitlam,America/Vancouver,CABC,"1000 Lougheed Hwy., Coquitlam"
313,49.2351,-122.8658,ca/fr,Coquitlam,IKEA Coquitlam,1000 Lougheed Hwy.,V3K 3T5,Coquitlam,America/Vancouver,CABC,"1000 Lougheed Hwy., Coquitlam"
314,43.69277751922904,10.38272191484798,it/it,Pisa,IKEA Pisa,"Via Rino Ricci, 8",56121,PISA,Europe/Rome,ITPI,"Via Rino Ricci, 8, PISA"
315,43.1418,6.0111,fr/fr,Toulon - La Valette-du-Var,IKEA Toulon - La Valette-du-Var,ZAC DE VALGORA - BP 515,83160,TOULON,Europe/Paris,FRPAC,"ZAC DE VALGORA - BP 515, TOULON"
316,47.222448649966275,-1.6318846318518032,fr/fr,Nantes,IKEA Nantes,BOULEVARD SALVADOR ALLENDE - POLE ATLANTIS - BP 137,44800,SAINT HERBLAIN CEDEX,Europe/Paris,FRPDL,"BOULEVARD SALVADOR ALLENDE - POLE ATLANTIS - BP 137, SAINT HERBLAIN CEDEX"
318,32.8087,35.0755,il/he,קריית אתא,איקאה קריית אתא,דרך חיפה 52,4250401,קריית אתא,Asia/Jerusalem,ILHA,"דרך חיפה 52, קריית אתא"
319,,,ae/ar,HSU AE,ايكيا HSU AE,,,,Asia/Dubai,,", "
319,,,ae/en,HSU AE,IKEA HSU AE,,,,Asia/Dubai,,", "
320,48.0286081,7.8328693,de/de,Freiburg,IKEA Freiburg,Hermann-Mitsch-Straße 61,79108,Freiburg im Breisgau,Europe/Berlin,DEBW,"Hermann-Mitsch-Straße 61, Freiburg im Breisgau"
320,48.0286081,7.8328693,de/en,Freiburg,IKEA Freiburg,Hermann-Mitsch-Straße 61,79108,Freiburg im Breisgau,Europe/Berlin,DEBW,"Hermann-Mitsch-Straße 61, Freiburg im Breisgau"
321,51.1875844,6.8489371,de/de,Düsseldorf,IKEA Düsseldorf,Oerschbachstraße 75,40589,Düsseldorf,Europe/Berlin,DENW,"Oerschbachstraße 75, Düsseldorf"
321,51.1875844,6.8489371,de/en,Düsseldorf,IKEA Düsseldorf,Oerschbachstraße 75,40589,Düsseldorf,Europe/Berlin,DENW,"Oerschbachstraße 75, Düsseldorf"
322,50.058063,8.3717528,de/de,Wallau,IKEA Wallau,Am Wandersmann 2-4,65719,Hofheim-Wallau,Europe/Berlin,DEHE,"Am Wandersmann 2-4, Hofheim-Wallau"
322,50.058063,8.3717528,de/en,Wallau,IKEA Wallau,Am Wandersmann 2-4,65719,Hofheim-Wallau,Europe/Berlin,DEHE,"Am Wandersmann 2-4, Hofheim-Wallau"
323,51.5693436,7.6692708,de/de,Kamen,IKEA Kamen,Kamen Karree 1,59174,Kamen,Europe/Berlin,DENW,"Kamen Karree 1, Kamen"
323,51.5693436,7.6692708,de/en,Kamen,IKEA Kamen,Kamen Karree 1,59174,Kamen,Europe/Berlin,DENW,"Kamen Karree 1, Kamen"
324,52.53395663,13.51439017,de/de,Berlin-Lichtenberg,IKEA Berlin-Lichtenberg,Landsberger Allee 364,10365,Berlin,Europe/Berlin,,"Landsberger Allee 364, Berlin"
324,52.53395663,13.51439017,de/en,Berlin-Lichtenberg,IKEA Berlin-Lichtenberg,Landsberger Allee 364,10365,Berlin,Europe/Berlin,,"Landsberger Allee 364, Berlin"
325,53.5111654,10.09223035,de/de,Hamburg-Moorfleet,IKEA Hamburg-Moorfleet,Unterer Landweg 77,22113,"Hamburg, Moorfleet",Europe/Berlin,DEHH,"Unterer Landweg 77, Hamburg, Moorfleet"
325,53.5111654,10.09223035,de/en,Hamburg-Moorfleet,IKEA Hamburg-Moorfleet,Unterer Landweg 77,22113,"Hamburg, Moorfleet",Europe/Berlin,DEHH,"Unterer Landweg 77, Hamburg, Moorfleet"
326,49.4854251,11.0097905,de/de,Nürnberg/Fürth,IKEA Nürnberg/Fürth,Hans-Vogel-Straße 110,90765,Fürth,Europe/Berlin,DEBY,"Hans-Vogel-Straße 110, Fürth"
326,49.4854251,11.0097905,de/en,Nürnberg-Fürth,IKEA Nürnberg-Fürth,Hans-Vogel-Straße 110,90765,Fürth,Europe/Berlin,DEBY,"Hans-Vogel-Straße 110, Fürth"
327,25.791560035188827,-80.38344452196753,us/en,"Miami, FL","IKEA Miami, FL",1801 NW 117th Ave,33172,Sweetwater,America/New_York,USFL,"1801 NW 117th Ave, Sweetwater"
327,25.791560035188827,-80.38344452196753,us/es,"Miami, FL","IKEA Miami, FL",1801 NW 117th Ave,33172,Sweetwater,America/New_York,USFL,"1801 NW 117th Ave, Sweetwater"
328,48.4040207,9.9769172,de/de,Ulm,IKEA Ulm,Blaubeurer Straße 10,89077,Ulm,Europe/Berlin,DEBW,"Blaubeurer Straße 10, Ulm"
328,48.4040207,9.9769172,de/en,Ulm,IKEA Ulm,Blaubeurer Straße 10,89077,Ulm,Europe/Berlin,DEBW,"Blaubeurer Straße 10, Ulm"
329,51.7015,19.412,pl/pl,Łódź,IKEA Łódź,ul. Pabianicka 255,93-457,Łódź,Europe/Warsaw,PLLD,"ul. Pabianicka 255, Łódź"
332,50.3823076,7.5678478,de/de,Koblenz,IKEA Koblenz,An der Römervilla 1,56070,Koblenz,Europe/Berlin,DERP,"An der Römervilla 1, Koblenz"
332,50.3823076,7.5678478,de/en,Koblenz,IKEA Koblenz,An der Römervilla 1,56070,Koblenz,Europe/Berlin,DERP,"An der Römervilla 1, Koblenz"
333,54.31388305,10.10739409,de/de,Kiel,IKEA Kiel,Westring 1,24114,Kiel,Europe/Berlin,DESH,"Westring 1, Kiel"
333,54.31388305,10.10739409,de/en,Kiel,IKEA Kiel,Westring 1,24114,Kiel,Europe/Berlin,DESH,"Westring 1, Kiel"
337,38.8176,-9.148,pt/pt,HSU PT,IKEA HSU PT,EN250 28 de Setembro,2660-001,"Frielas, Loures",Europe/Lisbon,PT11,"EN250 28 de Setembro, Frielas, Loures"
337,38.8176,-9.148,pt/en,HSU PT,IKEA HSU PT,EN250 28 de Setembro,2660-001,"Frielas, Loures",Europe/Lisbon,PT11,"EN250 28 de Setembro, Frielas, Loures"
339,39.4169,-0.4,es/es,Valencia (Alfafar),IKEA Valencia (Alfafar),Calle Alqueria Nova 12,46910,Alfafar (Valencia),Europe/Madrid,ESV,"Calle Alqueria Nova 12, Alfafar (Valencia)"
339,39.4169,-0.4,es/eu,Valencia (Alfafar),IKEA Valencia (Alfafar),Calle Alqueria Nova 12,46910,Alfafar-Valencia,Europe/Madrid,ESV,"Calle Alqueria Nova 12, Alfafar-Valencia"
339,39.4169,-0.4,es/gl,Valencia (Alfafar),IKEA Valencia (Alfafar),"Calle Alquería Nova, 12",46910,Alfafar (Valencia),Europe/Madrid,ESV,"Calle Alquería Nova, 12, Alfafar (Valencia)"
339,39.4169,-0.4,es/ca,Valencia (Alfafar),IKEA Valencia (Alfafar),Calle Alqueria Nova 12,46910,Alfafar - Valencia,Europe/Madrid,ESV,"Calle Alqueria Nova 12, Alfafar - Valencia"
339,39.4169,-0.4,es/en,Valencia (Alfafar),IKEA Valencia (Alfafar),Calle Alqueria Nova 12,46910,Alfafar- Valencia,Europe/Madrid,ESV,"Calle Alqueria Nova 12, Alfafar- Valencia"
343,48.0404658,11.6580197,de/de,München-Brunnthal,IKEA München-Brunnthal,Brunnthaler Straße 1,82024,Taufkirchen,Europe/Berlin,DEBY,"Brunnthaler Straße 1, Taufkirchen"
343,48.0404658,11.6580197,de/en,München-Brunnthal,IKEA München-Brunnthal,Brunnthaler Straße 1,82024,Taufkirchen,Europe/Berlin,DEBY,"Brunnthaler Straße 1, Taufkirchen"
345,45.8038,3.1388,fr/fr,Clermont-Ferrand,IKEA Clermont-Ferrand,19 Boulevard Louis Chartoire,63100,CLERMONT FERRAND,Europe/Paris,FRARA,"19 Boulevard Louis Chartoire, CLERMONT FERRAND"
347,37.4609,-122.139,us/en,"East Palo Alto, CA","IKEA East Palo Alto, CA",1700 East Bayshore Road,94303,East Palo Alto,America/Los_Angeles,USCA,"1700 East Bayshore Road, East Palo Alto"
347,37.4609,-122.139,us/es,"East Palo Alto, CA","IKEA East Palo Alto, CA",1700 East Bayshore Road,94303,East Palo Alto,America/Los_Angeles,USCA,"1700 East Bayshore Road, East Palo Alto"
349,53.4432,-113.4897,ca/en,Edmonton,IKEA Edmonton,1311-102 Street NW,T6N 1M3,Edmonton,America/Edmonton,CAAB,"1311-102 Street NW, Edmonton"
349,53.4432,-113.4897,ca/fr,Edmonton,IKEA Edmonton,1311-102 Street NW,T6N 1M3,Edmonton,America/Edmonton,CAAB,"1311-102 Street NW, Edmonton"
352,43.8081,11.1871,it/it,Firenze Sesto Fiorentino,IKEA Firenze Sesto Fiorentino,"Via Francesco Redi, 1",50019,SESTO FIORENTINO,Europe/Rome,ITFI,"Via Francesco Redi, 1, SESTO FIORENTINO"
353,40.909,14.3162,it/it,Napoli Afragola,IKEA Napoli Afragola,"Via E. Berlinguer 2, Loc. Cantariello",80021,AFRAGOLA,Europe/Rome,ITNA,"Via E. Berlinguer 2, Loc. Cantariello, AFRAGOLA"
354,45.5341,10.1655,it/it,Brescia Roncadelle,IKEA Brescia Roncadelle,"Via M. D'Antona e M. Biagi, 9",25030,RONCADELLE,Europe/Rome,ITBS,"Via M. D'Antona e M. Biagi, 9, RONCADELLE"
355,45.4182,11.9338,it/it,Padova,IKEA Padova,"Via Fraccalanza, 1",35129,PADOVA,Europe/Rome,ITPD,"Via Fraccalanza, 1, PADOVA"
356,41.0892,16.8971,it/it,Bari,IKEA Bari,"Via Caduti del Lavoro, 3",70126,BARI,Europe/Rome,ITBA,"Via Caduti del Lavoro, 3, BARI"
359,35.7073,139.4119,jp/ja,立川,IKEA立川,緑町6番,190-0014,東京都立川市,Asia/Tokyo,JP13,東京都立川市緑町6番
359,35.7073,139.4119,jp/en,Tachikawa,IKEA Tachikawa,6 Midori-cho,190-0014,Tachikawa-shi,Asia/Tokyo,JP13,"6 Midori-cho, Tachikawa-shi"
362,3.1352,101.7211,my/en,Cheras,IKEA Cheras,"No. 2A Jalan Cochrane, Taman Maluri",55100,Kuala Lumpur,Asia/Kuala_Lumpur,MY10,"No. 2A Jalan Cochrane, Taman Maluri, Kuala Lumpur"
362,3.1352,101.7211,my/ms,Cheras,IKEA Cheras,"No. 2A Jalan Cochrane, Taman Maluri",55100,Kuala Lumpur,Asia/Kuala_Lumpur,MY10,"No. 2A Jalan Cochrane, Taman Maluri, Kuala Lumpur"
367,38.7291,-9.2162,pt/pt,Alfragide,IKEA Alfragide,"Zona Industrial Alfragide, EN 117",2614-520,"Amadora, Lisboa",Europe/Lisbon,PT11,"Zona Industrial Alfragide, EN 117, Amadora, Lisboa"
367,38.7291,-9.2162,pt/en,Alfragide,IKEA Alfragide,"Zona Industrial Alfragide, EN 117",2614-520,"Amadora, Lisboa",Europe/Lisbon,PT11,"Zona Industrial Alfragide, EN 117, Amadora, Lisboa"
368,,,kw/ar,HSU KW,ايكيا HSU KW,,,,Asia/Kuwait,,", "
368,,,kw/en,HSU KW,IKEA HSU KW,,,,Asia/Kuwait,,", "
369,50.8626233,8.0021806,de/de,Siegen,IKEA Siegen,Wallhausenstraße 60,57072,Siegen,Europe/Berlin,DENW,"Wallhausenstraße 60, Siegen"
369,50.8626233,8.0021806,de/en,Siegen,IKEA Siegen,Wallhausenstraße 60,57072,Siegen,Europe/Berlin,DENW,"Wallhausenstraße 60, Siegen"
370,,,qa/en,HSU QA,IKEA HSU QA,,,,Asia/Qatar,,", "
370,,,qa/ar,HSU QA,ايكيا HSU QA,,,,Asia/Qatar,,", "
371,63.4286,10.4738,no/no,Leangen,IKEA Leangen,Landbruksvegen 2,7047,Trondheim,Europe/Oslo,,"Landbruksvegen 2, Trondheim"
371,63.4286,10.4738,no/en,Leangen,IKEA Leangen,Landbruksvegen 2,7047,Trondheim,Europe/Oslo,,"Landbruksvegen 2, Trondheim"
372,43.7877,-79.5296,ca/en,Vaughan,IKEA Vaughan,200 Interchange Way,L4K 5C3,Vaughan,America/Toronto,CAON,"200 Interchange Way, Vaughan"
372,43.7877,-79.5296,ca/fr,Vaughan,IKEA Vaughan, , , ,America/Toronto,CAON," ,  "
373,37.4242,126.8832,kr/ko,광명점,IKEA 광명점,일직로 17,14352,광명시,Asia/Seoul,KR41,광명시 일직로 17
373,37.4242,126.8832,kr/en,Gwangmyeong,IKEA Gwangmyeong,17 Iljik-ro,14352,Gwangmyeong-si,Asia/Seoul,KR41,"17 Iljik-ro, Gwangmyeong-si"
374,39.0199,-94.6906,us/es,"Merriam, KS","IKEA Merriam, KS",6000 IKEA Way,66202,Merriam,America/Chicago,USKS,"6000 IKEA Way, Merriam"
374,39.0199,-94.6906,us/en,"Merriam, KS","IKEA Merriam, KS",6000 IKEA Way,66202,Merriam,America/Chicago,USKS,"6000 IKEA Way, Merriam"
375,50.6788,5.4647,be/en,Liège,IKEA Liège,Porte De Liege 7,4342,Hognoul,Europe/Brussels,BEWLG,"Porte De Liege 7, Hognoul"
375,50.6788,5.4647,be/fr,Liège,IKEA Liège,Porte De Liege 7,4342,Hognoul,Europe/Brussels,BEWLG,"Porte De Liege 7, Hognoul"
375,50.6788,5.4647,be/nl,Liège,IKEA Liège,Porte De Liege 7,4342,Hognoul,Europe/Brussels,BEWLG,"Porte De Liege 7, Hognoul"
376,50.8723,4.4912,be/en,Zaventem,IKEA Zaventem,Woluwelaan 19,1930,Zaventem,Europe/Brussels,BEVBR,"Woluwelaan 19, Zaventem"
376,50.8723,4.4912,be/fr,Zaventem,IKEA Zaventem,Weiveldlaan 19,1930,Zaventem,Europe/Brussels,BEVBR,"Weiveldlaan 19, Zaventem"
376,50.8723,4.4912,be/nl,Zaventem,IKEA Zaventem,Weiveldlaan 19,1930,Zaventem,Europe/Brussels,BEVBR,"Weiveldlaan 19, Zaventem"
377,-33.7206,150.8417,au/en,Marsden Park,IKEA Marsden Park,1 Hollinsworth Road,2765,Marsden Park,Australia/Sydney,AUNS,"1 Hollinsworth Road, Marsden Park"
378,52.3847,4.6703,nl/en,Haarlem,IKEA Haarlem,Laan van Decima 1,2031 CX,Haarlem,Europe/Amsterdam,NLNH,"Laan van Decima 1, Haarlem"
378,52.3847,4.6703,nl/nl,Haarlem,IKEA Haarlem,Laan van Decima 1,2031 CX,Haarlem,Europe/Amsterdam,NLNH,"Laan van Decima 1, Haarlem"
379,29.7855,-95.4723,us/es,"Houston, TX","IKEA Houston, TX",7810 Katy Freeway,77024,Houston,America/Chicago,USTX,"7810 Katy Freeway, Houston"
379,29.7855,-95.4723,us/en,"Houston, TX","IKEA Houston, TX",7810 Katy Freeway,77024,Houston,America/Chicago,USTX,"7810 Katy Freeway, Houston"
384,-37.8087,145.007,au/en,Richmond,IKEA Richmond,630 Victoria Street,3121,Richmond,Australia/Melbourne,AUVI,"630 Victoria Street, Richmond"
385,-33.8362,151.0838,au/en,Rhodes,IKEA Rhodes,1 Oulton Avenue,2138,Rhodes,Australia/Sydney,AUNS,"1 Oulton Avenue, Rhodes"
386,47.8168,13.0068,at/de,Salzburg,IKEA Salzburg,Europastraße 5,5020,Salzburg,Europe/Vienna,AT05,"Europastraße 5, Salzburg"
386,47.8168,13.0068,at/en,Salzburg,IKEA Salzburg,Europastraße 5,5020,Salzburg,Europe/Vienna,AT5,"Europastraße 5, Salzburg"
387,47.0332,15.4223,at/de,Graz,IKEA Graz,Weblinger Gürtel 31,8054,Graz,Europe/Vienna,AT06,"Weblinger Gürtel 31, Graz"
387,47.0332,15.4223,at/en,Graz,IKEA Graz,Weblinger Gürtel 31,8054,Graz,Europe/Vienna,AT6,"Weblinger Gürtel 31, Graz"
388,48.1976,14.2503,at/de,Linz Haid,IKEA Linz Haid,IKEA Platz 1,4053,Haid,Europe/Vienna,AT04,"IKEA Platz 1, Haid"
388,48.1976,14.2503,at/en,Linz-Haid,IKEA Linz-Haid,IKEA Platz 1,4053,Haid,Europe/Vienna,AT4,"IKEA Platz 1, Haid"
389,48.9867,2.2147,fr/fr,Franconville,IKEA Franconville,337/339 RUE DU GENERAL LECLERC,95130,FRANCONVILLE,Europe/Paris,FRIDF,"337/339 RUE DU GENERAL LECLERC, FRANCONVILLE"
390,60.8402,11.0575,no/no,Ringsaker,IKEA Ringsaker,Krokstadvegen 4,2320,Furnes,Europe/Oslo,,"Krokstadvegen 4, Furnes"
390,60.8402,11.0575,no/en,Ringsaker,IKEA Ringsaker,Krokstadvegen 4,2320,Furnes,Europe/Oslo,,"Krokstadvegen 4, Furnes"
391,52.5336,6.1624,nl/en,Zwolle,IKEA Zwolle,Diepholtstraat 3,8028 PN,Zwolle,Europe/Amsterdam,NLOV,"Diepholtstraat 3, Zwolle"
391,52.5336,6.1624,nl/nl,Zwolle,IKEA Zwolle,Diepholtstraat 3,8028 PN,Zwolle,Europe/Amsterdam,NLOV,"Diepholtstraat 3, Zwolle"
392,38.2255,140.8861,jp/ja,仙台,IKEA仙台,太白区あすと長町2-1-1,982-0007,宮城県仙台市,Asia/Tokyo,JP04,宮城県仙台市太白区あすと長町2-1-1
392,38.2255,140.8861,jp/en,Sendai,IKEA Sendai,"2-1-2 Asuto Nagamachi, Taihaku-ku",982-0007,Sendai-shi,Asia/Tokyo,JP04,"2-1-2 Asuto Nagamachi, Taihaku-ku, Sendai-shi"
393,50.1958783,8.6570205,de/de,Frankfurt,IKEA Frankfurt,Züricher Straße 7,60437,"Frankfurt, Niedereschbach",Europe/Berlin,DEHE,"Züricher Straße 7, Frankfurt, Niedereschbach"
393,50.1958783,8.6570205,de/en,Frankfurt,IKEA Frankfurt,Züricher Straße 7,60437,"Frankfurt, Niedereschbach",Europe/Berlin,DEHE,"Züricher Straße 7, Frankfurt, Niedereschbach"
394,52.52811168,13.21462368,de/de,Berlin-Spandau,IKEA Berlin-Spandau,Gewerbehof 10,13597,Berlin,Europe/Berlin,,"Gewerbehof 10, Berlin"
394,52.52811168,13.21462368,de/en,Berlin-Spandau,IKEA Berlin-Spandau,Gewerbehof 10,13597,Berlin,Europe/Berlin,,"Gewerbehof 10, Berlin"
396,50.9594997,10.94904477,de/de,Erfurt,IKEA Erfurt,Eisenacher Straße 50,99094,Erfurt,Europe/Berlin,DETH,"Eisenacher Straße 50, Erfurt"
396,50.9594997,10.94904477,de/en,Erfurt,IKEA Erfurt,Eisenacher Straße 50,99094,Erfurt,Europe/Berlin,DETH,"Eisenacher Straße 50, Erfurt"
397,49.55584098,8.44385199,de/de,Mannheim,IKEA Mannheim,Frankenthaler Straße 123,68307,Mannheim,Europe/Berlin,DEBW,"Frankenthaler Straße 123, Mannheim"
397,49.55584098,8.44385199,de/en,Mannheim,IKEA Mannheim,Frankenthaler Straße 123,68307,Mannheim,Europe/Berlin,DEBW,"Frankenthaler Straße 123, Mannheim"
398,57.7744,12.0018,se/sv,Göteborg Bäckebol,IKEA Göteborg Bäckebol,Transportgatan 23,42246,Hisings backa,Europe/Stockholm,,"Transportgatan 23, Hisings backa"
398,57.7744,12.0018,se/en,Göteborg Bäckebol,IKEA Göteborg Bäckebol,Transportgatan 23,42246,Hisings backa,Europe/Stockholm,,"Transportgatan 23, Hisings backa"
399,34.1745,-118.3032,us/es,"Burbank, CA","IKEA Burbank, CA",600 South IKEA Way,91502-1534,Burbank,America/Los_Angeles,USCA,"600 South IKEA Way, Burbank"
399,34.1745,-118.3032,us/en,"Burbank, CA","IKEA Burbank, CA",600 South IKEA Way,91502,Burbank,America/Los_Angeles,USCA,"600 South IKEA Way, Burbank"
402,43.6042,3.9244,fr/fr,Montpellier,IKEA Montpellier,1 Place de Troie,34000,MONTPELLIER,Europe/Paris,FROCC,"1 Place de Troie, MONTPELLIER"
403,51.5803,4.7291,nl/en,Breda,IKEA Breda,Kruisweide 1,4814 RW,Breda,Europe/Amsterdam,NLNB,"Kruisweide 1, Breda"
403,51.5803,4.7291,nl/nl,Breda,IKEA Breda,Kruisweide 1,4814 RW,Breda,Europe/Amsterdam,NLNB,"Kruisweide 1, Breda"
404,53.2187,6.5895,nl/en,Groningen,IKEA Groningen,Sontweg 9,9723 AT,Groningen,Europe/Amsterdam,NLGR,"Sontweg 9, Groningen"
404,53.2187,6.5895,nl/nl,Groningen,IKEA Groningen,Sontweg 9,9723 AT,Groningen,Europe/Amsterdam,NLGR,"Sontweg 9, Groningen"
406,41.3549,2.1238,es/es,IKEA Gran Via L'Hospitalet,IKEA Gran Via L'Hospitalet,"Districte Econòmic, Avinguda de la Granvia de l’Hospitalet, 115-133",08908,"L'Hospitalet de Llobregat, Barcelona",Europe/Madrid,ESB,"Districte Econòmic, Avinguda de la Granvia de l’Hospitalet, 115-133, L'Hospitalet de Llobregat, Barcelona"
406,41.3549,2.1238,es/eu,IKEA Gran Via L'Hospitalet,IKEA Gran Via L'Hospitalet,Avda Gran Via 115-134 Dist Economic,08908,L'Hospitalet de Llobregat Barcelona,Europe/Madrid,ESB,"Avda Gran Via 115-134 Dist Economic, L'Hospitalet de Llobregat Barcelona"
406,41.3549,2.1238,es/gl,IKEA Gran Via L'Hospitalet,IKEA Gran Via L'Hospitalet,"Districte Econòmic, Avinguda Gran Via 115-134",08908,L'Hospitalet de Llobregat (Barcelona),Europe/Madrid,ESB,"Districte Econòmic, Avinguda Gran Via 115-134, L'Hospitalet de Llobregat (Barcelona)"
406,41.3549,2.1238,es/ca,IKEA Gran Via L'Hospitalet,IKEA Gran Via L'Hospitalet,"Districte Econòmic, Avinguda de la Granvia de l’Hospitalet, 115-133",08908,L'Hospitalet de Llobregat Barcelona,Europe/Madrid,ESB,"Districte Econòmic, Avinguda de la Granvia de l’Hospitalet, 115-133, L'Hospitalet de Llobregat Barcelona"
406,41.3549,2.1238,es/en,IKEA Gran Via L'Hospitalet,IKEA Gran Via L'Hospitalet,"Districte Econòmic, Avinguda de la Granvia de l’Hospitalet, 115-133",08908,"L'Hospitalet de Llobregat, Barcelona",Europe/Madrid,ESB,"Districte Econòmic, Avinguda de la Granvia de l’Hospitalet, 115-133, L'Hospitalet de Llobregat, Barcelona"
407,21.3023,39.1593,sa/ar,Central unit,ايكيا معرض Central unit,Al Khumra Dist.,21482,Jeddah,Asia/Riyadh,SA02,"Al Khumra Dist., Jeddah"
407,21.3023,39.1593,sa/en,Central unit,IKEA Central unit store,Al Khumra Dist.,21482,Jeddah,Asia/Riyadh,SA02,"Al Khumra Dist., Jeddah"
408,50.1043,14.5873,cz/en,Praha – Černý Most,IKEA Praha – Černý Most,Chlumecká 664/10,198 00,Praha 9 – Černý Most,Europe/Prague,CZPR,"Chlumecká 664/10, Praha 9 – Černý Most"
408,50.1043,14.5873,cz/cs,Černý Most,IKEA Černý Most,Chlumecká 664/10,198 00,Praha 9-Cerný most,Europe/Prague,CZPR,"Chlumecká 664/10, Praha 9-Cerný most"
409,40.9246,-74.0749,us/es,"Paramus, NJ","IKEA Paramus, NJ",100 IKEA Drive,07652,Paramus,America/New_York,USNJ,"100 IKEA Drive, Paramus"
409,40.9246,-74.0749,us/en,"Paramus, NJ","IKEA Paramus, NJ",100 IKEA Drive,07652,Paramus,America/New_York,USNJ,"100 IKEA Drive, Paramus"
410,38.6337,-90.2449,us/es,"St. Louis, MO","IKEA St. Louis, MO",1 IKEA Way,63110-3881,St. Louis,America/Chicago,USMO,"1 IKEA Way, St. Louis"
410,38.6337,-90.2449,us/en,"St. Louis, MO","IKEA St. Louis, MO",1 IKEA Way,63108,St. Louis,America/Chicago,USMO,"1 IKEA Way, St. Louis"
411,39.0208,-76.9289,us/es,"College Park, MD","IKEA College Park, MD",10100 Baltimore Avenue,20740,College Park,America/New_York,USMD,"10100 Baltimore Avenue, College Park"
411,39.0208,-76.9289,us/en,"College Park, MD","IKEA College Park, MD",10100 Baltimore Avenue,20740,College Park,America/New_York,USMD,"10100 Baltimore Avenue, College Park"
412,53.48903308,8.60557004,de/de,Bremerhaven,IKEA Bremerhaven,Weserstraße 1i,27572,Bremerhaven,Europe/Berlin,DEHB,"Weserstraße 1i, Bremerhaven"
412,53.48903308,8.60557004,de/en,Bremerhaven,IKEA Bremerhaven,Weserstraße 1i,27572,Bremerhaven,Europe/Berlin,DEHB,"Weserstraße 1i, Bremerhaven"
413,34.0744,-117.8801,us/es,"Covina, CA","IKEA Covina, CA",848 South Barranca Ave,91723,Covina,America/Los_Angeles,USCA,"848 South Barranca Ave, Covina"
413,34.0744,-117.8801,us/en,"Covina, CA","IKEA Covina, CA",848 South Barranca Ave,91723,Covina,America/Los_Angeles,USCA,"848 South Barranca Ave, Covina"
414,45.5716,-73.4007,ca/en,Boucherville,IKEA Boucherville,586 De Touraine,J4B 5E4,Boucherville,America/Montreal,CAQC,"586 De Touraine, Boucherville"
414,45.5716,-73.4007,ca/fr,Boucherville,IKEA Boucherville,586 De Touraine,J4B 5E4,Boucherville,America/Montreal,CAQC,"586 De Touraine, Boucherville"
415,52.1844,5.4183,nl/en,Amersfoort,IKEA Amersfoort,Euroweg 101,3825 HB,Amersfoort,Europe/Amsterdam,NLUT,"Euroweg 101, Amersfoort"
415,52.1844,5.4183,nl/nl,Amersfoort,IKEA Amersfoort,Euroweg 101,3825 HB,Amersfoort,Europe/Amsterdam,NLUT,"Euroweg 101, Amersfoort"
416,63.8085,20.2541,se/sv,Umeå,IKEA Umeå,Marknadsgatan 15,90422,UMEÅ,Europe/Stockholm,SEAC,"Marknadsgatan 15, UMEÅ"
416,63.8085,20.2541,se/en,Umeå,IKEA Umeå,Marknadsgatan 15,90422,UMEÅ,Europe/Stockholm,SEAC,"Marknadsgatan 15, UMEÅ"
421,52.46958147,13.36625688,de/de,Berlin-Tempelhof,IKEA Berlin-Tempelhof,Sachsendamm 47,10829,"Berlin,Tempelhof",Europe/Berlin,DEBE,"Sachsendamm 47, Berlin,Tempelhof"
421,52.46958147,13.36625688,de/en,Berlin-Tempelhof,IKEA Berlin-Tempelhof,Sachsendamm 47,10829,"Berlin,Tempelhof",Europe/Berlin,DEBE,"Sachsendamm 47, Berlin,Tempelhof"
422,60.2762,25.0843,fi/fi,Vantaa,IKEA Vantaa,Porttisuontie 18,01200,Vantaa,Europe/Helsinki,FIES,"Porttisuontie 18, Vantaa"
422,60.2762,25.0843,fi/en,Vantaa,IKEA Vantaa,Porttisuontie 18,01200,Vantaa,Europe/Helsinki,FIES,"Porttisuontie 18, Vantaa"
423,50.4618,3.932,be/en,Mons,IKEA Mons,Place des Grands Prés 1/A,7000,Mons,Europe/Brussels,BEWHT,"Place des Grands Prés 1/A, Mons"
423,50.4618,3.932,be/fr,Mons,IKEA Mons,Place des Grands Prés 1/A,7000,Mons,Europe/Brussels,BEWHT,"Place des Grands Prés 1/A, Mons"
423,50.4618,3.932,be/nl,Mons,IKEA Mons,Place des Grands Prés 1/A,7000,Mons,Europe/Brussels,BEWHT,"Place des Grands Prés 1/A, Mons"
425,51.4821721,6.7638779,de/de,Duisburg,IKEA Duisburg,Beecker Straße 80,47166,Duisburg,Europe/Berlin,DENW,"Beecker Straße 80, Duisburg"
425,51.4821721,6.7638779,de/en,Duisburg,IKEA Duisburg,Beecker Straße 80,47166,Duisburg,Europe/Berlin,DENW,"Beecker Straße 80, Duisburg"
427,41.9717,12.5425,it/it,Roma Porta di Roma,IKEA Roma Porta di Roma,"Via Casale Redicicoli, 501",00139,ROMA,Europe/Rome,ITRM,"Via Casale Redicicoli, 501, ROMA"
428,43.3882,-5.8058,es/es,Asturias,IKEA Asturias,"Centro Comercial Parque Principado, A-66 KM 4.5",33429,Pola de Siero (Asturias),Europe/Madrid,ESO,"Centro Comercial Parque Principado, A-66 KM 4.5, Pola de Siero (Asturias)"
428,43.3882,-5.8058,es/eu,Asturias,IKEA Asturias,"Centro Comercial Parque Principado, A-66 KM 4.5",33429,Pola de Siero (Asturias),Europe/Madrid,ESO,"Centro Comercial Parque Principado, A-66 KM 4.5, Pola de Siero (Asturias)"
428,43.3882,-5.8058,es/gl,Asturias,IKEA Asturias,"Centro Comercial Intu Asturias, A-66 KM 4.5",33429,Pola de Siero (Asturias),Europe/Madrid,ESO,"Centro Comercial Intu Asturias, A-66 KM 4.5, Pola de Siero (Asturias)"
428,43.3882,-5.8058,es/ca,Asturias,IKEA Asturias,"Centro Comercial Parque Principado, A-66 KM 4.5",33429,Pola de Siero (Asturias),Europe/Madrid,ESO,"Centro Comercial Parque Principado, A-66 KM 4.5, Pola de Siero (Asturias)"
428,43.3882,-5.8058,es/en,Asturias,IKEA Asturias,"Centro Comercial Parque Principado, A-66 KM 4.5",33429,Pola de Siero (Asturias),Europe/Madrid,ESO,"Centro Comercial Parque Principado, A-66 KM 4.5, Pola de Siero (Asturias)"
429,53.1324,18.1194,pl/pl,Bydgoszcz,IKEA Bydgoszcz,ul. Skandynawska 1,85-776,Bydgoszcz,Europe/Warsaw,PLKP,"ul. Skandynawska 1, Bydgoszcz"
430,49.4404562,7.7011199,de/de,Kaiserslautern,IKEA Kaiserslautern,Opelkreisel 3,67663,Kaiserslautern,Europe/Berlin,DERP,"Opelkreisel 3, Kaiserslautern"
430,49.4404562,7.7011199,de/en,Kaiserslautern,IKEA Kaiserslautern,Opelkreisel 3,67663,Kaiserslautern,Europe/Berlin,DERP,"Opelkreisel 3, Kaiserslautern"
431,45.449160617013696,4.41912126991202,fr/fr,Saint-Étienne,IKEA Saint-Étienne,47 RUE JEAN HUSSE,42000,SAINT ETIENNE,Europe/Paris,FRARA,"47 RUE JEAN HUSSE, SAINT ETIENNE"
432,48.75945082056943,2.385285298699516,fr/fr,Thiais,IKEA Thiais,3 RUE DE LA RESISTANCE,94320,THIAIS,Europe/Paris,FRIDF,"3 RUE DE LA RESISTANCE, THIAIS"
433,43.29317920469646,5.481076826113443,fr/fr,La Valentine,IKEA La Valentine,ZAC LA VALENTINE - LA RAVELLE,13011,MARSEILLE,Europe/Paris,FRPAC,"ZAC LA VALENTINE - LA RAVELLE, MARSEILLE"
434,47.3761,0.718,fr/fr,Tours,IKEA Tours,RUE DESIRE LECOMTE,37000,TOURS,Europe/Paris,FRCVL,"RUE DESIRE LECOMTE, TOURS"
435,45.181343511477905,5.775836400587793,fr/fr,Grenoble,IKEA Grenoble,150 AV GABRIEL PERI,38400,SAINT MARTIN D'HERES,Europe/Paris,FRARA,"150 AV GABRIEL PERI, SAINT MARTIN D'HERES"
438,3.157,101.6132,my/en,Damansara,IKEA Damansara,"2, Jalan PJU 7/2 Mutiara Damansara",47810,Petaling Jaya Selangor Darul Ehsan,Asia/Kuala_Lumpur,MY10,"2, Jalan PJU 7/2 Mutiara Damansara, Petaling Jaya Selangor Darul Ehsan"
438,3.157,101.6132,my/ms,Damansara,IKEA Damansara,"2, Jalan PJU 7/2 Mutiara Damansara",47810,Petaling Jaya Selangor Darul Ehsan,Asia/Kuala_Lumpur,MY10,"2, Jalan PJU 7/2 Mutiara Damansara, Petaling Jaya Selangor Darul Ehsan"
441,60.4761,5.332,no/no,Åsane,IKEA Åsane,Åsamyrane 250,5131,Nyborg,Europe/Oslo,,"Åsamyrane 250, Nyborg"
441,60.4761,5.332,no/en,Åsane,IKEA Åsane,Åsamyrane 250,5131,Nyborg,Europe/Oslo,,"Åsamyrane 250, Nyborg"
444,47.73246437811007,7.2828611105020915,fr/fr,Mulhouse,IKEA Mulhouse,Place Du Renne,68790,Morschwiller-le-bas,Europe/Paris,FRGES,"Place Du Renne, Morschwiller-le-bas"
445,55.5526,12.985,se/sv,Malmö,IKEA Malmö,Kulthusgatan 1,215 86,Malmö,Europe/Stockholm,,"Kulthusgatan 1, Malmö"
445,55.5526,12.985,se/en,Malmö,IKEA Malmö,Hövdingevägen 1,25186,Malmö,Europe/Stockholm,,"Hövdingevägen 1, Malmö"
446,-33.9233,151.1659,au/en,Tempe,IKEA Tempe,634-726 Princes Highway,2044,Tempe,Australia/Sydney,AUNS,"634-726 Princes Highway, Tempe"
447,35.6821,139.9922,jp/ja,Tokyo-Bay,IKEA Tokyo-Bay,浜町2-3-30,273-0012,千葉県船橋市,Asia/Tokyo,JP12,千葉県船橋市浜町2-3-30
447,35.6821,139.9922,jp/en,Tokyo-Bay,IKEA Tokyo-Bay,2-3-30 Hama-cho,273-0012,Funabashi-shi,Asia/Tokyo,JP12,"2-3-30 Hama-cho, Funabashi-shi"
448,35.5229,139.5905,jp/ja,港北（横浜）,IKEA港北（横浜）,都筑区折本町201-1,224-0043,神奈川県横浜市,Asia/Tokyo,JP14,神奈川県横浜市都筑区折本町201-1
448,35.5229,139.5905,jp/en,Kohoku,IKEA Kohoku,"201-1 Orimoto-cho, Tsuzuki-ku",224-0043,Yokohama-shi,Asia/Tokyo,JP14,"201-1 Orimoto-cho, Tsuzuki-ku, Yokohama-shi"
449,38.0276,-1.1461,es/es,Murcia,IKEA Murcia,Avenida Don Juan de Borbon s/n,30110,Murcia,Europe/Madrid,ESMU,"Avenida Don Juan de Borbon s/n, Murcia"
449,38.0276,-1.1461,es/eu,Murcia,IKEA Murcia,Avenida Don Juan de Borbon s/n,30110,Murcia,Europe/Madrid,ESMU,"Avenida Don Juan de Borbon s/n, Murcia"
449,38.0276,-1.1461,es/gl,Murcia,IKEA Murcia,Avenida Don Juan de Borbon s/n,30110,Murcia,Europe/Madrid,ESMU,"Avenida Don Juan de Borbon s/n, Murcia"
449,38.0276,-1.1461,es/ca,Murcia,IKEA Murcia,Avenida Don Juan de Borbon s/n,30110,Murcia,Europe/Madrid,ESMU,"Avenida Don Juan de Borbon s/n, Murcia"
449,38.0276,-1.1461,es/en,Murcia,IKEA Murcia,Avenida Don Juan de Borbon s/n,30110,Murcia,Europe/Madrid,ESMU,"Avenida Don Juan de Borbon s/n, Murcia"
451,-35.2769,149.1946,au/en,Canberra,IKEA Canberra,1030 MAJURA ROAD,2609,MAJURA,Australia/Sydney,AUCT,"1030 MAJURA ROAD, MAJURA"
452,50.9186,5.32,be/en,Hasselt,IKEA Hasselt,Biezenstraat 45,3500,Hasselt,Europe/Brussels,BEVLI,"Biezenstraat 45, Hasselt"
452,50.9186,5.32,be/fr,Hasselt,IKEA Hasselt,Biezenstraat 45,3500,Hasselt,Europe/Brussels,BEVLI,"Biezenstraat 45, Hasselt"
452,50.9186,5.32,be/nl,Hasselt,IKEA Hasselt,Biezenstraat 45,3500,Hasselt,Europe/Brussels,BEVLI,"Biezenstraat 45, Hasselt"
453,37.0973447,-7.9959882,pt/pt,Loulé,IKEA Loulé,Avenida do Algarve n.º 5,8135-182,Almancil,Europe/Lisbon,PT08,"Avenida do Algarve n.º 5, Almancil"
453,37.0973447,-7.9959882,pt/en,Loulé,IKEA Loulé,Avenida do Algarve n.º 5,8135-182,Almancil,Europe/Lisbon,PT08,"Avenida do Algarve n.º 5, Almancil"
455,45.42665744738561,9.079226298079185,it/it,Milano Corsico,IKEA Milano Corsico,"Nuova via Marchesi, 4",20094,CORSICO,Europe/Rome,ITMI,"Nuova via Marchesi, 4, CORSICO"
456,45.0983,7.5838,it/it,Torino Collegno,IKEA Torino Collegno,"Viale Svezia, 1",10093,COLLEGNO,Europe/Rome,ITTO,"Viale Svezia, 1, COLLEGNO"
457,43.5298,13.5185,it/it,Ancona,IKEA Ancona,Aspio Terme,60021,CAMERANO,Europe/Rome,ITAN,"Aspio Terme, CAMERANO"
458,40.7552,14.7896,it/it,Salerno Baronissi,IKEA Salerno Baronissi,Via Salvatore Allende - Località Orignano,84081,BARONISSI,Europe/Rome,ITSA,"Via Salvatore Allende - Località Orignano, BARONISSI"
460,-27.2431,153.015,au/en,North Lakes,IKEA North Lakes,3 NORTH LAKES DRIVE,4509,NORTH LAKES,Australia/Brisbane,AUQL,"3 NORTH LAKES DRIVE, NORTH LAKES"
461,51.4424,-1.0654,gb/en,Reading,IKEA Reading,"Pincents Kiln Industrial Pk, Theale",RG31 7SD,Reading,Europe/London,GBRDG,"Pincents Kiln Industrial Pk, Theale, Reading"
462,36.0688,-115.2811,us/es,"Las Vegas, NV","IKEA Las Vegas, NV",6500 IKEA Way,89148,Las Vegas,America/Los_Angeles,USNV,"6500 IKEA Way, Las Vegas"
462,36.0688,-115.2811,us/en,"Las Vegas, NV","IKEA Las Vegas, NV",6500 IKEA Way,89148,Las Vegas,America/Los_Angeles,USNV,"6500 IKEA Way, Las Vegas"
463,,,sa/ar,HSU SA,ايكيا معرض HSU SA,,,,Asia/Riyadh,,", "
463,,,sa/en,HSU SA,IKEA HSU SA store,,,,Asia/Riyadh,,", "
467,62.4456,17.3352,se/sv,Sundsvall,IKEA Sundsvall,Gesällvägen 3,863 41,Sundsvall,Europe/Stockholm,,"Gesällvägen 3, Sundsvall"
467,62.4456,17.3352,se/en,Sundsvall,IKEA Sundsvall,Gesällvägen 3,863 41,Sundsvall,Europe/Stockholm,,"Gesällvägen 3, Sundsvall"
468,56.092,12.7604,se/sv,Helsingborg,IKEA Helsingborg,Marknadsvägen 7,25469,Ödåkra,Europe/Stockholm,,"Marknadsvägen 7, Ödåkra"
468,56.092,12.7604,se/en,Helsingborg,IKEA Helsingborg,Marknadsvägen 7,25469,Ödåkra,Europe/Stockholm,,"Marknadsvägen 7, Ödåkra"
469,56.685,16.3162,se/sv,Kalmar,IKEA Kalmar,Bilbyggarvägen,393 56,Kalmar,Europe/Stockholm,,"Bilbyggarvägen, Kalmar"
469,56.685,16.3162,se/en,Kalmar,IKEA Kalmar,Bilbyggarvägen,393 56,Kalmar,Europe/Stockholm,,"Bilbyggarvägen, Kalmar"
470,65.8429,24.1316,se/sv,Haparanda,IKEA Haparanda,Norrskensvägen 2,953 36,Haparanda,Europe/Stockholm,,"Norrskensvägen 2, Haparanda"
470,65.8429,24.1316,se/en,Haparanda,IKEA Haparanda,Norrskensvägen 2,953 36,Haparanda,Europe/Stockholm,,"Norrskensvägen 2, Haparanda"
471,59.3788,13.4185,se/sv,Karlstad,IKEA Karlstad,Bergviksvägen 43,653 46,Karlstad,Europe/Stockholm,,"Bergviksvägen 43, Karlstad"
471,59.3788,13.4185,se/en,Karlstad,IKEA Karlstad,Bergviksvägen 43,653 46,Karlstad,Europe/Stockholm,,"Bergviksvägen 43, Karlstad"
472,52.553,-0.2403,gb/en,HSU GB,IKEA HSU GB,"Kingston Park, Fletton",PE2 9ET,Peterborough,Europe/London,GBCAM,"Kingston Park, Fletton, Peterborough"
474,44.5061,26.085,ro/ro,HSU RO,IKEA HSU RO,Bucharest-Ploiesti no 42A,013696,Bucharest,Europe/Bucharest,ROB,"Bucharest-Ploiesti no 42A, Bucharest"
475,25.2253,55.3763,ae/ar,Central unit,ايكيا Central unit,Dubai Festival City,50618,Dubai,Asia/Dubai,AEAZ,"Dubai Festival City, Dubai"
475,25.2253,55.3763,ae/en,Central unit,IKEA Central unit,Dubai Festival City,50618,Dubai,Asia/Dubai,AEAZ,"Dubai Festival City, Dubai"
477,1.5514,103.7992,my/en,Tebrau,IKEA Tebrau,"No: 33, Jalan Harmonium,","81100,","Taman Desa Tebrau, Johor Bahru,",Asia/Kuala_Lumpur,MY01,"No: 33, Jalan Harmonium,, Taman Desa Tebrau, Johor Bahru,"
477,1.5514,103.7992,my/ms,Tebrau,IKEA Tebrau,"No: 33, Jalan Harmonium,","81100,","Taman Desa Tebrau, Johor Bahru,",Asia/Kuala_Lumpur,MY01,"No: 33, Jalan Harmonium,, Taman Desa Tebrau, Johor Bahru,"
479,13.8786,100.4126,th/en,Bang Yai,IKEA Bang Yai,"109 Rattanathibet Rd,",11140,"Sao Thong Hin, Bang Yai District, Nonthaburi",Asia/Bangkok,TH11,"109 Rattanathibet Rd,, Sao Thong Hin, Bang Yai District, Nonthaburi"
479,13.8786,100.4126,th/th,บางใหญ่,อิเกีย บางใหญ่,109 ถนนรัตนาธิเบศร์ ตำบลเสาธงหิน,11140,อำเภอบางใหญ่ นนทบุรี,Asia/Bangkok,TH11,"109 ถนนรัตนาธิเบศร์ ตำบลเสาธงหิน, อำเภอบางใหญ่ นนทบุรี"
482,50.8103,4.2916,be/en,Anderlecht,IKEA Anderlecht,Chaussee De Mons 1432,1070,Anderlecht,Europe/Brussels,BEVBR,"Chaussee De Mons 1432, Anderlecht"
482,50.8103,4.2916,be/fr,Anderlecht,IKEA Anderlecht,Chaussee De Mons 1432,1070,Anderlecht,Europe/Brussels,BEVBR,"Chaussee De Mons 1432, Anderlecht"
482,50.8103,4.2916,be/nl,Anderlecht,IKEA Anderlecht,Chaussee De Mons 1432,1070,Anderlecht,Europe/Brussels,BEVBR,"Chaussee De Mons 1432, Anderlecht"
483,49.6371,5.8905,be/en,Arlon,IKEA Arlon,Rue de Grasse 100,6700,Arlon,Europe/Brussels,BEWLX,"Rue de Grasse 100, Arlon"
483,49.6371,5.8905,be/fr,Arlon,IKEA Arlon,Rue de Grasse 100,6700,Arlon,Europe/Brussels,BEWLX,"Rue de Grasse 100, Arlon"
483,49.6371,5.8905,be/nl,Arlon,IKEA Arlon,Rue de Grasse 100,6700,Arlon,Europe/Brussels,BEWLX,"Rue de Grasse 100, Arlon"
486,34.6648,135.2184,jp/ja,神戸,IKEA神戸,中央区港島中町8-7-1,650-0046,兵庫県神戸市,Asia/Tokyo,JP28,兵庫県神戸市中央区港島中町8-7-1
486,34.6648,135.2184,jp/en,Kobe,IKEA Kobe,"8-7-1 Minatojima Nakamachi, Chuo-ku",650-0046,Kobe-shi,Asia/Tokyo,JP28,"8-7-1 Minatojima Nakamachi, Chuo-ku, Kobe-shi"
487,47.82759342153324,1.9188728123597907,fr/fr,Orléans,IKEA Orléans,RUE HONORÉ DE BALZAC - ZAC DE LIMERE- RD POINT DE SOLOGNE -,45160,ARDON,Europe/Paris,FRCVL,"RUE HONORÉ DE BALZAC - ZAC DE LIMERE- RD POINT DE SOLOGNE -, ARDON"
488,47.4424,-122.2278,us/en,"Renton, WA","IKEA Renton, WA",601 SW 41st Street,98057,Renton,America/Los_Angeles,USWA,"601 SW 41st Street, Renton"
488,47.4424,-122.2278,us/es,"Renton, WA","IKEA Renton, WA",601 SW 41st Street,98057,Renton,America/Los_Angeles,USWA,"601 SW 41st Street, Renton"
489,48.1683,17.183,sk/sk,Bratislava,IKEA Bratislava,Ivanská cesta 18,821 04,Bratislava,Europe/Bratislava,SKBL,"Ivanská cesta 18, Bratislava"
491,26.1798,50.5045,bh/en,IKEA Manama,IKEA Manama,"Salmabad block 712, road 100",712,Manama,Asia/Bahrain,BH03,"Salmabad block 712, road 100, Manama"
491,26.1798,50.5045,bh/ar,ايكيا البحرين,ايكيا معرض ايكيا البحرين,سلماباد,712,Manama,Asia/Bahrain,BH03,"سلماباد, Manama"
492,51.30983,7.255747,de/de,Wuppertal,IKEA Wuppertal,Schmiedestraße 81,42279,Wuppertal,Europe/Berlin,DENW,"Schmiedestraße 81, Wuppertal"
492,51.30983,7.255747,de/en,Wuppertal,IKEA Wuppertal,Schmiedestraße 81,42279,Wuppertal,Europe/Berlin,DENW,"Schmiedestraße 81, Wuppertal"
493,50.5689576,8.4974441,de/de,Wetzlar,IKEA Wetzlar,Hermannsteiner Straße 13,35576,Wetzlar,Europe/Berlin,DEHE,"Hermannsteiner Straße 13, Wetzlar"
493,50.5689576,8.4974441,de/en,Wetzlar,IKEA Wetzlar,Hermannsteiner Straße 13,35576,Wetzlar,Europe/Berlin,DEHE,"Hermannsteiner Straße 13, Wetzlar"
494,51.21135828,6.64034903,de/de,Kaarst,IKEA Kaarst,Hans-Dietrich-Genscher-Straße 1,41564,Kaarst,Europe/Berlin,DENW,"Hans-Dietrich-Genscher-Straße 1, Kaarst"
494,51.21135828,6.64034903,de/en,Kaarst,IKEA Kaarst,Hans-Dietrich-Genscher-Straße 1,41564,Kaarst,Europe/Berlin,DENW,"Hans-Dietrich-Genscher-Straße 1, Kaarst"
496,34.6369,135.4498,jp/ja,鶴浜（大阪）,IKEA鶴浜（大阪）,大正区鶴町2-24-55,551-0023,大阪府大阪市,Asia/Tokyo,JP27,大阪府大阪市大正区鶴町2-24-55
496,34.6369,135.4498,jp/en,Tsuruhama,IKEA Tsuruhama,"2-24-55 Tsurumachi, Taisho-ku",551-0023,Osaka-shi,Asia/Tokyo,JP27,"2-24-55 Tsurumachi, Taisho-ku, Osaka-shi"
497,41.6075,-0.8916,es/es,Zaragoza,IKEA Zaragoza,"Centro Comercial Puerto Venecia, Calle Teatro Malibrán 30",50021,Zaragoza,Europe/Madrid,ESZ,"Centro Comercial Puerto Venecia, Calle Teatro Malibrán 30, Zaragoza"
497,41.6075,-0.8916,es/eu,Zaragoza,IKEA Zaragoza,"Centro Comercial Puerto Venecia, Calle Teatro Malibrán 30",50021,Zaragoza,Europe/Madrid,ESZ,"Centro Comercial Puerto Venecia, Calle Teatro Malibrán 30, Zaragoza"
497,41.6075,-0.8916,es/gl,Zaragoza,IKEA Zaragoza,"Centro Comercial Puerto Venecia, Calle Teatro Malibrán 30",50021,Zaragoza,Europe/Madrid,ESZ,"Centro Comercial Puerto Venecia, Calle Teatro Malibrán 30, Zaragoza"
497,41.6075,-0.8916,es/ca,Zaragoza,IKEA Zaragoza,"Centro Comercial Puerto Venecia, Calle Teatro Malibrán 30",50021,Zaragoza,Europe/Madrid,ESZ,"Centro Comercial Puerto Venecia, Calle Teatro Malibrán 30, Zaragoza"
497,41.6075,-0.8916,es/en,Zaragoza,IKEA Zaragoza,"Centro Comercial Puerto Venecia, Calle Teatro Malibrán 30",50021,Zaragoza,Europe/Madrid,ESZ,"Centro Comercial Puerto Venecia, Calle Teatro Malibrán 30, Zaragoza"
498,40.3696,-3.5965,es/es,Ensanche de Vallecas,IKEA Ensanche de Vallecas,"Centro Comercial La Gavia, Calle Alto del Retiro 33",28051,Madrid,Europe/Madrid,ESM,"Centro Comercial La Gavia, Calle Alto del Retiro 33, Madrid"
498,40.3696,-3.5965,es/eu,Ensanche de Vallecas,IKEA Ensanche de Vallecas,"Centro Comercial La Gavia, Calle Alto del Retiro 33",28051,Madrid,Europe/Madrid,ESM,"Centro Comercial La Gavia, Calle Alto del Retiro 33, Madrid"
498,40.3696,-3.5965,es/gl,Ensanche de Vallecas,IKEA Ensanche de Vallecas,"Centro Comercial La Gavia, Calle Alto del Retiro 33",28051,Madrid,Europe/Madrid,ESM,"Centro Comercial La Gavia, Calle Alto del Retiro 33, Madrid"
498,40.3696,-3.5965,es/ca,Ensanche de Vallecas,IKEA Ensanche de Vallecas,"Centro Comercial La Gavia, Calle Alto del Retiro 33",28051,Madrid,Europe/Madrid,ESM,"Centro Comercial La Gavia, Calle Alto del Retiro 33, Madrid"
498,40.3696,-3.5965,es/en,Ensanche de Vallecas,IKEA Ensanche de Vallecas,"CC La Gavia. C/ Alto del Retiro, 33",28051,Madrid,Europe/Madrid,ESM,"CC La Gavia. C/ Alto del Retiro, 33, Madrid"
499,41.578299,-8.4303879,pt/pt,Braga,IKEA Braga,Avenida de Lamas nº100,4700-068,Braga,Europe/Lisbon,PT03,"Avenida de Lamas nº100, Braga"
499,41.578299,-8.4303879,pt/en,Braga,IKEA Braga,Avenida de Lamas nº100,4700-068,Braga,Europe/Lisbon,PT03,"Avenida de Lamas nº100, Braga"
500,44.4078,26.2064,ro/ro,Pallady,IKEA Pallady,"Bd. Theodor Pallady nr. 57, Sector 3",032266,București,Europe/Bucharest,ROB,"Bd. Theodor Pallady nr. 57, Sector 3, București"
501,17.4381,78.3747,in/en,Hyderabad,IKEA Hyderabad,"Raidurg, Serilingampally, Mandal, Survey no. 83/1, Plot No.25, 26, Part 29 Panmaqtha, Rangareddy, Hyderabad",500032,Hyderabad,Asia/Kolkata,INTL,"Raidurg, Serilingampally, Mandal, Survey no. 83/1, Plot No.25, 26, Part 29 Panmaqtha, Rangareddy, Hyderabad, Hyderabad"
502,43.3483,-8.4228,es/es,A Coruña,IKEA A Coruña,Carretera Baños de Arteixo 45 A Grela,15008,A Coruña,Europe/Madrid,ESC,"Carretera Baños de Arteixo 45 A Grela, A Coruña"
502,43.3483,-8.4228,es/eu,A Coruña,IKEA A Coruña,Carretera Baños de Arteixo 45 A Grela,15008,A Coruña,Europe/Madrid,ESC,"Carretera Baños de Arteixo 45 A Grela, A Coruña"
502,43.3483,-8.4228,es/gl,A Coruña,IKEA A Coruña,Carretera Baños de Arteixo 45 A Grela,15008,A Coruña,Europe/Madrid,ESC,"Carretera Baños de Arteixo 45 A Grela, A Coruña"
502,43.3483,-8.4228,es/ca,A Coruña,IKEA A Coruña,Carretera Baños de Arteixo 45 A Grela,15008,A Coruña,Europe/Madrid,ESC,"Carretera Baños de Arteixo 45 A Grela, A Coruña"
502,43.3483,-8.4228,es/en,A Coruña,IKEA A Coruña,Carretera Baños de Arteixo 45 A Grela,15008,A CORUNA,Europe/Madrid,ESC,"Carretera Baños de Arteixo 45 A Grela, A CORUNA"
505,24.3709,46.5125,sa/ar,Central unit,ايكيا معرض Central unit,"5301 Istanbul, Al Mishal 7913",14325,Riyadh,Asia/Riyadh,SA02,"5301 Istanbul, Al Mishal 7913, Riyadh"
505,24.3709,46.5125,sa/en,Central unit,IKEA Central unit store,"5301 Istanbul, Al Mishal 7913",14325,Riyadh,Asia/Riyadh,SA02,"5301 Istanbul, Al Mishal 7913, Riyadh"
507,47.4113818,19.1600391,hu/hu,Soroksári IKEA,Soroksári IKEA,Bevásárló utca 4,1238,Budapest,Europe/Budapest,HUBU,"Bevásárló utca 4, Budapest"
508,35.190467433784825,-89.79864078863858,us/en,"Memphis, TN","IKEA Memphis, TN",7900 IKEA Way,38016,Cordova,America/Chicago,USTN,"7900 IKEA Way, Cordova"
508,35.190467433784825,-89.79864078863858,us/es,"Memphis, TN","IKEA Memphis, TN",7900 IKEA Way,38016,Cordova,America/Chicago,USTN,"7900 IKEA Way, Cordova"
509,35.176,137.0758,jp/ja,長久手,IKEA長久手,神門前502,480-1332,愛知県長久手市,Asia/Tokyo,JP23,愛知県長久手市神門前502
509,35.176,137.0758,jp/en,Nagakute,IKEA Nagakute,Jinmonmae 502,480-1332,Nagakute-shi,Asia/Tokyo,JP23,"Jinmonmae 502, Nagakute-shi"
511,40.1507,-82.9671,us/es,"Columbus, OH","IKEA Columbus, OH",1900 IKEA Way,43240,Columbus,America/New_York,USOH,"1900 IKEA Way, Columbus"
511,40.1507,-82.9671,us/en,"Columbus, OH","IKEA Columbus, OH",1900 IKEA Way,43240,Columbus,America/New_York,USOH,"1900 IKEA Way, Columbus"
513,,,eg/ar,HSU EG,ايكيا HSU EG,,,,Africa/Cairo,,", "
513,,,eg/en,HSU EG,IKEA HSU EG,,,,Africa/Cairo,,", "
515,1.3741,103.9325,sg/en,HSU SG,IKEA HSU SG,,,,Asia/Singapore,,", "
517,53.3231,-6.3209,ie/en,HSU IE,IKEA HSU IE,"IKEA, Saint Margeret's drive Road",D11 FW18,Dublin 11,Europe/Dublin,,"IKEA, Saint Margeret's drive Road, Dublin 11"
518,43.7057453324836,7.195417710302401,fr/fr,Nice St. Isidore,IKEA Nice St. Isidore,20 Rue ALain Mimoun,06200,NICE,Europe/Paris,FRPAC,"20 Rue ALain Mimoun, NICE"
519,53.4071,-1.4108,gb/en,Sheffield,IKEA Sheffield,Sheffield Road,S9 2YL,Tinsley,Europe/London,GBSHF,"Sheffield Road, Tinsley"
520,52.1688305,11.611555,de/de,Magdeburg,IKEA Magdeburg,Ebendorfer Chaussee 70,39128,Magdeburg,Europe/Berlin,DEST,"Ebendorfer Chaussee 70, Magdeburg"
520,52.1688305,11.611555,de/en,Magdeburg,IKEA Magdeburg,Ebendorfer Chaussee 70,39128,Magdeburg,Europe/Berlin,DEST,"Ebendorfer Chaussee 70, Magdeburg"
522,37.6303,126.8632,kr/ko,고양점,IKEA 고양점,덕양구 권율대로 420,10551,고양시,Asia/Seoul,KR41,고양시 덕양구 권율대로 420
522,37.6303,126.8632,kr/en,Goyang,IKEA Goyang,"420, Gwonyul-daero, Deogyang-gu",10551,Goyang-si,Asia/Seoul,KR41,"420, Gwonyul-daero, Deogyang-gu, Goyang-si"
523,31.8382,34.6644,il/he,נמל תל אביב,איקאה נמל תל אביב,התערוכה 3,4250401,תל אביב,Asia/Jerusalem,,"התערוכה 3, תל אביב"
527,50.871,4.2933,be/en,HSU BE,IKEA HSU BE,Weiveldlaan 19,1930,Zaventem,Europe/Brussels,,"Weiveldlaan 19, Zaventem"
527,50.871,4.2933,be/fr,HSU BE,IKEA HSU BE,Weiveldlaan 19,1930,Zaventem,Europe/Brussels,,"Weiveldlaan 19, Zaventem"
527,50.871,4.2933,be/nl,HSU BE,IKEA HSU BE,Weiveldlaan 19,1930,Zaventem,Europe/Brussels,,"Weiveldlaan 19, Zaventem"
528,46.06519951526625,14.53855667471318,si/sl,IKEA Ljubljana,IKEA Ljubljana,Švedska ulica 6,1000,Ljubljana,Europe/Ljubljana,,"Švedska ulica 6, Ljubljana"
529,44.713,-63.5575,ca/en,Halifax,IKEA Halifax,645 Cutler Ave,B3B 0M2,Dartmouth,America/Halifax,CANS,"645 Cutler Ave, Dartmouth"
529,44.713,-63.5575,ca/fr,Halifax,IKEA Halifax,645 Cutler Ave,B3B 0M2,Dartmouth,America/Halifax,CANS,"645 Cutler Ave, Dartmouth"
531,31.2246,34.8224,il/he,באר שבע,איקאה באר שבע,הירדן 24,4250401,באר שבע,Asia/Jerusalem,ILM,"הירדן 24, באר שבע"
533,45.8059,16.2378,hr/hr,HSU HR,Robna kuća IKEA HSU HR,Ulica Alfreda Nobela 2,10361,Sesvete Kraljevec Sop,Europe/Zagreb,HR21,"Ulica Alfreda Nobela 2, Sesvete Kraljevec Sop"
534,44.718,20.5522,rs/sr,HSU RS,IKEA HSU RS,Astrid Lindgren 11,11231,Belgrade,Europe/Belgrade,,"Astrid Lindgren 11, Belgrade"
535,32.69077384364501,-97.02271283477994,us/es,"Grand Prairie, TX","IKEA Grand Prairie, TX",1000 IKEA Way,75052,Grand Prairie,America/Chicago,USTX,"1000 IKEA Way, Grand Prairie"
535,32.69077384364501,-97.02271283477994,us/en,"Grand Prairie, TX","IKEA Grand Prairie, TX",1000 IKEA Way,75052,Grand Prairie,America/Chicago,USTX,"1000 IKEA Way, Grand Prairie"
536,39.9537,-86.0059,us/es,"Fishers, IN","IKEA Fishers, IN",11400 IKEA Way,46037,Fishers,America/Indiana/Indianapolis,USIN,"11400 IKEA Way, Fishers"
536,39.9537,-86.0059,us/en,"Fishers, IN","IKEA Fishers, IN",11400 IKEA Way,46037,Fishers,America/Indiana/Indianapolis,USIN,"11400 IKEA Way, Fishers"
537,30.2366,-81.5185,us/en,"Jacksonville, FL","IKEA Jacksonville, FL",7801 Gate Parkway,32256,Jacksonville,America/New_York,USFL,"7801 Gate Parkway, Jacksonville"
537,30.2366,-81.5185,us/es,"Jacksonville, FL","IKEA Jacksonville, FL",7801 Gate Parkway,32256,Jacksonville,America/New_York,USFL,"7801 Gate Parkway, Jacksonville"
539,37.4242,126.8832,kr/ko,HSU KR,IKEA HSU KR,"17, Iljik-ro",14352,Gwangmyeong,Asia/Seoul,KR41,"Gwangmyeong 17, Iljik-ro"
539,37.4242,126.8832,kr/en,HSU KR,IKEA HSU KR,"17, Iljik-ro",14352,Gwangmyeong,Asia/Seoul,KR41,"17, Iljik-ro, Gwangmyeong"
540,,,my/en,HSU MY,IKEA HSU MY,,,,Asia/Kuala_Lumpur,,", "
540,,,my/ms,HSU MY,IKEA HSU MY,,,,Asia/Kuala_Lumpur,,", "
541,,,th/en,HSU TH,IKEA HSU TH,,,,Asia/Bangkok,,", "
541,,,th/th,HSU TH,อิเกีย HSU TH,,,,Asia/Bangkok,,", "
542,,,ma/fr,HSU MA,IKEA HSU MA,,,,Africa/Casablanca,,", "
542,,,ma/en,HSU MA,IKEA HSU MA,,,,Africa/Casablanca,,", "
542,,,ma/ar,HSU MA,ايكيا HSU MA,,,,Africa/Casablanca,,", "
543,,,jo/en,HSU JO,IKEA HSU JO,,,,Asia/Amman,,", "
543,,,jo/ar,HSU JO,ايكيا HSU JO,,,,Asia/Amman,,", "
545,19.0814,73.0174,in/en,Navi Mumbai,IKEA Navi Mumbai,"Turbhe MIDC, Turbhe Navi Mumbai Maharashtra",400705,Navi Mumbai,Asia/Kolkata,INMH,"Turbhe MIDC, Turbhe Navi Mumbai Maharashtra, Navi Mumbai"
546,40.5478,-3.6183,es/es,HSU ES,IKEA HSU ES,"Avenida Matapiñonera, 9",28703,San Sebastian de los Reyes - Madrid,Europe/Madrid,ESM,"Avenida Matapiñonera, 9, San Sebastian de los Reyes - Madrid"
546,40.5478,-3.6183,es/eu,HSU ES,IKEA HSU ES,"Avenida Matapiñonera, 9",28703,San Sebastian de los Reyes - Madrid,Europe/Madrid,ESM,"Avenida Matapiñonera, 9, San Sebastian de los Reyes - Madrid"
546,40.5478,-3.6183,es/gl,HSU ES,IKEA HSU ES,"Avenida Matapiñonera, 9",28703,San Sebastian de los Reyes - Madrid,Europe/Madrid,ESM,"Avenida Matapiñonera, 9, San Sebastian de los Reyes - Madrid"
546,40.5478,-3.6183,es/ca,HSU ES,IKEA HSU ES,"Avenida Matapiñonera, 9",28703,San Sebastian de los Reyes - Madrid,Europe/Madrid,ESM,"Avenida Matapiñonera, 9, San Sebastian de los Reyes - Madrid"
546,40.5478,-3.6183,es/en,HSU ES,IKEA HSU ES,"Avenida Matapiñonera, 9",28703,San Sebastian de los Reyes - Madrid,Europe/Madrid,ESM,"Avenida Matapiñonera, 9, San Sebastian de los Reyes - Madrid"
548,50.7068,-3.4775,gb/en,Exeter,IKEA Exeter,"1 IKEA WAY, off Newcourt Way",EX2 7RX,Exeter,Europe/London,GBDEV,"1 IKEA WAY, off Newcourt Way, Exeter"
551,49.00488474,8.44202492,de/de,Karlsruhe,IKEA Karlsruhe,Durlacher Allee 97,76137,Karlsruhe,Europe/Berlin,DEBW,"Durlacher Allee 97, Karlsruhe"
551,49.00488474,8.44202492,de/en,Karlsruhe,IKEA Karlsruhe,Durlacher Allee 97,76137,Karlsruhe,Europe/Berlin,DEBW,"Durlacher Allee 97, Karlsruhe"
554,25.028617256033478,55.10631639243753,ae/ar,جبل علي,ايكيا جبل علي,ايكيا جبل علي,1811,Dubai,Asia/Dubai,,"ايكيا جبل علي, Dubai"
554,25.028617256033478,55.10631639243753,ae/en,Dubai Jebel Ali,IKEA Dubai Jebel Ali,"IKEA Jebel Ali, Festival Plaza Mall",1811,Dubai,Asia/Dubai,AEDU,"IKEA Jebel Ali, Festival Plaza Mall, Dubai"
555,-33.922,151.1654,au/en,HSU AU,IKEA HSU AU,630-726 Princes Highway,2044,"Tempe, Sydney",Australia/Sydney,AUNS,"630-726 Princes Highway, Tempe, Sydney"
556,-31.8965,115.803,au/en,Perth,IKEA Perth,"6 SUNRAY DRIVE, INNALOO",6018,PERTH,Australia/Perth,AUWA,"6 SUNRAY DRIVE, INNALOO, PERTH"
557,-34.9343,138.538,au/en,Adelaide,IKEA Adelaide,397 SIR DONALD BRADMAN DR,5950,ADELAIDE AIRPORT,Australia/Adelaide,AUSA,"397 SIR DONALD BRADMAN DR, ADELAIDE AIRPORT"
559,46.776551,-71.349492,ca/en,Quebec City,IKEA Quebec City,3400 Avenue Blaise Pascal,G1X 0E4,Quebec City,America/Montreal,CAQC,"3400 Avenue Blaise Pascal, Quebec City"
559,46.776551,-71.349492,ca/fr,Québec,IKEA Québec,3400 Avenue Blaise Pascal,G1X 0E4,Québec,America/Montreal,CAQC,"3400 Avenue Blaise Pascal, Québec"
560,42.9079,-87.9387,us/en,"Oak Creek, WI","IKEA Oak Creek, WI",7500 S IKEA Way,53154,Oak Creek,America/Chicago,USWI,"7500 S IKEA Way, Oak Creek"
560,42.9079,-87.9387,us/es,"Oak Creek, WI","IKEA Oak Creek, WI",7500 S IKEA Way,53154,Oak Creek,America/Chicago,USWI,"7500 S IKEA Way, Oak Creek"
561,29.3697,47.9783,kw/ar,Central unit Kuwait city,ايكيا Central unit Kuwait city,"The Avenues Mall, Al Rai, Block 1",13037,Kuwait,Asia/Kuwait,KWKU,"The Avenues Mall, Al Rai, Block 1, Kuwait"
561,29.3697,47.9783,kw/en,Central unit Kuwait city,IKEA Central unit Kuwait city,"The Avenues Mall, Al Rai, Block 1",13037,Kuwait,Asia/Kuwait,KWKU,"The Avenues Mall, Al Rai, Block 1, Kuwait"
562,45.718609733846,4.881498981564166,fr/fr,Lyon - Grand Parilly,IKEA Lyon - Grand Parilly,9 rue Simone VEIL,69200,VENISSIEUX,Europe/Paris,FRARA,"9 rue Simone VEIL, VENISSIEUX"
563,35.6818,139.9917,jp/ja,HSU JP,IKEA HSU JP,"5th floor, 2-3-30 Hama-cho",273-0012,Funabashi-shi,Asia/Tokyo,JP12,"Funabashi-shi5th floor, 2-3-30 Hama-cho"
563,35.6818,139.9917,jp/en,HSU JP,IKEA HSU JP,"5th floor, 2-3-30 Hama-cho",273-0012,Funabashi-shi,Asia/Tokyo,JP12,"5th floor, 2-3-30 Hama-cho, Funabashi-shi"
564,52.1331,20.8958,pl/pl,HSU PL,IKEA HSU PL,"Janki, Plac Szwedzki 3",05-090,Raszyn,Europe/Warsaw,,"Janki, Plac Szwedzki 3, Raszyn"
566,5.23378,100.44012,my/en,Batu Kawan,IKEA Batu Kawan,"752, Persiaran Cassia Barat 8",14110,Penang,Asia/Kuala_Lumpur,,"752, Persiaran Cassia Barat 8, Penang"
566,5.23378,100.44012,my/ms,Batu Kawan,IKEA Batu Kawan,"752, Persiaran Cassia Barat 8",14110,Penang,Asia/Kuala_Lumpur,,"752, Persiaran Cassia Barat 8, Penang"
567,51.4897,0.015,gb/en,Greenwich,IKEA Greenwich,55-57 Bugsby's Way,SE10 0QJ,"London, Greenwich",Europe/London,GBLND,"55-57 Bugsby's Way, London, Greenwich"
569,36.8763,-76.2014,us/en,"Norfolk, VA","IKEA Norfolk, VA",1500 IKEA Way,23502,Norfolk,America/New_York,USVA,"1500 IKEA Way, Norfolk"
569,36.8763,-76.2014,us/es,"Norfolk, VA","IKEA Norfolk, VA",1500 IKEA Way,23502,Norfolk,America/New_York,USVA,"1500 IKEA Way, Norfolk"
570,29.5667,-98.3381,us/es,"Live Oak, TX","IKEA Live Oak, TX",1000 IKEA RBFCU Parkway,78233,Live Oak,America/Chicago,USTX,"1000 IKEA RBFCU Parkway, Live Oak"
570,29.5667,-98.3381,us/en,"Live Oak, TX","IKEA Live Oak, TX",1000 IKEA RBFCU Parkway,78233,Live Oak,America/Chicago,USTX,"1000 IKEA RBFCU Parkway, Live Oak"
578,13.049158597363835,77.49908561411297,in/en,"Nagasandra, Bengaluru","IKEA Nagasandra, Bengaluru","Nelamangala - Majestic Service Rd, Manjunatha Nagar, Nagasandra",560073,Bangalore,Asia/Kolkata,INKA,"Nelamangala - Majestic Service Rd, Manjunatha Nagar, Nagasandra, Bangalore"
579,18.7988,73.7865,in/en,HSU IN,IKEA HSU IN,Indospace Industrial Park,410501,Pune,Asia/Kolkata,INMH,"Indospace Industrial Park, Pune"
582,37.223,127.1159,kr/ko,기흥점,IKEA 기흥점,기흥구 신고매로 62,17086,용인시,Asia/Seoul,KR41,용인시 기흥구 신고매로 62
582,37.223,127.1159,kr/en,Giheung,IKEA Giheung,"62 Singomae-ro, Giheung-gu",17086,"Yongin-si, Gyeonggi-do",Asia/Seoul,KR41,"62 Singomae-ro, Giheung-gu, Yongin-si, Gyeonggi-do"
583,53.407522,14.514004,pl/pl,Szczecin,IKEA Szczecin,ul. Białowieska 2,71-010,Szczecin,Europe/Warsaw,PLZP,"ul. Białowieska 2, Szczecin"
586,,,bh/ar,HSU BH,ايكيا معرض HSU BH,,,,Asia/Bahrain,,", "
586,,,bh/en,HSU BH,IKEA HSU BH store,,,,Asia/Bahrain,,", "
587,48.1956,16.3381,at/de,Wien Westbahnhof,IKEA Wien Westbahnhof,Europaplatz 1,1150,Wien,Europe/Vienna,AT9,"Europaplatz 1, Wien"
587,48.1956,16.3381,at/en,Wien Westbahnhof,IKEA Wien Westbahnhof,Europaplatz 1,1150,Wien,Europe/Vienna,AT9,"Europaplatz 1, Wien"
588,50.4856,30.8259,ua/uk,Central unit UA,IKEA Central unit UA,"TOB NP LOGISTIK, OBIZDNA DOROGA,68",07400,BROVARY,Europe/Kiev,UA32,"TOB NP LOGISTIK, OBIZDNA DOROGA,68, BROVARY"
589,57.6059,12.0468,se/sv,Göteborg Kållered,IKEA Göteborg Kållered,Ekenleden 4-6,42836,Kållered,Europe/Stockholm,,"Ekenleden 4-6, Kållered"
589,57.6059,12.0468,se/en,Göteborg Kållered,IKEA Göteborg Kållered,Ekenleden 4-6,42836,Kållered,Europe/Stockholm,,"Ekenleden 4-6, Kållered"
590,14.5321,120.9826,ph/en,Pasay City,IKEA Pasay City,"Marina Way, Mall of Asia Complex",1300,"Pasay City, Metro Manila",Asia/Manila,,"Marina Way, Mall of Asia Complex, Pasay City, Metro Manila"
594,-33.4008,-70.5755,cl/es,IKEA Open Kennedy,IKEA Open Kennedy,Avenida Presidente Kennedy #5601,7560356,Las Condes - Santiago,America/Santiago,,"Avenida Presidente Kennedy #5601, Las Condes - Santiago"
595,18.3941,-66.1477,us/en,"Bayamón, PR (PR)","IKEA Bayamón, PR (PR)",Av. Aguas Buenas,00959,Bayamon,America/Puerto_Rico,USPR,"Av. Aguas Buenas, Bayamon"
595,18.3941,-66.1477,us/es,"PR, Bayamón (PR)","IKEA PR, Bayamón (PR)",Av. Aguas Buenas,00959,Bayamon,America/Puerto_Rico,USPR,"Av. Aguas Buenas, Bayamon"
597,23.5899,58.4091,om/ar,مسقط,ايكيا مسقط,الخوير الجنوبية، بوشر,136,مسقط,Asia/Muscat,,"الخوير الجنوبية، بوشر, مسقط"
597,23.5899,58.4091,om/en,Muscat,IKEA Muscat,"South Al Khuwair, Bousher",136,Muscat,Asia/Muscat,,"South Al Khuwair, Bousher, Muscat"
602,35.1905,129.2101,kr/ko,동부산점,IKEA 동부산점,기장읍 동부산관광3로 17,46084,부산광역시 기장군,Asia/Seoul,KR26,부산광역시 기장군 기장읍 동부산관광3로 17
602,35.1905,129.2101,kr/en,Dongbusan,IKEA Dongbusan,17 Dongbusangwangwang 3-ro,46084,"Gijang-gun, Busan",Asia/Seoul,KR26,"17 Dongbusangwangwang 3-ro, Gijang-gun, Busan"
605,50.049,14.298,cz/en,HSU CZ,IKEA HSU CZ,Skandinávská 15A,155 00,Praha 5-Zlicin,Europe/Prague,,"Skandinávská 15A, Praha 5-Zlicin"
605,50.049,14.298,cz/cs,HSU CZ,IKEA HSU CZ,Skandinávská 15A,155 00,Praha 5-Zlicin,Europe/Prague,,"Skandinávská 15A, Praha 5-Zlicin"
606,47.5056,19.1386,hu/hu,HSU HU,IKEA HSU HU,Örs vezér tere 22,1148,Budapest,Europe/Budapest,,"Örs vezér tere 22, Budapest"
607,48.1683,17.183,sk/sk,HSU SK,IKEA HSU SK,Ivanská cesta 18,821 04,Bratislava,Europe/Bratislava,,"Ivanská cesta 18, Bratislava"
608,24.8503,46.7749,sa/ar,الثمامة,ايكيا معرض الثمامة,الثمامة,11633,الرياض,Asia/Riyadh,,"الثمامة, الرياض"
608,24.8503,46.7749,sa/en,Thumamah,IKEA Thumamah store,"AL Munsiyah, Thumama",11633,Riyadh,Asia/Riyadh,,"AL Munsiyah, Thumama, Riyadh"
612,19.4403,-99.0934,mx/en,Oceanía,IKEA Oceanía,"Encuentro Oceanía, Av. del Peñón 355, Moctezuma 2.a Sección, Venustiano Carranza.",15530,Mexico City,America/Mexico_City,,"Encuentro Oceanía, Av. del Peñón 355, Moctezuma 2.a Sección, Venustiano Carranza., Mexico City"
612,19.4403,-99.0934,mx/es,Oceanía,IKEA Oceanía,"Encuentro Oceanía, Av. del Peñón 355, Moctezuma 2.a Sección, Venustiano Carranza.",15530,Ciudad de México,America/Mexico_City,,"Encuentro Oceanía, Av. del Peñón 355, Moctezuma 2.a Sección, Venustiano Carranza., Ciudad de México"
613,31.7745,35.0014,il/he,אשתאול,איקאה אשתאול,המלאכה 7,4250401,"אזה""ת הר טוב",Asia/Jerusalem,ILTA,"המלאכה 7, אזה""ת הר טוב"
614,-36.8461,174.7698,nz/en,Auckland,IKEA Auckland,"Level 22, Pwc Tower, 15 Customs Street West, Minter Ell",1010,Auckland,Pacific/Auckland,,"Level 22, Pwc Tower, 15 Customs Street West, Minter Ell, Auckland"
615,-33.922,151.1654,nz/en,HSU NZ,IKEA HSU NZ,,,,Australia/Sydney,,", "
617,52.3996,13.0492,de/de,Potsdam,IKEA Potsdam,Brandenburger Strasse 5,14467,Potsdam,Europe/Berlin,DEBB,"Brandenburger Strasse 5, Potsdam"
617,52.3996,13.0492,de/en,Potsdam,IKEA Potsdam,Brandenburger Strasse 5,14467,Potsdam,Europe/Berlin,DEBB,"Brandenburger Strasse 5, Potsdam"
619,14.5321,120.9826,ph/en,HSU PH,IKEA HSU PH,,,,Asia/Manila,,", "
628,,,mx/en,HSU MX,IKEA HSU MX,,,,America/Cancun,,", "
628,,,mx/es,HSU MX,IKEA HSU MX,,,,America/Cancun,,", "
629,19.009,72.8278,in/en,"Worli City Store, Mumbai","IKEA Worli City Store, Mumbai","2 Pandurang Budhkar Marg, & 3 Building 18 10 Trade View, Utopia City, Unit-1.",400013,Mumbai,Asia/Kolkata,INMH,"2 Pandurang Budhkar Marg, & 3 Building 18 10 Trade View, Utopia City, Unit-1., Mumbai"
631,30.006786,30.9757986,eg/ar,مول العرب,ايكيا مول العرب,مول العرب، مرحلة التوسعة بوابة 17 - مدينة السادس من أكتوبر,الخط الساخن: 16576,الجيزة,Africa/Cairo,EGC,"مول العرب، مرحلة التوسعة بوابة 17 - مدينة السادس من أكتوبر, الجيزة"
631,30.006786,30.9757986,eg/en,Mall of Arabia,IKEA Mall of Arabia,"Mall of Arabia, Expansion phase Gate 17 - 6th of October City",Hotline: 16576,Giza,Africa/Cairo,EGC,"Mall of Arabia, Expansion phase Gate 17 - 6th of October City, Giza"
632,25.3193,55.4654,ae/ar,Sharjah,ايكيا Sharjah,"E311 , Industrial Area",50618,Sharjah,Asia/Dubai,,"E311 , Industrial Area, Sharjah"
632,25.3193,55.4654,ae/en,Sharjah,IKEA Sharjah,"E311 , Industrial Area",50618,Sharjah,Asia/Dubai,,"E311 , Industrial Area, Sharjah"
633,50.4856,30.8259,ua/uk,HSU UA,IKEA HSU UA,"TOB NP LOGISTIK, OBIZDNA DOROGA,68",07400,BROVARY,Europe/Kiev,UA32,"TOB NP LOGISTIK, OBIZDNA DOROGA,68, BROVARY"
634,19.2549,-99.2538,mx/en,Central Unit MX,IKEA Central Unit MX,Km.5.4 Carretera,54800,Cuautitlan,America/Mexico_City,,"Km.5.4 Carretera, Cuautitlan"
634,19.2549,-99.2538,mx/es,Central Unit MX,IKEA Central Unit MX,Km.5.4 Carretera,54800,Cuautitlan,America/Mexico_City,,"Km.5.4 Carretera, Cuautitlan"
635,46.0664,14.5376,si/sl,HSU SI,IKEA HSU SI,Svedska ulica 6,1000,Ljubljana,Europe/Ljubljana,SI061,"Svedska ulica 6, Ljubljana"
636,-33.5175,-70.7145,cl/es,IKEA Plaza Oeste,IKEA Plaza Oeste,Avenida Américo Vespucio #1501,9220213,Cerrillos - Santiago,America/Santiago,,"Avenida Américo Vespucio #1501, Cerrillos - Santiago"
637,-33.5288,-70.7115,cl/es,HSU CL,IKEA HSU CL,,,,America/Santiago,,", "
640,-33.5288,-70.7115,cl/es,Central unit,IKEA Central unit,Laguna Sur 9739,9020000,Santiago,America/Santiago,,"Laguna Sur 9739, Santiago"
642,51.492937969424254,-0.2283080314386541,gb/en,Hammersmith,IKEA Hammersmith,King Street Hammersmith,W6 9HW,London,Europe/London,GBHMF,"King Street Hammersmith, London"
645,48.860577631039334,2.342574597069094,fr/fr,Rivoli,IKEA Rivoli,144 RUE DE RIVOLI,75001,PARIS,Europe/Paris,,"144 RUE DE RIVOLI, PARIS"
646,12.9963,77.6952,in/en,VR Mall,IKEA VR Mall,"PlotNo11B,Survey40/9,KR Puram,Hobli",560048,Bangalore,Asia/Kolkata,INKA,"PlotNo11B,Survey40/9,KR Puram,Hobli, Bangalore"
647,35.6603,139.6995,jp/ja,渋谷,IKEA渋谷,宇田川町24-1 髙木ビルディング1階～7階,150-0042,東京都渋谷区,Asia/Tokyo,JP13,東京都渋谷区宇田川町24-1 髙木ビルディング1階～7階
647,35.6603,139.6995,jp/en,Shibuya,IKEA Shibuya,24-1 Udagawa-cho,150-0042,"Shibuya-ku, Tokyo, Takagi Building 1st-7th floors",Asia/Tokyo,JP13,"24-1 Udagawa-cho, Shibuya-ku, Tokyo, Takagi Building 1st-7th floors"
649,14.5321,120.9826,ph/en,Central Unit PH,IKEA Central Unit PH,"Marina Way, Mall of Asia Complex",1300,"Pasay City, Metro Manila",Asia/Manila,,"Marina Way, Mall of Asia Complex, Pasay City, Metro Manila"
650,1.333876791307745,103.74388112648363,sg/en,Jurong @ JEM,IKEA Jurong @ JEM,"50 Jurong Gateway Rd, #02-12/13/14, #03-15/16/17 & #04-20/21/22",608549,Singapore,Asia/Singapore,,"50 Jurong Gateway Rd, #02-12/13/14, #03-15/16/17 & #04-20/21/22, Singapore"
651,35.6902,139.7048,jp/ja,新宿,IKEA新宿,新宿3丁目1-13 京王新宿追分ビルB1F-3F,160-0022,東京都新宿区,Asia/Tokyo,JP13,東京都新宿区新宿3丁目1-13 京王新宿追分ビルB1F-3F
651,35.6902,139.7048,jp/en,Shinjuku,IKEA Shinjuku,"B1F-3F, Keio Shinjuku Oiwake Building, 3-1-13 Shinjuku",160-0022,"Shinjuku-ku, Tokyo",Asia/Tokyo,JP13,"B1F-3F, Keio Shinjuku Oiwake Building, 3-1-13 Shinjuku, Shinjuku-ku, Tokyo"
652,19.027,-98.2377,mx/en,Puebla,IKEA Puebla,"Centro comercial Vía San Ángel, Av. Atlixcáyotl 1504, Reserva Territorial Atlixcáyotl",72197,Puebla,America/Mexico_City,,"Centro comercial Vía San Ángel, Av. Atlixcáyotl 1504, Reserva Territorial Atlixcáyotl, Puebla"
652,19.027,-98.2377,mx/es,Puebla,IKEA Puebla,"Centro comercial Vía San Ángel, Av. Atlixcáyotl 1504, Reserva Territorial Atlixcáyotl",72197,Puebla,America/Mexico_City,,"Centro comercial Vía San Ángel, Av. Atlixcáyotl 1504, Reserva Territorial Atlixcáyotl, Puebla"
654,35.6514239,-5.309765,ma/fr,Cabo,IKEA Cabo,"La zone commerciale entre Tetouan et M’diq,Route de Cabo Negro",93150,Tetouan,Africa/Casablanca,,"La zone commerciale entre Tetouan et M’diq,Route de Cabo Negro, Tetouan"
654,35.6514239,-5.309765,ma/en,Cabo,IKEA Cabo,"Comercial zone between Tetouan and M’Diq,Road to Cabo Negro",93150,Tetouan,Africa/Casablanca,,"Comercial zone between Tetouan and M’Diq,Road to Cabo Negro, Tetouan"
654,35.6514239,-5.309765,ma/ar,كابو,ايكيا كابو,المنطقة التجارية بين تطوان و المضيق طريق كابو نيكرو,93150,تطوان,Africa/Casablanca,,"المنطقة التجارية بين تطوان و المضيق طريق كابو نيكرو, تطوان"
655,35.611,-5.3089,ma/fr,Central Unit,IKEA Central Unit,ROUTE SECONDAIRE N107,20400,CASABLANCA,Africa/Casablanca,,"ROUTE SECONDAIRE N107, CASABLANCA"
655,35.611,-5.3089,ma/en,Central Unit,IKEA Central Unit,ROUTE SECONDAIRE N107,20400,CASABLANCA,Africa/Casablanca,,"ROUTE SECONDAIRE N107, CASABLANCA"
655,35.611,-5.3089,ma/ar,Central Unit,ايكيا Central Unit,ROUTE SECONDAIRE N107,20400,CASABLANCA,Africa/Casablanca,,"ROUTE SECONDAIRE N107, CASABLANCA"
658,37.7828,-122.4088,us/es,"San Francisco, CA","IKEA San Francisco, CA",945 Market Street,94103-1701,San Francisco,America/Los_Angeles,USCA,"945 Market Street, San Francisco"
658,37.7828,-122.4088,us/en,"San Francisco, CA","IKEA San Francisco, CA",945 Market Street,94103-1701,San Francisco,America/Los_Angeles,USCA,"945 Market Street, San Francisco"
659,43.6597,-79.383,ca/en,Toronto Downtown,IKEA Toronto Downtown,382 Yonge Street,M5B 1S9,Toronto,America/Toronto,CAON,"382 Yonge Street, Toronto"
659,43.6597,-79.383,ca/fr,Centre-ville de Toronto,IKEA Centre-ville de Toronto,382 Yonge Street,M5B 1S9,Toronto,America/Toronto,CAON,"382 Yonge Street, Toronto"
660,23.5899,58.4091,om/ar,HSU OM,ايكيا HSU OM,,,,Asia/Muscat,,", "
660,23.5899,58.4091,om/en,HSU OM,IKEA HSU OM,,,,Asia/Muscat,,", "
661,4.6187,-74.0866,co/es,IKEA NQS,IKEA NQS,Calle 19 No. 28 - 80,110221,"Bogotá, D.C.",America/Bogota,,"Calle 19 No. 28 - 80, Bogotá, D.C."
662,,,co/es,HSU CO,IKEA HSU CO,,,,America/Bogota,,", "
663,4.7794,-74.1787,co/es,Central Unit,IKEA Central Unit,"Km 8,5 Autopista Bogotá a Medellín",250208,Tenjo,America/Bogota,COCUN,"Km 8,5 Autopista Bogotá a Medellín, Tenjo"
664,45.7928,21.2126,ro/ro,Timișoara,IKEA Timișoara,"Bd. Petre Țuțea nr. 2A, Dumbrăvița",307160,județul Timiș,Europe/Bucharest,ROTM,"Bd. Petre Țuțea nr. 2A, Dumbrăvița, județul Timiș"
665,40.5019,-3.888,es/es,IKEA Madrid - Las Rozas,IKEA Madrid - Las Rozas,Calle Cabo de Rufino Lazaro num. 2,28232,Las Rozas- Madrid,Europe/Madrid,ESM,"Calle Cabo de Rufino Lazaro num. 2, Las Rozas- Madrid"
665,40.5019,-3.888,es/eu,IKEA Madrid - Las Rozas,IKEA Madrid - Las Rozas,Calle Cabo de Rufino Lazaro num. 2,28232,Las Rozas- Madrid,Europe/Madrid,ESM,"Calle Cabo de Rufino Lazaro num. 2, Las Rozas- Madrid"
665,40.5019,-3.888,es/gl,IKEA Madrid - Las Rozas,IKEA Madrid - Las Rozas,Calle Cabo de Rufino Lazaro num. 2,28232,Las Rozas- Madrid,Europe/Madrid,ESM,"Calle Cabo de Rufino Lazaro num. 2, Las Rozas- Madrid"
665,40.5019,-3.888,es/ca,IKEA Madrid - Las Rozas,IKEA Madrid - Las Rozas,Calle Cabo de Rufino Lazaro num. 2,28232,Las Rozas- Madrid,Europe/Madrid,ESM,"Calle Cabo de Rufino Lazaro num. 2, Las Rozas- Madrid"
665,40.5019,-3.888,es/en,IKEA Madrid - Las Rozas,IKEA Madrid - Las Rozas,Calle Cabo de Rufino Lazaro num. 2,28232,Las Rozas- Madrid,Europe/Madrid,ESM,"Calle Cabo de Rufino Lazaro num. 2, Las Rozas- Madrid"
669,59.3306,18.0681,se/sv,Stockholm Gallerian,IKEA Stockholm Gallerian,Hamngatan 37,11151,Stockholm,Europe/Stockholm,SEAB,"Hamngatan 37, Stockholm"
669,59.3306,18.0681,se/en,Stockholm Gallerian,IKEA Stockholm Gallerian,Hamngatan 37,11151,Stockholm,Europe/Stockholm,SEAB,"Hamngatan 37, Stockholm"
670,,,il/he,HSU IL,איקאה HSU IL,,,,Asia/Jerusalem,,", "
671,35.6705,139.7032,jp/ja,原宿,IKEA原宿,神宮前1-14-30 WITH HARAJUKU内,150-0001,東京都渋谷区,Asia/Tokyo,JP13,東京都渋谷区神宮前1-14-30 WITH HARAJUKU内
671,35.6705,139.7032,jp/en,Harajuku,IKEA Harajuku,1-14-30 Jingumae,150-0001,"Shibuya-ku, Tokyo",Asia/Tokyo,JP13,"1-14-30 Jingumae, Shibuya-ku, Tokyo"
674,40.4758,-3.4809,es/es,IKEA Madrid - Torrejón,IKEA Madrid - Torrejón,"CTRA. Torrejón Ajalvir, Centro Comercial s/n",28850,Torrejón de Ardoz (Madrid),Europe/Madrid,ESM,"CTRA. Torrejón Ajalvir, Centro Comercial s/n, Torrejón de Ardoz (Madrid)"
674,40.4758,-3.4809,es/eu,IKEA Madrid - Torrejón,IKEA Madrid - Torrejón,"CTRA. Torrejón Ajalvir, Centro Comercial s/n",28850,Torrejón de Ardoz (Madrid),Europe/Madrid,ESM,"CTRA. Torrejón Ajalvir, Centro Comercial s/n, Torrejón de Ardoz (Madrid)"
674,40.4758,-3.4809,es/gl,IKEA Madrid - Torrejón,IKEA Madrid - Torrejón,"CTRA. Torrejón Ajalvir, Centro Comercial s/n",28850,Torrejón de Ardoz (Madrid),Europe/Madrid,ESM,"CTRA. Torrejón Ajalvir, Centro Comercial s/n, Torrejón de Ardoz (Madrid)"
674,40.4758,-3.4809,es/ca,IKEA Madrid - Torrejón,IKEA Madrid - Torrejón,"CTRA. Torrejón Ajalvir, Centro Comercial s/n",28850,Torrejón de Ardoz (Madrid),Europe/Madrid,ESM,"CTRA. Torrejón Ajalvir, Centro Comercial s/n, Torrejón de Ardoz (Madrid)"
674,40.4758,-3.4809,es/en,IKEA Madrid - Torrejón,IKEA Madrid - Torrejón,"CTRA. Torrejón Ajalvir, Centro Comercial s/n",28850,Torrejón de Ardoz (Madrid),Europe/Madrid,ESM,"CTRA. Torrejón Ajalvir, Centro Comercial s/n, Torrejón de Ardoz (Madrid)"
677,29.0857218,48.1052502,kw/ar,ذا وير هاوس,ايكيا ذا وير هاوس,جنوب الصباحية، قطعة ١، قسيمة رقم 49 و50,13037,الكويت,Asia/Kuwait,,"جنوب الصباحية، قطعة ١، قسيمة رقم 49 و50, الكويت"
677,29.0857218,48.1052502,kw/en,The Warehouse,IKEA The Warehouse,"Plot NO. 49 and 50, Block 1, South Sabahiya",13037,Kuwait,Asia/Kuwait,,"Plot NO. 49 and 50, Block 1, South Sabahiya, Kuwait"
680,34.13488677043822,-118.05156754436383,us/en,"Arcadia, CA","IKEA Arcadia, CA",400 South Baldwin Ave Suite D5,91007,Arcadia,America/Los_Angeles,USCA,"400 South Baldwin Ave Suite D5, Arcadia"
680,34.13488677043822,-118.05156754436383,us/es,"Arcadia, CA","IKEA Arcadia, CA",400 South Baldwin Ave Suite D5,91007,Arcadia,America/Los_Angeles,USCA,"400 South Baldwin Ave Suite D5, Arcadia"
682,41.79746810784544,12.298905009399677,it/it,Roma Fiumicino,IKEA Roma Fiumicino,"Viale Donato Bramante 31/65 - Presso The WOW Side Shopping Centre, Ex Centro Leonardo",00054,Fiumicino (Roma),Europe/Rome,ITRM,"Viale Donato Bramante 31/65 - Presso The WOW Side Shopping Centre, Ex Centro Leonardo, Fiumicino (Roma)"
683,20.6567,-103.3983,mx/en,Guadalajara Expo,IKEA Guadalajara Expo,"Av. Adolfo López Mateos Sur 2121, Rinconada del Sol",45055,Zapopan,America/Mexico_City,JAL,"Av. Adolfo López Mateos Sur 2121, Rinconada del Sol, Zapopan"
683,20.6567,-103.3983,mx/es,Guadalajara Expo,IKEA Guadalajara Expo,"Av. Adolfo López Mateos Sur 2121, Rinconada del Sol",45055,Zapopan,America/Mexico_City,JAL,"Av. Adolfo López Mateos Sur 2121, Rinconada del Sol, Zapopan"
685,50.3733,30.4461,ua/uk,Respublika,IKEA Respublika,"Kiltseva Rd, 1",02000,Kyiv,Europe/Kiev,,"Kiltseva Rd, 1, Kyiv"
686,55.663932922334496,12.561302608313804,dk/da,København,IKEA København,Dybbølsbro 4 (Parkering: Carsten Niebuhrs Gade 29),1577,København V,Europe/Copenhagen,,"Dybbølsbro 4 (Parkering: Carsten Niebuhrs Gade 29), København V"
688,46.166,7.212,ch/de,Riddes,IKEA Riddes,Zone commerciale des Babioux 3,1908,Riddes,Europe/Zurich,,"Zone commerciale des Babioux 3, Riddes"
688,46.166,7.212,ch/fr,Riddes,IKEA Riddes,Zone commerciale des Babioux 3,1908,Riddes,Europe/Zurich,,"Zone commerciale des Babioux 3, Riddes"
688,46.166,7.212,ch/en,Riddes,IKEA Riddes,Zone commerciale des Babioux 3,1908,Riddes,Europe/Zurich,,"Zone commerciale des Babioux 3, Riddes"
688,46.166,7.212,ch/it,Riddes,IKEA Riddes,Zone commerciale des Babioux 3,1908,Riddes,Europe/Zurich,,"Zone commerciale des Babioux 3, Riddes"
691,36.8536,-2.4693,es/es,Almería - La Rambla,IKEA Almería - La Rambla,Calle José Manuel Gómez Angulo,04008,Almería,Europe/Madrid,ESAL,"Calle José Manuel Gómez Angulo, Almería"
691,36.8536,-2.4693,es/eu,Almería - La Rambla,IKEA Almería - La Rambla,José Manuel Gómez Angulo,04008,Almeria,Europe/Madrid,ESAL,"José Manuel Gómez Angulo, Almeria"
691,36.8536,-2.4693,es/gl,Almería - La Rambla,IKEA Almería - La Rambla,José Manuel Gómez Angulo,04008,Almeria,Europe/Madrid,ESAL,"José Manuel Gómez Angulo, Almeria"
691,36.8536,-2.4693,es/ca,La Rambla,IKEA La Rambla,José Manuel Gómez Angulo,04008,Almeria,Europe/Madrid,ESAL,"José Manuel Gómez Angulo, Almeria"
691,36.8536,-2.4693,es/en,Almería - La Rambla,IKEA Almería - La Rambla,José Manuel Gómez Angulo,04008,Almeria,Europe/Madrid,ESAL,"José Manuel Gómez Angulo, Almeria"
692,3.4372,-76.5225,co/es,IKEA Cali,IKEA Cali,Calle 5a # 52,760043,Cali,America/Bogota,COVAC,"Calle 5a # 52, Cali"
693,6.1759,-75.5917,co/es,IKEA Medellín,IKEA Medellín,Cra. 48 #32b Sur-139,055422,Envigado,America/Bogota,COANT,"Cra. 48 #32b Sur-139, Envigado"
694,13.7233717,100.5765043,th/en,Sukhumvit,IKEA Sukhumvit,"628 3rd floor, The Emsphere, Sukhumvit Rd",10110,"Khlong Tan, Khlong Toei, Bangkok",Asia/Bangkok,TH11,"628 3rd floor, The Emsphere, Sukhumvit Rd, Khlong Tan, Khlong Toei, Bangkok"
694,13.7233717,100.5765043,th/th,สุขุมวิท,อิเกีย สุขุมวิท,628 ชั้น 3 ศูนย์การค้า The Emsphere ถนนสุขุมวิท,10110,แขวงคลองตัน เขตคลองเตย กรุงเทพฯ,Asia/Bangkok,TH11,"628 ชั้น 3 ศูนย์การค้า The Emsphere ถนนสุขุมวิท, แขวงคลองตัน เขตคลองเตย กรุงเทพฯ"
695,40.33968378326516,-3.7352454152970918,es/es,IKEA Madrid - Leganés,IKEA Madrid - Leganés,CC Paque Sur Av de Gran Bretaña /sn,28916,Leganés - Madrid,Europe/Madrid,,"CC Paque Sur Av de Gran Bretaña /sn, Leganés - Madrid"
695,40.33968378326516,-3.7352454152970918,es/eu,IKEA Madrid - Leganés,IKEA Madrid - Leganés,CC Paque Sur Av de Gran Bretaña /sn,28916,Leganés - Madrid,Europe/Madrid,,"CC Paque Sur Av de Gran Bretaña /sn, Leganés - Madrid"
695,40.33968378326516,-3.7352454152970918,es/gl,IKEA Madrid - Leganés,IKEA Madrid - Leganés,CC Paque Sur Av de Gran Bretaña /sn,28916,Leganés - Madrid,Europe/Madrid,,"CC Paque Sur Av de Gran Bretaña /sn, Leganés - Madrid"
695,40.33968378326516,-3.7352454152970918,es/ca,IKEA Madrid - Leganés,IKEA Madrid - Leganés,CC Paque Sur Av de Gran Bretaña /sn,28916,Leganés - Madrid,Europe/Madrid,,"CC Paque Sur Av de Gran Bretaña /sn, Leganés - Madrid"
695,40.33968378326516,-3.7352454152970918,es/en,IKEA Madrid - Leganés,IKEA Madrid - Leganés,CC Paque Sur Av de Gran Bretaña /sn,28916,Leganés - Madrid,Europe/Madrid,,"CC Paque Sur Av de Gran Bretaña /sn, Leganés - Madrid"
697,36.332,139.0904,jp/ja,前橋,IKEA前橋,亀里町2008,379-2147,群馬県前橋市,Asia/Tokyo,JP10,群馬県前橋市亀里町2008
697,36.332,139.0904,jp/en,Maebashi,IKEA Maebashi,2008 Kamesato-machi,379-2147,"Maebashi-shi, Gunma-ken",Asia/Tokyo,JP10,"2008 Kamesato-machi, Maebashi-shi, Gunma-ken"
698,43.7772,-79.2568,ca/en,Scarborough Town Centre,IKEA Scarborough Town Centre,300 Borough Drive,M1P 4P5,Scarborough,America/Toronto,CAON,"300 Borough Drive, Scarborough"
698,43.7772,-79.2568,ca/fr,Scarborough Town Centre,IKEA Scarborough Town Centre, , , ,America/Toronto,CAON," ,  "
699,37.14734663599185,-3.611844590024071,es/es,Granada,IKEA Granada,Av de Palmeras 75,18100,Granada,Europe/Madrid,ESGR,"Av de Palmeras 75, Granada"
699,37.14734663599185,-3.611844590024071,es/eu,Granada,IKEA Granada,Av de Palmeras 75,18100,Granada,Europe/Madrid,ESGR,"Av de Palmeras 75, Granada"
699,37.14734663599185,-3.611844590024071,es/gl,Granada,IKEA Granada,Av de Palmeras 75,18100,Granada,Europe/Madrid,ESGR,"Av de Palmeras 75, Granada"
699,37.14734663599185,-3.611844590024071,es/ca,Granada,IKEA Granada,Av de Palmeras 75,18100,Granada,Europe/Madrid,ESGR,"Av de Palmeras 75, Granada"
699,37.14734663599185,-3.611844590024071,es/en,Granada,IKEA Granada,Av de Palmeras 75,18100,Granada,Europe/Madrid,ESGR,"Av de Palmeras 75, Granada"
700,24.2376,55.7347,ae/ar,Al Jimi Mall,ايكيا Al Jimi Mall,Dubai Festival City,50618,Dubai,Asia/Dubai,AEDU,"Dubai Festival City, Dubai"
700,24.2376,55.7347,ae/en,Al Jimi Mall,IKEA Al Jimi Mall,Dubai Festival City,50618,Dubai,Asia/Dubai,AEDU,"Dubai Festival City, Dubai"
701,24.4696,54.3724,ae/ar,Al Wahda Mall,ايكيا Al Wahda Mall,Al Asalah St,52718,Abu Dhabi,Asia/Dubai,,"Al Asalah St, Abu Dhabi"
701,24.4696,54.3724,ae/en,Al Wahda Mall,IKEA Al Wahda Mall,Al Asalah St,52718,Abu Dhabi,Asia/Dubai,,"Al Asalah St, Abu Dhabi"
702,51.5156,-0.1411,gb/en,Oxford Street,IKEA Oxford Street,214 Oxford Street,W1C 1DA,London,Europe/London,,"214 Oxford Street, London"
703,24.4522,39.6985,sa/ar,المدينة المنورة,ايكيا معرض المدينة المنورة,الهدراء، 3667، 9651، المدينة المنورة 42369,42369,المدينة المنورة,Asia/Riyadh,,"الهدراء، 3667، 9651، المدينة المنورة 42369, المدينة المنورة"
703,24.4522,39.6985,sa/en,Madinah,IKEA Madinah store,3rd Ring Road Qassim Road intersection,42369,Madinah,Asia/Riyadh,,"3rd Ring Road Qassim Road intersection, Madinah"
704,39.2609,9.0671,it/it,Elmas,IKEA Elmas,Viale Elmas 216,09030,Cagliari,Europe/Rome,ITCA,"Viale Elmas 216, Cagliari"
705,41.4048,2.191,es/es,Glòries - Tienda Urbana,IKEA Glòries - Tienda Urbana,"Centre comercial Westfield Glòries, Avinguda Diagonal, 208",08018,Barcelona,Europe/Madrid,ESB,"Centre comercial Westfield Glòries, Avinguda Diagonal, 208, Barcelona"
705,41.4048,2.191,es/eu,Glòries - Tienda Urbana,IKEA Glòries - Tienda Urbana,"Centre comercial Westfield Glòries, Avinguda Diagonal, 208",08018,Barcelona,Europe/Madrid,ESB,"Centre comercial Westfield Glòries, Avinguda Diagonal, 208, Barcelona"
705,41.4048,2.191,es/gl,Glòries - Tienda Urbana,IKEA Glòries - Tienda Urbana,"Centre comercial Westfield Glòries, Avinguda Diagonal, 208",08018,Barcelona,Europe/Madrid,ESB,"Centre comercial Westfield Glòries, Avinguda Diagonal, 208, Barcelona"
705,41.4048,2.191,es/ca,Glòries - Botiga Urbana,IKEA Glòries - Botiga Urbana,"Centre comercial Westfield Glòries, Avinguda Diagonal, 208",08018,Barcelona,Europe/Madrid,ESB,"Centre comercial Westfield Glòries, Avinguda Diagonal, 208, Barcelona"
705,41.4048,2.191,es/en,Glories - Urban Store,IKEA Glories - Urban Store,"Centre comercial Westfield Glòries, Avinguda Diagonal, 208",08018,Barcelona,Europe/Madrid,ESB,"Centre comercial Westfield Glòries, Avinguda Diagonal, 208, Barcelona"
706,41.395011315458014,2.1520564678020477,es/es,Diagonal - Tienda Urbana,IKEA Diagonal - Tienda Urbana,"Avinguda Diagonal, 532",08006,Barcelona,Europe/Madrid,ESB,"Avinguda Diagonal, 532, Barcelona"
706,41.395011315458014,2.1520564678020477,es/eu,Diagonal,IKEA Diagonal,Av. Diagonal 532,08006,Barcelona,Europe/Madrid,ESB,"Av. Diagonal 532, Barcelona"
706,41.395011315458014,2.1520564678020477,es/gl,Diagonal,IKEA Diagonal,Av. Diagonal 532,08006,Barcelona,Europe/Madrid,ESB,"Av. Diagonal 532, Barcelona"
706,41.395011315458014,2.1520564678020477,es/ca,Diagonal - Botiga Urbana,IKEA Diagonal - Botiga Urbana,"Avinguda Diagonal, 532",08006,Barcelona,Europe/Madrid,ESB,"Avinguda Diagonal, 532, Barcelona"
706,41.395011315458014,2.1520564678020477,es/en,Diagonal - Urban Store,IKEA Diagonal - Urban Store,"Avinguda Diagonal, 532",08006,Barcelona,Europe/Madrid,ESB,"Avinguda Diagonal, 532, Barcelona"
709,41.1106,1.2078,es/es,Tarragona,IKEA Tarragona,Carrer d´Entrevies 5,43006,Tarragona,Europe/Madrid,EST,"Carrer d´Entrevies 5, Tarragona"
709,41.1106,1.2078,es/eu,Tarragona,IKEA Tarragona,Carrer d´Entrevies 5,43006,Tarragona,Europe/Madrid,EST,"Carrer d´Entrevies 5, Tarragona"
709,41.1106,1.2078,es/gl,Tarragona,IKEA Tarragona,Carrer d´Entrevies 5,43006,Tarragona,Europe/Madrid,EST,"Carrer d´Entrevies 5, Tarragona"
709,41.1106,1.2078,es/ca,Tarragona,IKEA Tarragona,Carrer d´Entrevies 5,43006,Tarragona,Europe/Madrid,EST,"Carrer d´Entrevies 5, Tarragona"
709,41.1106,1.2078,es/en,Tarragona,IKEA Tarragona,Carrer d´Entrevies 5,43006,Tarragona,Europe/Madrid,EST,"Carrer d´Entrevies 5, Tarragona"
717,43.4563776,-3.8634152,es/es,IKEA Santander,IKEA Santander,"El Alisal, C/ Joaquín Rodrigo, 10",39011,Santander,Europe/Madrid,ES,"El Alisal, C/ Joaquín Rodrigo, 10, Santander"
717,43.4563776,-3.8634152,es/eu,IKEA Santander,IKEA Santander,"El Alisal, C/ Joaquín Rodrigo, 10",39011,Santander,Europe/Madrid,ES,"El Alisal, C/ Joaquín Rodrigo, 10, Santander"
717,43.4563776,-3.8634152,es/gl,IKEA Santander,IKEA Santander,"El Alisal, C/ Joaquín Rodrigo, 10",39011,Santander,Europe/Madrid,ES,"El Alisal, C/ Joaquín Rodrigo, 10, Santander"
717,43.4563776,-3.8634152,es/ca,IKEA Santander,IKEA Santander,"El Alisal, C/ Joaquín Rodrigo, 10",39011,Santander,Europe/Madrid,ES,"El Alisal, C/ Joaquín Rodrigo, 10, Santander"
717,43.4563776,-3.8634152,es/en,Santander,IKEA Santander,"El Alisal, C/ Joaquín Rodrigo, 10",39011,Santander,Europe/Madrid,ES,"El Alisal, C/ Joaquín Rodrigo, 10, Santander"
718,40.4798,-3.7072,es/es,La Vaguada,IKEA La Vaguada,Avenida de Monforte de Lemos 36,28029,Madrid,Europe/Madrid,,"Avenida de Monforte de Lemos 36, Madrid"
718,40.4798,-3.7072,es/eu,La Vaguada,IKEA La Vaguada,Avenida de Monforte de Lemos 36,28029,Madrid,Europe/Madrid,,"Avenida de Monforte de Lemos 36, Madrid"
718,40.4798,-3.7072,es/gl,La Vaguada,IKEA La Vaguada,Avenida de Monforte de Lemos 36,28029,Madrid,Europe/Madrid,,"Avenida de Monforte de Lemos 36, Madrid"
718,40.4798,-3.7072,es/ca,La Vaguada,IKEA La Vaguada,Avenida de Monforte de Lemos 36,28029,Madrid,Europe/Madrid,,"Avenida de Monforte de Lemos 36, Madrid"
718,40.4798,-3.7072,es/en,La Vaguada,IKEA La Vaguada,Avenida de Monforte de Lemos 36,28029,Madrid,Europe/Madrid,,"Avenida de Monforte de Lemos 36, Madrid"
719,48.830385638900374,2.354864903742871,fr/fr,Italie Deux,IKEA Italie Deux,30 Av. d'Italie (centre commercial Italie Deux),75013,Paris,Europe/Paris,FRIDF,"30 Av. d'Italie (centre commercial Italie Deux), Paris"
720,28.4332,77.0489,in/en,Gurgaon - Sector 47,IKEA Gurgaon - Sector 47,,122002,Gurgaon,Asia/Kolkata,INHR,", Gurgaon"
721,24.3331,54.5239,ae/ar,Dalma,ايكيا Dalma,Al Wazn St,91122,Abu Dhabi,Asia/Dubai,,"Al Wazn St, Abu Dhabi"
721,24.3331,54.5239,ae/en,Dalma,IKEA Dalma,Al Wazn St,91122,Abu Dhabi,Asia/Dubai,,"Al Wazn St, Abu Dhabi"
722,59.9127,10.7438,no/no,på Karl Johan,IKEA på Karl Johan,Karl Johans gate 15,0154,Oslo,Europe/Oslo,,"Karl Johans gate 15, Oslo"
722,59.9127,10.7438,no/en,on Karl Johan,IKEA on Karl Johan,Karl Johans gate 15,0154,Oslo,Europe/Oslo,,"Karl Johans gate 15, Oslo"
726,37.5652,127.1576,kr/ko,Gangdong,IKEA Gangdong,Gangdong-gu Godeok-dong 352-12,05203,Seoul,Asia/Seoul,,Seoul Gangdong-gu Godeok-dong 352-12
726,37.5652,127.1576,kr/en,Gangdong,IKEA Gangdong,Gangdong-gu Godeok-dong 352-12,05203,Seoul,Asia/Seoul,,"Gangdong-gu Godeok-dong 352-12, Seoul"
728,1.5886,110.4061,my/en,East Malaysia Online Store,IKEA East Malaysia Online Store,Distribution center,93050,Kuching,Asia/Kuching,MY13,"Distribution center, Kuching"
728,1.5886,110.4061,my/ms,East Malaysia Online Store,IKEA East Malaysia Online Store,Distribution center,93050,Kuching,Asia/Kuching,MY13,"Distribution center, Kuching"
730,26.3995,43.9442,sa/ar,Buraidah,ايكيا معرض Buraidah,King Salman Road,,Buraidah,Asia/Riyadh,,"King Salman Road, Buraidah"
730,26.3995,43.9442,sa/en,Buraidah,IKEA Buraidah store,King Salman Road,,Buraidah,Asia/Riyadh,,"King Salman Road, Buraidah"
731,18.322,42.7521,sa/ar,Aseer Gate,ايكيا معرض Aseer Gate,Prince sultan road,62481,Khamees Mushait,Asia/Riyadh,,"Prince sultan road, Khamees Mushait"
731,18.322,42.7521,sa/en,Aseer Gate,IKEA Aseer Gate store,Prince sultan road,62481,Khamees Mushait,Asia/Riyadh,,"Prince sultan road, Khamees Mushait"
887,35.8562,139.8704,jp/ja,新三郷,IKEA新三郷,新三郷ららシティ2-2-2,341-0009,埼玉県三郷市,Asia/Tokyo,JP11,埼玉県三郷市新三郷ららシティ2-2-2
887,35.8562,139.8704,jp/en,Shin Misato,IKEA Shin Misato,2-2-2 Lala city Shinmisato,341-0009,Misato-shi,Asia/Tokyo,JP11,"2-2-2 Lala city Shinmisato, Misato-shi"
917,47.4084,9.3069,ch/de,St. Gallen,IKEA St. Gallen,Zürcherstrasse 460,9015,St. Gallen,Europe/Zurich,CHSG,"Zürcherstrasse 460, St. Gallen"
917,47.4084,9.3069,ch/fr,St. Gallen,IKEA St. Gallen,Zürcherstrasse 460,9015,St. Gallen,Europe/Zurich,CHSG,"Zürcherstrasse 460, St. Gallen"
917,47.4084,9.3069,ch/en,St. Gallen,IKEA St. Gallen,Zürcherstrasse 460,9015,St. Gallen,Europe/Zurich,CHSG,"Zürcherstrasse 460, St. Gallen"
917,47.4084,9.3069,ch/it,St. Gallen,IKEA St. Gallen,Zürcherstrasse 460,9015,St. Gallen,Europe/Zurich,CHSG,"Zürcherstrasse 460, St. Gallen"
918,46.2193,6.0924,ch/de,Vernier,IKEA Vernier,"156,Route de Vernier",1214,Vernier,Europe/Zurich,CHGE,"156,Route de Vernier, Vernier"
918,46.2193,6.0924,ch/fr,Vernier,IKEA Vernier,"156,Route de Vernier",1214,Vernier,Europe/Zurich,CHGE,"156,Route de Vernier, Vernier"
918,46.2193,6.0924,ch/en,Vernier,IKEA Vernier,"156,Route de Vernier",1214,Vernier,Europe/Zurich,CHGE,"156,Route de Vernier, Vernier"
918,46.2193,6.0924,ch/it,Vernier,IKEA Vernier,"156,Route de Vernier",1214,Vernier,Europe/Zurich,CHGE,"156,Route de Vernier, Vernier"
919,-27.6366,153.1358,au/en,Logan,IKEA Logan,3539-3565 PACIFIC HIGHWAY,4127,SLACKS CREEK,Australia/Brisbane,AUQL,"3539-3565 PACIFIC HIGHWAY, SLACKS CREEK"
921,40.672,-74.0115,us/es,"Brooklyn, NY","IKEA Brooklyn, NY",1 Beard Street,11231,Brooklyn,America/New_York,USNY,"1 Beard Street, Brooklyn"
921,40.672,-74.0115,us/en,"Brooklyn, NY","IKEA Brooklyn, NY",1 Beard Street,11231,Brooklyn,America/New_York,USNY,"1 Beard Street, Brooklyn"
1006,,,si/sl,IKEA Remote Customer Meeting Point Slovenia,IKEA Remote Customer Meeting Point Slovenia,,,,Europe/Ljubljana,,", "
1010,50.8221,-0.1452,gb/en,Brighton - Churchill Sq,IKEA Brighton - Churchill Sq,"Churchill Square, Russell Place",BN1 2TE,BRIGHTON,Europe/London,,"Churchill Square, Russell Place, BRIGHTON"
1013,32.918,-96.4265,us/es,"TX, Rockwall","IKEA TX, Rockwall",1801 E IH30,75087-6400,Rockwall,America/Chicago,USTX,"1801 E IH30, Rockwall"
1013,32.918,-96.4265,us/en,"TX, Rockwall","IKEA TX, Rockwall",1801 E IH30,75087-6400,Rockwall,America/Chicago,USTX,"1801 E IH30, Rockwall"
1014,28.5862,77.3752,in/en,IKEA Noida Sector 51,IKEA Noida Sector 51,,201301,Noida,Asia/Kolkata,INUP,", Noida"
1015,59.3704,18.0037,se/sv,MoS,IKEA MoS,Stjärntorget 2,169 79,Solna,Europe/Stockholm,,"Stjärntorget 2, Solna"
1015,59.3704,18.0037,se/en,MoS,IKEA MoS,Stjärntorget 2,169 79,Solna,Europe/Stockholm,,"Stjärntorget 2, Solna"
1026,39.2364,9.1425,it/it,Cagliari,IKEA Cagliari,"Via Marconi 173,",09031,Cagliari,Europe/Rome,,"Via Marconi 173,, Cagliari"
1027,42.7875,-1.6347,es/es,IKEA Pamplona,IKEA Pamplona,Calle T 3,31191,Cordoville-Navarra,Europe/Madrid,ESBI,"Calle T 3, Cordoville-Navarra"
1027,42.7875,-1.6347,es/eu,IKEA Pamplona,IKEA Pamplona,Calle T 3,31191,Cordoville-Navarra,Europe/Madrid,ESBI,"Calle T 3, Cordoville-Navarra"
1027,42.7875,-1.6347,es/gl,IKEA Pamplona,IKEA Pamplona,Calle T 3,31191,Cordoville-Navarra,Europe/Madrid,ESBI,"Calle T 3, Cordoville-Navarra"
1027,42.7875,-1.6347,es/ca,IKEA Pamplona,IKEA Pamplona,Calle T 3,31191,Cordoville-Navarra,Europe/Madrid,ESBI,"Calle T 3, Cordoville-Navarra"
1027,42.7875,-1.6347,es/en,IKEA Pamplona,IKEA Pamplona,Calle T 3,31191,Cordoville-Navarra,Europe/Madrid,ESBI,"Calle T 3, Cordoville-Navarra"
1028,41.2384,1.7529,es/ca,Sant Pere de Ribes,IKEA Sant Pere de Ribes,"Parc d'Oci, Rambla del Garraf, s/n,",08812,Les Roquetes,Europe/Madrid,ESB,"Parc d'Oci, Rambla del Garraf, s/n,, Les Roquetes"
1099,32.8695,-96.7689,us/es,"TX, Dallas University Park","IKEA TX, Dallas University Park",8030 Park Ln Suite 200,75231-5931,Dallas,America/Chicago,USTX,"8030 Park Ln Suite 200, Dallas"
1099,32.8695,-96.7689,us/en,"TX, Dallas University Park","IKEA TX, Dallas University Park",8030 Park Ln Suite 200,75231-5931,Dallas,America/Chicago,USTX,"8030 Park Ln Suite 200, Dallas"
1100,26.2021,-98.2001,us/es,"TX, Pharr - Town Center","IKEA TX, Pharr - Town Center","500 N Jackson Rd., Suite A-2 & B-1",78577-2108,Pharr,America/Chicago,USTX,"500 N Jackson Rd., Suite A-2 & B-1, Pharr"
1100,26.2021,-98.2001,us/en,"TX, Pharr - Town Center","IKEA TX, Pharr - Town Center","500 N Jackson Rd., Suite A-2 & B-1",78577-2108,Pharr,America/Chicago,USTX,"500 N Jackson Rd., Suite A-2 & B-1, Pharr"
1129,43.0686,-76.1743,us/es,"NY, Syracuse","IKEA NY, Syracuse",9090 Destiny Usa Dr,13204-6090,Syracuse,America/New_York,USNY,"9090 Destiny Usa Dr, Syracuse"
1129,43.0686,-76.1743,us/en,"NY, Syracuse","IKEA NY, Syracuse",9090 Destiny Usa Dr,13204-6090,Syracuse,America/New_York,USNY,"9090 Destiny Usa Dr, Syracuse"
1130,38.888,-77.4398,us/en,"VA, Chantilly","IKEA VA, Chantilly",4320 Chantilly Shopping Center,20151-4016,Chantilly,America/New_York,USVA,"4320 Chantilly Shopping Center, Chantilly"
1130,38.888,-77.4398,us/es,"VA, Chantilly","IKEA VA, Chantilly",4320 Chantilly Shopping Center,20151-4016,Chantilly,America/New_York,USVA,"4320 Chantilly Shopping Center, Chantilly"
1132,33.5998,-111.9837,us/en,"AZ, Phoenix Scottsdale","IKEA AZ, Phoenix Scottsdale",4643 East Cactus Rd,85032-7638,Phoenix,America/Phoenix,USAZ,"4643 East Cactus Rd, Phoenix"
1132,33.5998,-111.9837,us/es,"AZ, Phoenix Scottsdale","IKEA AZ, Phoenix Scottsdale",4643 East Cactus Rd,85032-7638,Phoenix,America/Phoenix,USAZ,"4643 East Cactus Rd, Phoenix"
1133,28.6419,77.1066,in/en,IKEA Delhi - Pacific,IKEA Delhi - Pacific,Najafgarh Road,110018,Delhi,Asia/Kolkata,INDL,"Najafgarh Road, Delhi"
12852,40.4233,-3.6702,es/es,Goya Tienda Urbana (Madrid),IKEA Goya Tienda Urbana (Madrid),Calle Goya 47,28001,Madrid,Europe/Madrid,ESM,"Calle Goya 47, Madrid"
12852,40.4233,-3.6702,es/eu,Goya (Madrid),IKEA Goya (Madrid),Calle Goya 47,28001,Madrid,Europe/Madrid,ESM,"Calle Goya 47, Madrid"
12852,40.4233,-3.6702,es/gl,Goya (Madrid),IKEA Goya (Madrid),Calle Goya 47,28001,Madrid,Europe/Madrid,ESM,"Calle Goya 47, Madrid"
12852,40.4233,-3.6702,es/ca,Goya (Madrid),IKEA Goya (Madrid),Calle Goya 47,28001,Madrid,Europe/Madrid,ESM,"Calle Goya 47, Madrid"
12852,40.4233,-3.6702,es/en,Goya,IKEA Goya,Calle Goya 47Calle Goya 47,28001,Madrid,Europe/Madrid,ESM,"Calle Goya 47Calle Goya 47, Madrid"
